"STATION","DATE","REPORT_TYPE","SOURCE","AWND","BackupDirection","BackupDistance","BackupDistanceUnit","BackupElements","BackupElevation","BackupElevationUnit","BackupEquipment","BackupLatitude","BackupLongitude","BackupName","CDSD","CLDD","DSNW","DailyAverageDewPointTemperature","DailyAverageDryBulbTemperature","DailyAverageRelativeHumidity","DailyAverageSeaLevelPressure","DailyAverageStationPressure","DailyAverageWetBulbTemperature","DailyAverageWindSpeed","DailyCoolingDegreeDays","DailyDepartureFromNormalAverageTemperature","DailyHeatingDegreeDays","DailyMaximumDryBulbTemperature","DailyMinimumDryBulbTemperature","DailyPeakWindDirection","DailyPeakWindSpeed","DailyPrecipitation","DailySnowDepth","DailySnowfall","DailySustainedWindDirection","DailySustainedWindSpeed","DailyWeather","HDSD","HTDD","HeavyFog","HourlyAltimeterSetting","HourlyDewPointTemperature","HourlyDryBulbTemperature","HourlyPrecipitation","HourlyPresentWeatherType","HourlyPressureChange","HourlyPressureTendency","HourlyRelativeHumidity","HourlySeaLevelPressure","HourlySkyConditions","HourlyStationPressure","HourlyVisibility","HourlyWetBulbTemperature","HourlyWindDirection","HourlyWindGustSpeed","HourlyWindSpeed","MonthlyAverageRH","MonthlyDaysWithGT001Precip","MonthlyDaysWithGT010Precip","MonthlyDaysWithGT32Temp","MonthlyDaysWithGT90Temp","MonthlyDaysWithLT0Temp","MonthlyDaysWithLT32Temp","MonthlyDepartureFromNormalAverageTemperature","MonthlyDepartureFromNormalCoolingDegreeDays","MonthlyDepartureFromNormalHeatingDegreeDays","MonthlyDepartureFromNormalMaximumTemperature","MonthlyDepartureFromNormalMinimumTemperature","MonthlyDepartureFromNormalPrecipitation","MonthlyDewpointTemperature","MonthlyGreatestPrecip","MonthlyGreatestPrecipDate","MonthlyGreatestSnowDepth","MonthlyGreatestSnowDepthDate","MonthlyGreatestSnowfall","MonthlyGreatestSnowfallDate","MonthlyMaxSeaLevelPressureValue","MonthlyMaxSeaLevelPressureValueDate","MonthlyMaxSeaLevelPressureValueTime","MonthlyMaximumTemperature","MonthlyMeanTemperature","MonthlyMinSeaLevelPressureValue","MonthlyMinSeaLevelPressureValueDate","MonthlyMinSeaLevelPressureValueTime","MonthlyMinimumTemperature","MonthlySeaLevelPressure","MonthlyStationPressure","MonthlyTotalLiquidPrecipitation","MonthlyTotalSnowfall","MonthlyWetBulb","NormalsCoolingDegreeDay","NormalsHeatingDegreeDay","REM","REPORT_TYPE","SOURCE","ShortDurationEndDate005","ShortDurationEndDate010","ShortDurationEndDate015","ShortDurationEndDate020","ShortDurationEndDate030","ShortDurationEndDate045","ShortDurationEndDate060","ShortDurationEndDate080","ShortDurationEndDate100","ShortDurationEndDate120","ShortDurationEndDate150","ShortDurationEndDate180","ShortDurationPrecipitationValue005","ShortDurationPrecipitationValue010","ShortDurationPrecipitationValue015","ShortDurationPrecipitationValue020","ShortDurationPrecipitationValue030","ShortDurationPrecipitationValue045","ShortDurationPrecipitationValue060","ShortDurationPrecipitationValue080","ShortDurationPrecipitationValue100","ShortDurationPrecipitationValue120","ShortDurationPrecipitationValue150","ShortDurationPrecipitationValue180","Sunrise","Sunset","TStorms","WindEquipmentChangeDate"
"72518014735","2021-06-01T00:51:00","FM-15","7",,,,,"PRECIP","260",,"PLASTIC","42.6918","-73.83109","NWS ALBANY, NY",,,,,,,,,,,,,,,,,,,,,,,,,,,"30.21","45","45","0.00",,"-0.01","2","100","30.22","BKN:07 240","29.89","10.00","45","180",,"3",,,,,,,,,,,,,,,,,,,,,,,,,,,,,,,,,,,,,"MET11606/01/21 00:51:02 METAR KALB 010551Z 18003KT 10SM BKN240 07/07 A3021 RMK AO2 SLP232 T00720072 10150 20061 52002 (BA)","FM-15","7",,,,,,,,,,,,,,,,,,,,,,,,,,,,"2006-09-08"
"72518014735","2021-06-01T01:00:00","FM-12","4",,,,,"PRECIP","260",,"PLASTIC","42.6918","-73.83109","NWS ALBANY, NY",,,,,,,,,,,,,,,,,,,,,,,,,,,,"45","45",,,"-0.01","2","100","30.22",,"29.89","9.94","45","180",,"3",,,,,,,,,,,,,,,,,,,,,,,,,,,,,,,,,,,,,"SYN08072518 32966 61803 10072 20072 30122 40232 52002 90551 333 10150 20061 555 90106=","FM-12","4",,,,,,,,,,,,,,,,,,,,,,,,,,,,"2006-09-08"
"72518014735","2021-06-01T01:51:00","FM-15","7",,,,,"PRECIP","260",,"PLASTIC","42.6918","-73.83109","NWS ALBANY, NY",,,,,,,,,,,,,,,,,,,,,,,,,,,"30.22","44","44","0.00",,,,"100","30.22","SCT:04 210 BKN:07 240","29.90","10.00","44","000",,"0",,,,,,,,,,,,,,,,,,,,,,,,,,,,,,,,,,,,,"MET10506/01/21 01:51:02 METAR KALB 010651Z 00000KT 10SM SCT210 BKN240 07/07 A3022 RMK AO2 SLP235 T00670067 (BA)","FM-15","7",,,,,,,,,,,,,,,,,,,,,,,,,,,,"2006-09-08"
"72518014735","2021-06-01T02:51:00","FM-15","7",,,,,"PRECIP","260",,"PLASTIC","42.6918","-73.83109","NWS ALBANY, NY",,,,,,,,,,,,,,,,,,,,,,,,,,,"30.22","46","46","0.00",,,,"100","30.22","SCT:04 210 BKN:07 250","29.90","10.00","46","000",,"0",,,,,,,,,,,,,,,,,,,,,,,,,,,,,,,,,,,,,"MET10506/01/21 02:51:02 METAR KALB 010751Z 00000KT 10SM SCT210 BKN250 08/08 A3022 RMK AO2 SLP235 T00780078 (BA)","FM-15","7",,,,,,,,,,,,,,,,,,,,,,,,,,,,"2006-09-08"
"72518014735","2021-06-01T03:51:00","FM-15","7",,,,,"PRECIP","260",,"PLASTIC","42.6918","-73.83109","NWS ALBANY, NY",,,,,,,,,,,,,,,,,,,,,,,,,,,"30.24","45","45","0.00",,"-0.03","3","100","30.24","FEW:02 210 OVC:08 260","29.92","10.00","45","170",,"3",,,,,,,,,,,,,,,,,,,,,,,,,,,,,,,,,,,,,"MET11106/01/21 03:51:02 METAR KALB 010851Z 17003KT 10SM FEW210 OVC260 07/07 A3024 RMK AO2 SLP242 T00720072 53011 (BA)","FM-15","7",,,,,,,,,,,,,,,,,,,,,,,,,,,,"2006-09-08"
"72518014735","2021-06-01T04:00:00","FM-12","4",,,,,"PRECIP","260",,"PLASTIC","42.6918","-73.83109","NWS ALBANY, NY",,,,,,,,,,,,,,,,,,,,,,,,,,,,"45","45",,,"-0.03","3","100","30.24",,"29.92","9.94","45","170",,"3",,,,,,,,,,,,,,,,,,,,,,,,,,,,,,,,,,,,,"SYN06472518 32966 81703 10072 20072 30133 40242 53011 90851 555 90109=","FM-12","4",,,,,,,,,,,,,,,,,,,,,,,,,,,,"2006-09-08"
"72518014735","2021-06-01T04:51:00","FM-15","7",,,,,"PRECIP","260",,"PLASTIC","42.6918","-73.83109","NWS ALBANY, NY",,,,,,,,,,,,,,,,,,,,,,,,,,,"30.26","47","47","0.00",,,,"100","30.26","SCT:04 150 OVC:08 260","29.94","10.00","47","160",,"3",,,,,,,,,,,,,,,,,,,,,,,,,,,,,,,,,,,,,"MET10506/01/21 04:51:02 METAR KALB 010951Z 16003KT 10SM SCT150 OVC260 08/08 A3026 RMK AO2 SLP246 T00830083 (BA)","FM-15","7",,,,,,,,,,,,,,,,,,,,,,,,,,,,"2006-09-08"
"72518014735","2021-06-01T05:51:00","FM-15","7",,,,,"PRECIP","260",,"PLASTIC","42.6918","-73.83109","NWS ALBANY, NY",,,,,,,,,,,,,,,,,,,,,,,,,,,"30.25","47","48","0.00",,,,"96","30.25","SCT:04 150 OVC:08 260","29.93","10.00","48","170",,"5",,,,,,,,,,,,,,,,,,,,,,,,,,,,,,,,,,,,,"MET10506/01/21 05:51:02 METAR KALB 011051Z 17004KT 10SM SCT150 OVC260 09/08 A3025 RMK AO2 SLP245 T00890083 (BA)","FM-15","7",,,,,,,,,,,,,,,,,,,,,,,,,,,,"2006-09-08"
"72518014735","2021-06-01T06:51:00","FM-15","7",,,,,"PRECIP","260",,"PLASTIC","42.6918","-73.83109","NWS ALBANY, NY",,,,,,,,,,,,,,,,,,,,,,,,,,,"30.25","48","51","0.00","VCFG:2 s ||FG s","-0.01","0","89","30.25","FEW:02 150 OVC:08 260","29.93","10.00s","49","160",,"7",,,,,,,,,,,,,,,,,,,,,,,,,,,,,,,,,,,,,"MET13606/01/21 06:51:02 METAR KALB 011151Z 16006KT 10SM VCFG FEW150 OVC260 11/09 A3025 RMK AO2 SLP245 VCFG SW T01060089 10106 20067 50003 (JB)","FM-15","7",,,,,,,,,,,,,,,,,,,,,,,,,,,,"2006-09-08"
"72518014735","2021-06-01T07:00:00","FM-12","4",,,,,"PRECIP","260",,"PLASTIC","42.6918","-73.83109","NWS ALBANY, NY",,,,,,,,,,,,,,,,,,,,,,,,,,,,"48","51",,"||FG","0.01","9","89","30.25",,"29.93","9.94","49","160",,"7",,,,,,,,,,,,,,,,,,,,,,,,,,,,,,,,,,,,,"SYN08672518 31966 81606 10106 20089 30136 40245 50003 711// 91151 333 10172 20061 555 90112=","FM-12","4",,,,,,,,,,,,,,,,,,,,,,,,,,,,"2006-09-08"
"72518014735","2021-06-01T07:51:00","FM-15","7",,,,,"PRECIP","260",,"PLASTIC","42.6918","-73.83109","NWS ALBANY, NY",,,,,,,,,,,,,,,,,,,,,,,,,,,"30.26","47","53","T","-RA:02 |RA |RA",,,"80","30.26","FEW:02 100 SCT:04 120 OVC:08 250","29.94","10.00","50","180",,"8",,,,,,,,,,,,,,,,,,,,,,,,,,,,,,,,,,,,,"MET14106/01/21 07:51:02 METAR KALB 011251Z 18007KT 10SM -RA FEW100 SCT120 OVC250 12/08 A3026 RMK AO2 RAB30 SLP247 PCPN VRY LGT P0000 T01170083 (JB)","FM-15","7",,,,,,,,,,,,,,,,,,,,,,,,,,,,"2006-09-08"
"72518014735","2021-06-01T08:51:00","FM-15","7",,,,,"PRECIP","260",,"PLASTIC","42.6918","-73.83109","NWS ALBANY, NY",,,,,,,,,,,,,,,,,,,,,,,,,,,"30.27","48","58","T",,,,"70","30.27","FEW:02 120 SCT:04 160 BKN:07 250","29.95","10.00","53","000",,"0",,,,,,,,,,,,,,,,,,,,,,,,,,,,,,,,,,,,,"MET12406/01/21 08:51:02 METAR KALB 011351Z 00000KT 10SM FEW120 SCT160 BKN250 14/09 A3027 RMK AO2 RAE20 SLP252 P0000 T01440089 (JB)","FM-15","7",,,,,,,,,,,,,,,,,,,,,,,,,,,,"2006-09-08"
"72518014735","2021-06-01T09:51:00","FM-15","7",,,,,"PRECIP","260",,"PLASTIC","42.6918","-73.83109","NWS ALBANY, NY",,,,,,,,,,,,,,,,,,,,,,,,,,,"30.26","50","62","0.00",,"-0.01","0","65","30.26","SCT:04 170 BKN:07 250","29.94","10.00","55","VRB",,"6",,,,,,,,,,,,,,,,,,,,,,,,,,,,,,,,,,,,,"MET11906/01/21 09:51:02 METAR KALB 011451Z VRB05KT 10SM SCT170 BKN250 17/10 A3026 RMK AO2 SLP248 60000 T01670100 50003 $ (JB)","FM-15","7",,,,,,,,,,,,,,,,,,,,,,,,,,,,"2006-09-08"
"72518014735","2021-06-01T10:00:00","FM-12","4",,,,,"PRECIP","260",,"PLASTIC","42.6918","-73.83109","NWS ALBANY, NY",,,,,,,,,,,,,,,,,,,,,,,,,,,,"50","62",,,"0.01","9","65","30.26",,"29.94","9.94","55",,,"6",,,,,,,,,,,,,,,,,,,,,,,,,,,,,,,,,,,,,"SYN07072518 12966 6//05 10167 20100 30139 40248 50003 69907 91451 555 90115=","FM-12","4",,,,,,,,,,,,,,,,,,,,,,,,,,,,"2006-09-08"
"72518014735","2021-06-01T10:51:00","FM-15","7",,,,,"PRECIP","260",,"PLASTIC","42.6918","-73.83109","NWS ALBANY, NY",,,,,,,,,,,,,,,,,,,,,,,,,,,"30.24","48","65","0.00",,,,"54","30.24","FEW:02 140 SCT:04 180 BKN:07 250","29.92","10.00","56","180",,"6",,,,,,,,,,,,,,,,,,,,,,,,,,,,,,,,,,,,,"MET11406/01/21 10:51:02 METAR KALB 011551Z 18005KT 10SM FEW140 SCT180 BKN250 18/09 A3024 RMK AO2 SLP242 T01830089 $ (JB)","FM-15","7",,,,,,,,,,,,,,,,,,,,,,,,,,,,"2006-09-08"
"72518014735","2021-06-01T11:51:00","FM-15","7",,,,,"PRECIP","260",,"PLASTIC","42.6918","-73.83109","NWS ALBANY, NY",,,,,,,,,,,,,,,,,,,,,,,,,,,"30.23","48","69","0.00",,,,"47","30.23","FEW:02 55 FEW:02 160 FEW:02 200","29.91","10.00","57","160",,"3",,,,,,,,,,,,,,,,,,,,,,,,,,,,,,,,,,,,,"MET11406/01/21 11:51:02 METAR KALB 011651Z 16003KT 10SM FEW055 FEW160 FEW200 21/09 A3023 RMK AO2 SLP236 T02060089 $ (JB)","FM-15","7",,,,,,,,,,,,,,,,,,,,,,,,,,,,"2006-09-08"
"72518014735","2021-06-01T12:51:00","FM-15","7",,,,,"PRECIP","260",,"PLASTIC","42.6918","-73.83109","NWS ALBANY, NY",,,,,,,,,,,,,,,,,,,,,,,,,,,"30.20","47","71","0.00",,"+0.06","8","42","30.20","FEW:02 60 FEW:02 160 BKN:07 250","29.88","10.00","58","VRB",,"5",,,,,,,,,,,,,,,,,,,,,,,,,,,,,,,,,,,,,"MET13606/01/21 12:51:02 METAR KALB 011751Z VRB04KT 10SM FEW060 FEW160 BKN250 22/08 A3020 RMK AO2 SLP228 60000 T02170083 10222 20106 58020 (JB)","FM-15","7",,,,,,,,,,,,,,,,,,,,,,,,,,,,"2006-09-08"
"72518014735","2021-06-01T13:00:00","FM-12","4",,,,,"PRECIP","260",,"PLASTIC","42.6918","-73.83109","NWS ALBANY, NY",,,,,,,,,,,,,,,,,,,,,,,,,,,,"47","71",,,"+0.06","8","42","30.20","57","29.88","9.94","58",,,"5",,,,,,,,,,,,,,,,,,,,,,,,,,,,,,,,,,,,,"SYN08672518 12766 6//04 10217 20083 30119 40228 58020 69901 91751 333 10222 20106 555 90118=","FM-12","4",,,,,,,,,,,,,,,,,,,,,,,,,,,,"2006-09-08"
"72518014735","2021-06-01T13:51:00","FM-15","7",,,,,"PRECIP","260",,"PLASTIC","42.6918","-73.83109","NWS ALBANY, NY",,,,,,,,,,,,,,,,,,,,,,,,,,,"30.19","44","72","0.00",,,,"37","30.19","FEW:02 60 FEW:02 160 BKN:07 250","29.87","10.00","57","VRB",,"3",,,,,,,,,,,,,,,,,,,,,,,,,,,,,,,,,,,,,"MET11206/01/21 13:51:02 METAR KALB 011851Z VRB03KT 10SM FEW060 FEW160 BKN250 22/07 A3019 RMK AO2 SLP223 T02220067 (JB)","FM-15","7",,,,,,,,,,,,,,,,,,,,,,,,,,,,"2006-09-08"
"72518014735","2021-06-01T14:51:00","FM-15","7",,,,,"PRECIP","260",,"PLASTIC","42.6918","-73.83109","NWS ALBANY, NY",,,,,,,,,,,,,,,,,,,,,,,,,,,"30.17","47","71","0.00",,,,"42","30.17","SCT:04 75 SCT:04 160 BKN:07 250","29.85","10.00","58","200",,"6",,,,,,,,,,,,,,,,,,,,,,,,,,,,,,,,,,,,,"MET11306/01/21 14:51:02 METAR KALB 011951Z 20005KT 10SM SCT075 SCT160 BKN250 22/08 A3017 RMK AO2 SLP218 T02170083 (MAK)","FM-15","7",,,,,,,,,,,,,,,,,,,,,,,,,,,,"2006-09-08"
"72518014735","2021-06-01T15:51:00","FM-15","7",,,,,"PRECIP","260",,"PLASTIC","42.6918","-73.83109","NWS ALBANY, NY",,,,,,,,,,,,,,,,,,,,,,,,,,,"30.16","46","73","0.00",,"+0.04","6","38","30.16","SCT:04 80 BKN:07 90 BKN:07 250","29.84","10.00","58","000",,"0",,,,,,,,,,,,,,,,,,,,,,,,,,,,,,,,,,,,,"MET11906/01/21 15:51:02 METAR KALB 012051Z 00000KT 10SM SCT080 BKN090 BKN250 23/08 A3016 RMK AO2 SLP215 T02280078 56013 (MAK)","FM-15","7",,,,,,,,,,,,,,,,,,,,,,,,,,,,"2006-09-08"
"72518014735","2021-06-01T16:00:00","FM-12","4",,,,,"PRECIP","260",,"PLASTIC","42.6918","-73.83109","NWS ALBANY, NY",,,,,,,,,,,,,,,,,,,,,,,,,,,,"46","73",,,"+0.04","6","38","30.16","74","29.84","9.94","58","000",,"0",,,,,,,,,,,,,,,,,,,,,,,,,,,,,,,,,,,,,"SYN06472518 32866 60000 10228 20078 30106 40215 56013 92051 555 90121=","FM-12","4",,,,,,,,,,,,,,,,,,,,,,,,,,,,"2006-09-08"
"72518014735","2021-06-01T16:51:00","FM-15","7",,,,,"PRECIP","260",,"PLASTIC","42.6918","-73.83109","NWS ALBANY, NY",,,,,,,,,,,,,,,,,,,,,,,,,,,"30.16","47","73","0.00",,,,"40","30.16","BKN:07 80 BKN:07 100 BKN:07 250","29.84","10.00","59","VRB",,"6",,,,,,,,,,,,,,,,,,,,,,,,,,,,,,,,,,,,,"MET11306/01/21 16:51:02 METAR KALB 012151Z VRB05KT 10SM BKN080 BKN100 BKN250 23/08 A3016 RMK AO2 SLP214 T02280083 (MAK)","FM-15","7",,,,,,,,,,,,,,,,,,,,,,,,,,,,"2006-09-08"
"72518014735","2021-06-01T17:51:00","FM-15","7",,,,,"PRECIP","260",,"PLASTIC","42.6918","-73.83109","NWS ALBANY, NY",,,,,,,,,,,,,,,,,,,,,,,,,,,"30.17","48","71","0.00",,,,"44","30.17","SCT:04 80 BKN:07 110 BKN:07 250","29.85","10.00","58","190",,"7",,,,,,,,,,,,,,,,,,,,,,,,,,,,,,,,,,,,,"MET11306/01/21 17:51:02 METAR KALB 012251Z 19006KT 10SM SCT080 BKN110 BKN250 22/09 A3017 RMK AO2 SLP216 T02170089 (MAK)","FM-15","7",,,,,,,,,,,,,,,,,,,,,,,,,,,,"2006-09-08"
"72518014735","2021-06-01T18:51:00","FM-15","7",,,,,"PRECIP","260",,"PLASTIC","42.6918","-73.83109","NWS ALBANY, NY",,,,,,,,,,,,,,,,,,,,,,,,,,,"30.18","49","69","0.00",,"-0.02","3","49","30.18","BKN:07 110 BKN:07 250","29.86","10.00","58","200",,"6",,,,,,,,,,,,,,,,,,,,,,,,,,,,,,,,,,,,,"MET12406/01/21 18:51:02 METAR KALB 012351Z 20005KT 10SM BKN110 BKN250 21/09 A3018 RMK AO2 SLP221 T02060094 10233 20206 53006 (MAK)","FM-15","7",,,,,,,,,,,,,,,,,,,,,,,,,,,,"2006-09-08"
"72518014735","2021-06-01T19:00:00","FM-12","4",,,,,"PRECIP","260",,"PLASTIC","42.6918","-73.83109","NWS ALBANY, NY",,,,,,,,,,,,,,,,,,,,,,,,,,,,"49","69",,,"-0.02","3","49","30.18",,"29.86","9.94","58","200",,"6",,,,,,,,,,,,,,,,,,,,,,,,,,,,,,,,,,,,,"SYN08072518 32966 62005 10206 20094 30112 40221 53006 92351 333 10233 20067 555 90200=","FM-12","4",,,,,,,,,,,,,,,,,,,,,,,,,,,,"2006-09-08"
"72518014735","2021-06-01T19:51:00","FM-15","7",,,,,"PRECIP","260",,"PLASTIC","42.6918","-73.83109","NWS ALBANY, NY",,,,,,,,,,,,,,,,,,,,,,,,,,,"30.19","49","65","0.00",,,,"56","30.19","FEW:02 90 BKN:07 250","29.87","10.00","56","VRB",,"3",,,,,,,,,,,,,,,,,,,,,,,,,,,,,,,,,,,,,"MET10006/01/21 19:51:01 METAR KALB 020051Z VRB03KT 10SM FEW090 BKN250 18/09 A3019 RMK AO2 SLP225 T01830094","FM-15","7",,,,,,,,,,,,,,,,,,,,,,,,,,,,"2006-09-08"
"72518014735","2021-06-01T20:51:00","FM-15","7",,,,,"PRECIP","260",,"PLASTIC","42.6918","-73.83109","NWS ALBANY, NY",,,,,,,,,,,,,,,,,,,,,,,,,,,"30.20","50","59","0.00",,,,"72","30.20","BKN:07 250","29.88","10.00","54","000",,"0",,,,,,,,,,,,,,,,,,,,,,,,,,,,,,,,,,,,,"MET09306/01/21 20:51:01 METAR KALB 020151Z 00000KT 10SM BKN250 15/10 A3020 RMK AO2 SLP227 T01500100","FM-15","7",,,,,,,,,,,,,,,,,,,,,,,,,,,,"2006-09-08"
"72518014735","2021-06-01T21:51:00","FM-15","7",,,,,"PRECIP","260",,"PLASTIC","42.6918","-73.83109","NWS ALBANY, NY",,,,,,,,,,,,,,,,,,,,,,,,,,,"30.20","51","57","0.00",,"-0.02","1","81","30.20","BKN:07 250","29.88","10.00","54","000",,"0",,,,,,,,,,,,,,,,,,,,,,,,,,,,,,,,,,,,,"MET09906/01/21 21:51:01 METAR KALB 020251Z 00000KT 10SM BKN250 14/11 A3020 RMK AO2 SLP228 T01390106 51007","FM-15","7",,,,,,,,,,,,,,,,,,,,,,,,,,,,"2006-09-08"
"72518014735","2021-06-01T22:00:00","FM-12","4",,,,,"PRECIP","260",,"PLASTIC","42.6918","-73.83109","NWS ALBANY, NY",,,,,,,,,,,,,,,,,,,,,,,,,,,,"51","57",,,"-0.02","1","81","30.20",,"29.88","9.94","54","000",,"0",,,,,,,,,,,,,,,,,,,,,,,,,,,,,,,,,,,,,"SYN06472518 32966 60000 10139 20106 30119 40228 51007 90251 555 90203=","FM-12","4",,,,,,,,,,,,,,,,,,,,,,,,,,,,"2006-09-08"
"72518014735","2021-06-01T22:51:00","FM-15","7",,,,,"PRECIP","260",,"PLASTIC","42.6918","-73.83109","NWS ALBANY, NY",,,,,,,,,,,,,,,,,,,,,,,,,,,"30.21","51","55","0.00",,,,"87","30.21","SCT:04 250","29.89","10.00","53","170",,"3",,,,,,,,,,,,,,,,,,,,,,,,,,,,,,,,,,,,,"MET09306/01/21 22:51:02 METAR KALB 020351Z 17003KT 10SM SCT250 13/11 A3021 RMK AO2 SLP230 T01280106","FM-15","7",,,,,,,,,,,,,,,,,,,,,,,,,,,,"2006-09-08"
"72518014735","2021-06-01T23:51:00","FM-15","7",,,,,"PRECIP","260",,"PLASTIC","42.6918","-73.83109","NWS ALBANY, NY",,,,,,,,,,,,,,,,,,,,,,,,,,,"30.21","50","51","0.00",,,,"96","30.21","SCT:04 250","29.89","10.00","50","000",,"0",,,,,,,,,,,,,,,,,,,,,,,,,,,,,,,,,,,,,"MET10306/01/21 23:51:02 METAR KALB 020451Z 00000KT 10SM SCT250 11/10 A3021 RMK AO2 SLP230 T01060100 402330061","FM-15","7",,,,,,,,,,,,,,,,,,,,,,,,,,,,"2006-09-08"
"72518014735","2021-06-01T23:59:00","SOD  ","6",,,,,"PRECIP","260",,"PLASTIC","42.6918","-73.83109","NWS ALBANY, NY",,,,,"59",,,"29.89",,"3.5","0","-3.8","6","74","43","210","14","T","0","0.0","210","12","RA",,,,,,,,,,,,,,,,,,,,,,,,,,,,,,,,,,,,,,,,,,,,,,,,,,,,,,,,"SOD75624 HR PRECIPITATION (IN):    T SNOW DEPTH (IN):0     24 HR SNOWFALL (IN):0.0  WEATHER(CODE):1  24 HR MAX TEMP (F): 7424 HR MIN TEMP (F): 43AVERAGE STATION PRESSURE:29.890 MINIMUM SEA LEVEL PRESSURE:30.16 TIME OF OCCURRENCE:1736 PEAK WIND SPEED (MPH): 14 PEAK WIND DIR (DEG):210 PEAK WIND TIME (LST):      FASTEST 2MIN SPEED (MPH): 12FASTEST 2MIN DIR (DEG):210 FASTEST 2MIN TIME (LST):     AVERAGE WIND SPEED (MPH): 3.5 24 HR AVG TEMP (F): 59DEPART FROM NORMAL: -5  HEATING DEGREE DAYS:  6 COOLING DEGREE DAYS:  0 LATEST DAY MAX TEMP (0700-1900 LST):74  LATEST NIGHT MIN TEMP(1900-0800 LST):43 HOURLY INCREMENTAL PRECIPITATION VALUES (IN):.00 0.00 0.00 0.00 0.00 0.00 0.00 T    T    0.00 0.00 0.00 0.00 0.00 0.00 0.00 0.00 0.00 0.00 0.00 0.00 0.00 0.00 0.00","SOD  ","6",,,,,,,,,,,,,,,,,,,,,,,,,"0420","1927",,"2006-09-08"
"72518014735","2021-06-02T00:51:00","FM-15","7",,,,,"PRECIP","260",,"PLASTIC","42.6918","-73.83109","NWS ALBANY, NY",,,,,,,,,,,,,,,,,,,,,,,,,,,"30.21","50","50","0.00",,"-0.00","0","100","30.20","SCT:04 250","29.89","10.00","50","000",,"0",,,,,,,,,,,,,,,,,,,,,,,,,,,,,,,,,,,,,"MET11606/02/21 00:51:02 METAR KALB 020551Z 00000KT 10SM SCT250 10/10 A3021 RMK AO2 SLP228 T01000100 10206 20100 50001 (BA)","FM-15","7",,,,,,,,,,,,,,,,,,,,,,,,,,,,"2006-09-08"
"72518014735","2021-06-02T01:00:00","FM-12","4",,,,,"PRECIP","260",,"PLASTIC","42.6918","-73.83109","NWS ALBANY, NY",,,,,,,,,,,,,,,,,,,,,,,,,,,,"50","50",,,"0.00","9","100","30.20",,"29.89","9.94","50","000",,"0",,,,,,,,,,,,,,,,,,,,,,,,,,,,,,,,,,,,,"SYN08072518 32966 40000 10100 20100 30122 40228 50001 90551 333 10206 20067 555 90206=","FM-12","4",,,,,,,,,,,,,,,,,,,,,,,,,,,,"2006-09-08"
"72518014735","2021-06-02T01:51:00","FM-15","7",,,,,"PRECIP","260",,"PLASTIC","42.6918","-73.83109","NWS ALBANY, NY",,,,,,,,,,,,,,,,,,,,,,,,,,,"30.21","49","49","0.00",,,,"100","30.21","BKN:07 250","29.89","10.00","49","000",,"0",,,,,,,,,,,,,,,,,,,,,,,,,,,,,,,,,,,,,"MET10806/02/21 01:51:02 METAR KALB 020651Z 00000KT 10SM BKN250 09/09 A3021 RMK AO2 SLP229 BKN V SCT T00940094 (BA)","FM-15","7",,,,,,,,,,,,,,,,,,,,,,,,,,,,"2006-09-08"
"72518014735","2021-06-02T02:51:00","FM-15","7",,,,,"PRECIP","260",,"PLASTIC","42.6918","-73.83109","NWS ALBANY, NY",,,,,,,,,,,,,,,,,,,,,,,,,,,"30.21","48","48","0.00","MI:1 FG:2 |FG |",,,"100","30.21","FEW:02 250","29.89","10.00","48","000",,"0",,,,,,,,,,,,,,,,,,,,,,,,,,,,,,,,,,,,,"MET11006/02/21 02:51:02 METAR KALB 020751Z 00000KT 10SM MIFG FEW250 09/09 A3021 RMK AO2 SLP231 MIFG S T00890089 (BA)","FM-15","7",,,,,,,,,,,,,,,,,,,,,,,,,,,,"2006-09-08"
"72518014735","2021-06-02T03:51:00","FM-15","7",,,,,"PRECIP","260",,"PLASTIC","42.6918","-73.83109","NWS ALBANY, NY",,,,,,,,,,,,,,,,,,,,,,,,,,,"30.22","47","47","0.00","BC:3 FG:2 |FG |","-0.01","3","100","30.22","BKN:07 250","29.90","10.00","47","000",,"0",,,,,,,,,,,,,,,,,,,,,,,,,,,,,,,,,,,,,"MET11806/02/21 03:51:02 METAR KALB 020851Z 00000KT 10SM BCFG BKN250 08/08 A3022 RMK AO2 SLP232 BCFG N T00830083 53003 $ (BA)","FM-15","7",,,,,,,,,,,,,,,,,,,,,,,,,,,,"2006-09-08"
"72518014735","2021-06-02T04:00:00","FM-12","4",,,,,"PRECIP","260",,"PLASTIC","42.6918","-73.83109","NWS ALBANY, NY",,,,,,,,,,,,,,,,,,,,,,,,,,,,"47","47",,,"-0.01","3","100","30.22",,"29.90","9.94","47","000",,"0",,,,,,,,,,,,,,,,,,,,,,,,,,,,,,,,,,,,,"SYN06472518 31966 60000 10083 20083 30126 40232 53003 90851 555 90209=","FM-12","4",,,,,,,,,,,,,,,,,,,,,,,,,,,,"2006-09-08"
"72518014735","2021-06-02T04:51:00","FM-15","7",,,,,"PRECIP","260",,"PLASTIC","42.6918","-73.83109","NWS ALBANY, NY",,,,,,,,,,,,,,,,,,,,,,,,,,,"30.23","47","47","0.00","BC:3 FG:2 |FG |",,,"100","30.23","FEW:02 200 BKN:07 250","29.91","10.00","47","000",,"0",,,,,,,,,,,,,,,,,,,,,,,,,,,,,,,,,,,,,"MET11906/02/21 04:51:02 METAR KALB 020951Z 00000KT 10SM BCFG FEW200 BKN250 08/08 A3023 RMK AO2 SLP238 BCFG N T00830083 $ (BA)","FM-15","7",,,,,,,,,,,,,,,,,,,,,,,,,,,,"2006-09-08"
"72518014735","2021-06-02T05:51:00","FM-15","7",,,,,"PRECIP","260",,"PLASTIC","42.6918","-73.83109","NWS ALBANY, NY",,,,,,,,,,,,,,,,,,,,,,,,,,,"30.24","51","51","0.00","BC:3 FG:2 |FG |",,,"100","30.24","FEW:02 200 BKN:07 250","29.92","10.00","51","000",,"0",,,,,,,,,,,,,,,,,,,,,,,,,,,,,,,,,,,,,"MET11906/02/21 05:51:02 METAR KALB 021051Z 00000KT 10SM BCFG FEW200 BKN250 11/11 A3024 RMK AO2 SLP239 BCFG N T01060106 $ (BA)","FM-15","7",,,,,,,,,,,,,,,,,,,,,,,,,,,,"2006-09-08"
"72518014735","2021-06-02T06:51:00","FM-15","7",,,,,"PRECIP","260",,"PLASTIC","42.6918","-73.83109","NWS ALBANY, NY",,,,,,,,,,,,,,,,,,,,,,,,,,,"30.24","53","56","0.00",,"-0.03","1","90","30.24","BKN:07 250","29.92","10.00","54","190",,"3",,,,,,,,,,,,,,,,,,,,,,,,,,,,,,,,,,,,,"MET11606/02/21 06:51:02 METAR KALB 021151Z 19003KT 10SM BKN250 13/12 A3024 RMK AO2 SLP241 T01330117 10133 20078 51009 (BA)","FM-15","7",,,,,,,,,,,,,,,,,,,,,,,,,,,,"2006-09-08"
"72518014735","2021-06-02T07:51:00","FM-15","7",,,,,"PRECIP","260",,"PLASTIC","42.6918","-73.83109","NWS ALBANY, NY",,,,,,,,,,,,,,,,,,,,,,,,,,,"30.25","53","60","0.00",,,,"78","30.24","FEW:02 200 BKN:07 250","29.93","10.00","56","170",,"5",,,,,,,,,,,,,,,,,,,,,,,,,,,,,,,,,,,,,"MET10506/02/21 07:51:02 METAR KALB 021251Z 17004KT 10SM FEW200 BKN250 16/12 A3025 RMK AO2 SLP242 T01560117 (JB)","FM-15","7",,,,,,,,,,,,,,,,,,,,,,,,,,,,"2006-09-08"
"72518014735","2021-06-02T08:51:00","FM-15","7",,,,,"PRECIP","260",,"PLASTIC","42.6918","-73.83109","NWS ALBANY, NY",,,,,,,,,,,,,,,,,,,,,,,,,,,"30.24","54","65","0.00",,,,"68","30.23","FEW:02 45 FEW:02 200 BKN:07 250","29.92","10.00","59","000",,"0",,,,,,,,,,,,,,,,,,,,,,,,,,,,,,,,,,,,,"MET11806/02/21 08:51:02 METAR KALB 021351Z 00000KT 10SM FEW045 FEW200 BKN250 18/12 A3024 RMK AO2 SLP238 T01830122 PNO $ (JB)","FM-15","7",,,,,,,,,,,,,,,,,,,,,,,,,,,,"2006-09-08"
"72518014735","2021-06-02T09:51:00","FM-15","7",,,,,"PRECIP","260",,"PLASTIC","42.6918","-73.83109","NWS ALBANY, NY",,,,,,,,,,,,,,,,,,,,,,,,,,,"30.22","53","69","0.00",,"+0.02","8","57","30.22","FEW:02 55 FEW:02 200 BKN:07 250","29.90","10.00","60","000",,"0",,,,,,,,,,,,,,,,,,,,,,,,,,,,,,,,,,,,,"MET13006/02/21 09:51:02 METAR KALB 021451Z 00000KT 10SM FEW055 FEW200 BKN250 21/12 A3022 RMK AO2 SLP233 6//// T02060117 58007 PNO $ (JB)","FM-15","7",,,,,,,,,,,,,,,,,,,,,,,,,,,,"2006-09-08"
"72518014735","2021-06-02T10:00:00","FM-12","4",,,,,"PRECIP","260",,"PLASTIC","42.6918","-73.83109","NWS ALBANY, NY",,,,,,,,,,,,,,,,,,,,,,,,,,,,"53","69",,,"+0.02","8","57","30.22","57","29.90","9.94","60","000",,"0",,,,,,,,,,,,,,,,,,,,,,,,,,,,,,,,,,,,,"SYN06472518 32766 60000 10206 20117 30126 40233 58007 91451 555 90215=","FM-12","4",,,,,,,,,,,,,,,,,,,,,,,,,,,,"2006-09-08"
"72518014735","2021-06-02T10:51:00","FM-15","7",,,,,"PRECIP","260",,"PLASTIC","42.6918","-73.83109","NWS ALBANY, NY",,,,,,,,,,,,,,,,,,,,,,,,,,,"30.21","52","72","0.00",,,,"50","30.21","FEW:02 65 SCT:04 180 BKN:07 250","29.89","10.00","61","200",,"5",,,,,,,,,,,,,,,,,,,,,,,,,,,,,,,,,,,,,"MET11206/02/21 10:51:02 METAR KALB 021551Z 20004KT 10SM FEW065 SCT180 BKN250 22/11 A3021 RMK AO2 SLP229 T02220111 (JB)","FM-15","7",,,,,,,,,,,,,,,,,,,,,,,,,,,,"2006-09-08"
"72518014735","2021-06-02T11:51:00","FM-15","7",,,,,"PRECIP","260",,"PLASTIC","42.6918","-73.83109","NWS ALBANY, NY",,,,,,,,,,,,,,,,,,,,,,,,,,,"30.19","51","74","0.00",,,,"45","30.19","FEW:02 65 SCT:04 180 BKN:07 250","29.87","10.00","61","150",,"9",,,,,,,,,,,,,,,,,,,,,,,,,,,,,,,,,,,,,"MET11206/02/21 11:51:02 METAR KALB 021651Z 15008KT 10SM FEW065 SCT180 BKN250 23/11 A3019 RMK AO2 SLP223 T02330106 (JB)","FM-15","7",,,,,,,,,,,,,,,,,,,,,,,,,,,,"2006-09-08"
"72518014735","2021-06-02T12:51:00","FM-15","7",,,,,"PRECIP","260",,"PLASTIC","42.6918","-73.83109","NWS ALBANY, NY",,,,,,,,,,,,,,,,,,,,,,,,,,,"30.17","51","74","0.00",,"+0.05","8","45","30.17","FEW:02 75 SCT:04 160 OVC:08 250","29.85","10.00","61","170",,"9",,,,,,,,,,,,,,,,,,,,,,,,,,,,,,,,,,,,,"MET15206/02/21 12:51:02 METAR KALB 021751Z 17008KT 10SM FEW075 SCT160 OVC250 23/11 A3017 RMK AO2 SLP216 PRESENT WX VCSH 6//// T02330106 10233 20133 58017 (JB)","FM-15","7",,,,,,,,,,,,,,,,,,,,,,,,,,,,"2006-09-08"
"72518014735","2021-06-02T13:00:00","FM-12","4",,,,,"PRECIP","260",,"PLASTIC","42.6918","-73.83109","NWS ALBANY, NY",,,,,,,,,,,,,,,,,,,,,,,,,,,,"51","74",,,"+0.05","8","45","30.17","74","29.85","9.94","61","170",,"9",,,,,,,,,,,,,,,,,,,,,,,,,,,,,,,,,,,,,"SYN07472518 32866 81708 10233 20106 30109 40216 58017 91751 333 20133 555 90218=","FM-12","4",,,,,,,,,,,,,,,,,,,,,,,,,,,,"2006-09-08"
"72518014735","2021-06-02T13:51:00","FM-15","7",,,,,"PRECIP","260",,"PLASTIC","42.6918","-73.83109","NWS ALBANY, NY",,,,,,,,,,,,,,,,,,,,,,,,,,,"30.15","52","73","0.00",,,,"48","30.15","FEW:02 80 FEW:02 110 BKN:07 140","29.83","10.00","61","170",,"7",,,,,,,,,,,,,,,,,,,,,,,,,,,,,,,,,,,,,"MET12806/02/21 13:51:02 METAR KALB 021851Z 17006KT 10SM FEW080 FEW110 BKN140 23/11 A3015 RMK AO2 SLP210 PRESENT WX VCSH T02280111 (JB)","FM-15","7",,,,,,,,,,,,,,,,,,,,,,,,,,,,"2006-09-08"
"72518014735","2021-06-02T14:51:00","FM-15","7",,,,,"PRECIP","260",,"PLASTIC","42.6918","-73.83109","NWS ALBANY, NY",,,,,,,,,,,,,,,,,,,,,,,,,,,"30.14","55","72","0.00",,,,"55","30.14","FEW:02 80 BKN:07 110 BKN:07 170","29.82","10.00","62","160",,"6",,,,,,,,,,,,,,,,,,,,,,,,,,,,,,,,,,,,,"MET11306/02/21 14:51:02 METAR KALB 021951Z 16005KT 10SM FEW080 BKN110 BKN170 22/13 A3014 RMK AO2 SLP206 T02220128 (MAK)","FM-15","7",,,,,,,,,,,,,,,,,,,,,,,,,,,,"2006-09-08"
"72518014735","2021-06-02T15:51:00","FM-15","7",,,,,"PRECIP","260",,"PLASTIC","42.6918","-73.83109","NWS ALBANY, NY",,,,,,,,,,,,,,,,,,,,,,,,,,,"30.13","56","71","0.01s","-RA:02 |RA |RA","+0.04","6","59","30.14","BKN:07 60 OVC:08 90","29.81","10.00","62","180",,"8",,,,,,,,,,,,,,,,,,,,,,,,,,,,,,,,,,,,,"MET13406/02/21 15:51:02 METAR KALB 022051Z 18007KT 10SM -RA BKN060 OVC090 22/13 A3013 RMK AO2 RAB45 SLP205 P0000 60000 T02170133 56013 (MAK)","FM-15","7",,,,,,,,,,,,,,,,,,,,,,,,,,,,"2006-09-08"
"72518014735","2021-06-02T16:00:00","FM-12","4",,,,,"PRECIP","260",,"PLASTIC","42.6918","-73.83109","NWS ALBANY, NY",,,,,,,,,,,,,,,,,,,,,,,,,,,,"56","71",,"||RA","+0.04","6","59","30.14","57","29.81","9.94","62","180",,"8",,,,,,,,,,,,,,,,,,,,,,,,,,,,,,,,,,,,,"SYN07672518 11766 81807 10217 20133 30096 40205 56013 69907 761// 92051 555 90221=","FM-12","4",,,,,,,,,,,,,,,,,,,,,,,,,,,,"2006-09-08"
"72518014735","2021-06-02T16:51:00","FM-15","7",,,,,"PRECIP","260",,"PLASTIC","42.6918","-73.83109","NWS ALBANY, NY",,,,,,,,,,,,,,,,,,,,,,,,,,,"30.17","62","62","0.07","-RA:02 BR:1 |RA |RA",,,"100","30.17","FEW:02 50 BKN:07 70 OVC:08 90","29.85","3.00","62","200",,"10",,,,,,,,,,,,,,,,,,,,,,,,,,,,,,,,,,,,,"MET15206/02/21 16:51:02 METAR KALB 022151Z 20009KT 3SM R01/5500VP6000FT -RA BR FEW050 BKN070 OVC090 17/17 A3017 RMK AO2 TWR VIS 4 SLP217 P0005 T01670167 (MAK)","FM-15","7",,,,,,,,,,,,,,,,,,,,,,,,,,,,"2006-09-08"
"72518014735","2021-06-02T17:51:00","FM-15","7",,,,,"PRECIP","260",,"PLASTIC","42.6918","-73.83109","NWS ALBANY, NY",,,,,,,,,,,,,,,,,,,,,,,,,,,"30.17","61","62","0.04","-RA:02 |RA |RA",,,"96","30.17","OVC:08 100","29.85","8.00","61","190",,"7",,,,,,,,,,,,,,,,,,,,,,,,,,,,,,,,,,,,,"MET10806/02/21 17:51:02 METAR KALB 022251Z 19006KT 8SM -RA OVC100 17/16 A3017 RMK AO2 SLP216 P0007 T01670161 (MAK)","FM-15","7",,,,,,,,,,,,,,,,,,,,,,,,,,,,"2006-09-08"
"72518014735","2021-06-02T18:49:00","FM-16","6",,,,,"PRECIP","260",,"PLASTIC","42.6918","-73.83109","NWS ALBANY, NY",,,,,,,,,,,,,,,,,,,,,,,,,,,"30.16","61","61",,"-RA:02 |RA |RA",,,"100",,"FEW:02 21 BKN:07 28 OVC:08 60","29.84","10.00","61","100",,"5",,,,,,,,,,,,,,,,,,,,,,,,,,,,,,,,,,,,,"MET11106/02/21 18:49:02 SPECI KALB 022349Z 10004KT 10SM -RA FEW021 BKN028 OVC060 16/16 A3016 RMK AO2 P0002 FIBI (MAK)","FM-16","6",,,,,,,,,,,,,,,,,,,,,,,,,,,,"2006-09-08"
"72518014735","2021-06-02T18:51:00","FM-15","7",,,,,"PRECIP","260",,"PLASTIC","42.6918","-73.83109","NWS ALBANY, NY",,,,,,,,,,,,,,,,,,,,,,,,,,,"30.16","61","61","0.02","-RA:02 |RA |RA","-0.03","0","100","30.16","FEW:02 21 BKN:07 28 OVC:08 65","29.84","10.00","61","090",,"6",,,,,,,,,,,,,,,,,,,,,,,,,,,,,,,,,,,,,"MET14706/02/21 18:51:02 METAR KALB 022351Z 09005KT 10SM -RA FEW021 BKN028 OVC065 16/16 A3016 RMK AO2 SLP214 P0002 60014 T01610161 10233 20161 50009 (MAK)","FM-15","7",,,,,,,,,,,,,,,,,,,,,,,,,,,,"2006-09-08"
"72518014735","2021-06-02T19:00:00","FM-12","4",,,,,"PRECIP","260",,"PLASTIC","42.6918","-73.83109","NWS ALBANY, NY",,,,,,,,,,,,,,,,,,,,,,,,,,,,"61","61",,"||RA","0.03","9","100","30.16","26","29.84","9.94","61","090",,"6",,,,,,,,,,,,,,,,,,,,,,,,,,,,,,,,,,,,,"SYN09272518 11566 80905 10161 20161 30106 40214 50009 60041 761// 92351 333 10233 20133 555 90300=","FM-12","4",,,,,,,,,,,,,,,,,,,,,,,,,,,,"2006-09-08"
"72518014735","2021-06-02T19:49:00","FM-16","6",,,,,"PRECIP","260",,"PLASTIC","42.6918","-73.83109","NWS ALBANY, NY",,,,,,,,,,,,,,,,,,,,,,,,,,,"30.16","61","61",,"-RA:02 |RA |RA",,,"100",,"SCT:04 29 BKN:07 65 OVC:08 100","29.84","8.00","61","130",,"6",,,,,,,,,,,,,,,,,,,,,,,,,,,,,,,,,,,,,"MET11006/02/21 19:49:03 SPECI KALB 030049Z 13005KT 8SM -RA SCT029 BKN065 OVC100 16/16 A3016 RMK AO2 P0002 FIBI (MAK)","FM-16","6",,,,,,,,,,,,,,,,,,,,,,,,,,,,"2006-09-08"
"72518014735","2021-06-02T19:51:00","FM-15","7",,,,,"PRECIP","260",,"PLASTIC","42.6918","-73.83109","NWS ALBANY, NY",,,,,,,,,,,,,,,,,,,,,,,,,,,"30.16","61","61","0.02","-RA:02 |RA |RA",,,"100","30.15","SCT:04 29 SCT:04 60 OVC:08 100","29.84","8.00","61","130",,"7",,,,,,,,,,,,,,,,,,,,,,,,,,,,,,,,,,,,,"MET11606/02/21 19:51:01 METAR KALB 030051Z 13006KT 8SM -RA SCT029 SCT060 OVC100 16/16 A3016 RMK AO2 SLP211 P0002 T01610161","FM-15","7",,,,,,,,,,,,,,,,,,,,,,,,,,,,"2006-09-08"
"72518014735","2021-06-02T20:51:00","FM-15","7",,,,,"PRECIP","260",,"PLASTIC","42.6918","-73.83109","NWS ALBANY, NY",,,,,,,,,,,,,,,,,,,,,,,,,,,"30.15","61","61","0.03","-RA:02 BR:1 |RA |RA",,,"100","30.15","BKN:07 60 OVC:08 80","29.83","6.00","61","150",,"7",,,,,,,,,,,,,,,,,,,,,,,,,,,,,,,,,,,,,"MET11206/02/21 20:51:01 METAR KALB 030151Z 15006KT 6SM -RA BR BKN060 OVC080 16/16 A3015 RMK AO2 SLP210 P0003 T01610161","FM-15","7",,,,,,,,,,,,,,,,,,,,,,,,,,,,"2006-09-08"
"72518014735","2021-06-02T21:51:00","FM-15","7",,,,,"PRECIP","260",,"PLASTIC","42.6918","-73.83109","NWS ALBANY, NY",,,,,,,,,,,,,,,,,,,,,,,,,,,"30.13","60","60","T","-RA:02 |RA |RA","+0.03","8","100","30.13","OVC:08 110","29.81","10.00","60","150",,"6",,,,,,,,,,,,,,,,,,,,,,,,,,,,,,,,,,,,,"MET12806/02/21 21:51:01 METAR KALB 030251Z 15005KT 10SM -RA OVC110 16/16 A3013 RMK AO2 SLP204 PCPN VRY LGT P0000 60005 T01560156 58009","FM-15","7",,,,,,,,,,,,,,,,,,,,,,,,,,,,"2006-09-08"
"72518014735","2021-06-02T22:00:00","FM-12","4",,,,,"PRECIP","260",,"PLASTIC","42.6918","-73.83109","NWS ALBANY, NY",,,,,,,,,,,,,,,,,,,,,,,,,,,,"60","60",,"||RA","+0.03","8","100","30.13",,"29.81","9.94","60","150",,"6",,,,,,,,,,,,,,,,,,,,,,,,,,,,,,,,,,,,,"SYN07672518 11966 81505 10156 20156 30096 40204 58009 60017 761// 90251 555 90303=","FM-12","4",,,,,,,,,,,,,,,,,,,,,,,,,,,,"2006-09-08"
"72518014735","2021-06-02T22:51:00","FM-15","7",,,,,"PRECIP","260",,"PLASTIC","42.6918","-73.83109","NWS ALBANY, NY",,,,,,,,,,,,,,,,,,,,,,,,,,,"30.13","60","60","T",,,,"100","30.13","BKN:07 110 OVC:08 130","29.81","10.00","60","170",,"6",,,,,,,,,,,,,,,,,,,,,,,,,,,,,,,,,,,,,"MET11206/02/21 22:51:02 METAR KALB 030351Z 17005KT 10SM BKN110 OVC130 16/16 A3013 RMK AO2 RAE14 SLP202 P0000 T01560156","FM-15","7",,,,,,,,,,,,,,,,,,,,,,,,,,,,"2006-09-08"
"72518014735","2021-06-02T23:51:00","FM-15","7",,,,,"PRECIP","260",,"PLASTIC","42.6918","-73.83109","NWS ALBANY, NY",,,,,,,,,,,,,,,,,,,,,,,,,,,"30.11","59","59","0.00",,,,"100","30.11","SCT:04 100 OVC:08 130","29.79","10.00","59","160",,"7",,,,,,,,,,,,,,,,,,,,,,,,,,,,,,,,,,,,,"MET11006/02/21 23:51:02 METAR KALB 030451Z 16006KT 10SM SCT100 OVC130 15/15 A3011 RMK AO2 SLP195 T01500150 402330078","FM-15","7",,,,,,,,,,,,,,,,,,,,,,,,,,,,"2006-09-08"
"72518014735","2021-06-02T23:59:00","SOD  ","6",,,,,"PRECIP","260",,"PLASTIC","42.6918","-73.83109","NWS ALBANY, NY",,,,,"60",,,"29.88",,"4.5","0","-3.1","5","74","46","190","27","0.19","0","0.0","180","20","RA FG MIFG BR",,,,,,,,,,,,,,,,,,,,,,,,,,,,,,,,,,,,,,,,,,,,,,,,,,,,,,,,"SOD75624 HR PRECIPITATION (IN): 0.19 SNOW DEPTH (IN):0     24 HR SNOWFALL (IN):0.0  WEATHER(CODE):1  24 HR MAX TEMP (F): 7424 HR MIN TEMP (F): 46AVERAGE STATION PRESSURE:29.875 MINIMUM SEA LEVEL PRESSURE:30.10 TIME OF OCCURRENCE:2359 PEAK WIND SPEED (MPH): 27 PEAK WIND DIR (DEG):190 PEAK WIND TIME (LST):      FASTEST 2MIN SPEED (MPH): 20FASTEST 2MIN DIR (DEG):180 FASTEST 2MIN TIME (LST):     AVERAGE WIND SPEED (MPH): 4.5 24 HR AVG TEMP (F): 60DEPART FROM NORMAL: -5  HEATING DEGREE DAYS:  5 COOLING DEGREE DAYS:  0 LATEST DAY MAX TEMP (0700-1900 LST):74  LATEST NIGHT MIN TEMP(1900-0800 LST):46 HOURLY INCREMENTAL PRECIPITATION VALUES (IN):.00 0.00 0.00 0.00 0.00 0.00 0.00 0.00 0.00 0.00 0.00 0.00 0.00 0.00 0.00 0.01 0.07 0.04 0.02 0.02 0.03 T    T    0.00","SOD  ","6",,,,,,,,,,,,,,,,,,,,,,,,,"0419","1927",,"2006-09-08"
"72518014735","2021-06-03T00:51:00","FM-15","7",,,,,"PRECIP","260",,"PLASTIC","42.6918","-73.83109","NWS ALBANY, NY",,,,,,,,,,,,,,,,,,,,,,,,,,,"30.09","57","59","0.00",,"+0.04","8","93","30.09","SCT:04 130 OVC:08 160","29.78","10.00","58","170",,"8",,,,,,,,,,,,,,,,,,,,,,,,,,,,,,,,,,,,,"MET12906/03/21 00:51:02 METAR KALB 030551Z 17007KT 10SM SCT130 OVC160 15/14 A3009 RMK AO2 SLP189 60005 T01500139 10167 20150 58015 (BA)","FM-15","7",,,,,,,,,,,,,,,,,,,,,,,,,,,,"2006-09-08"
"72518014735","2021-06-03T01:00:00","FM-12","4",,,,,"PRECIP","260",,"PLASTIC","42.6918","-73.83109","NWS ALBANY, NY",,,,,,,,,,,,,,,,,,,,,,,,,,,,"57","59",,,"+0.04","8","93","30.09",,"29.77","9.94","58","170",,"8",,,,,,,,,,,,,,,,,,,,,,,,,,,,,,,,,,,,,"SYN08672518 12966 81707 10150 20139 30082 40189 58015 60011 90551 333 10233 20133 555 90306=","FM-12","4",,,,,,,,,,,,,,,,,,,,,,,,,,,,"2006-09-08"
"72518014735","2021-06-03T01:51:00","FM-15","7",,,,,"PRECIP","260",,"PLASTIC","42.6918","-73.83109","NWS ALBANY, NY",,,,,,,,,,,,,,,,,,,,,,,,,,,"30.09","56","58","0.00",,,,"93","30.09","SCT:04 130 OVC:08 160","29.78","10.00","57","170",,"10",,,,,,,,,,,,,,,,,,,,,,,,,,,,,,,,,,,,,"MET10506/03/21 01:51:02 METAR KALB 030651Z 17009KT 10SM SCT130 OVC160 14/13 A3009 RMK AO2 SLP188 T01440133 (BA)","FM-15","7",,,,,,,,,,,,,,,,,,,,,,,,,,,,"2006-09-08"
"72518014735","2021-06-03T02:51:00","FM-15","7",,,,,"PRECIP","260",,"PLASTIC","42.6918","-73.83109","NWS ALBANY, NY",,,,,,,,,,,,,,,,,,,,,,,,,,,"30.07","55","57","0.00",,,,"93","30.07","OVC:08 150","29.75","10.00","56","160",,"9",,,,,,,,,,,,,,,,,,,,,,,,,,,,,,,,,,,,,"MET09806/03/21 02:51:02 METAR KALB 030751Z 16008KT 10SM OVC150 14/13 A3007 RMK AO2 SLP182 T01390128 (BA)","FM-15","7",,,,,,,,,,,,,,,,,,,,,,,,,,,,"2006-09-08"
"72518014735","2021-06-03T03:51:00","FM-15","7",,,,,"PRECIP","260",,"PLASTIC","42.6918","-73.83109","NWS ALBANY, NY",,,,,,,,,,,,,,,,,,,,,,,,,,,"30.07","55","57","0.00",,"+0.02","6","93","30.07","OVC:08 150","29.75","10.00","56","160",,"7",,,,,,,,,,,,,,,,,,,,,,,,,,,,,,,,,,,,,"MET10406/03/21 03:51:02 METAR KALB 030851Z 16006KT 10SM OVC150 14/13 A3007 RMK AO2 SLP182 T01390128 56007 (BA)","FM-15","7",,,,,,,,,,,,,,,,,,,,,,,,,,,,"2006-09-08"
"72518014735","2021-06-03T04:00:00","FM-12","4",,,,,"PRECIP","260",,"PLASTIC","42.6918","-73.83109","NWS ALBANY, NY",,,,,,,,,,,,,,,,,,,,,,,,,,,,"55","57",,,"+0.02","6","93","30.07",,"29.75","9.94","56","160",,"7",,,,,,,,,,,,,,,,,,,,,,,,,,,,,,,,,,,,,"SYN06472518 32966 81606 10139 20128 30075 40182 56007 90851 555 90309=","FM-12","4",,,,,,,,,,,,,,,,,,,,,,,,,,,,"2006-09-08"
"72518014735","2021-06-03T04:51:00","FM-15","7",,,,,"PRECIP","260",,"PLASTIC","42.6918","-73.83109","NWS ALBANY, NY",,,,,,,,,,,,,,,,,,,,,,,,,,,"30.06","54","56","0.00",,,,"93","30.06","SCT:04 140 OVC:08 250","29.75","10.00","55","160",,"6",,,,,,,,,,,,,,,,,,,,,,,,,,,,,,,,,,,,,"MET10506/03/21 04:51:02 METAR KALB 030951Z 16005KT 10SM SCT140 OVC250 13/12 A3006 RMK AO2 SLP181 T01330122 (BA)","FM-15","7",,,,,,,,,,,,,,,,,,,,,,,,,,,,"2006-09-08"
"72518014735","2021-06-03T05:51:00","FM-15","7",,,,,"PRECIP","260",,"PLASTIC","42.6918","-73.83109","NWS ALBANY, NY",,,,,,,,,,,,,,,,,,,,,,,,,,,"30.06","55","57","0.00",,,,"93","30.06","BKN:07 130 OVC:08 250","29.75","10.00","56","170",,"6",,,,,,,,,,,,,,,,,,,,,,,,,,,,,,,,,,,,,"MET10506/03/21 05:51:02 METAR KALB 031051Z 17005KT 10SM BKN130 OVC250 14/13 A3006 RMK AO2 SLP180 T01390128 (BA)","FM-15","7",,,,,,,,,,,,,,,,,,,,,,,,,,,,"2006-09-08"
"72518014735","2021-06-03T06:51:00","FM-15","7",,,,,"PRECIP","260",,"PLASTIC","42.6918","-73.83109","NWS ALBANY, NY",,,,,,,,,,,,,,,,,,,,,,,,,,,"30.05","55","59","T","|RA |RA","+0.02","8","87","30.05","FEW:02 75 SCT:04 95 BKN:07 110","29.73","10.00","57","160",,"7",,,,,,,,,,,,,,,,,,,,,,,,,,,,,,,,,,,,,"MET15806/03/21 06:51:02 METAR KALB 031151Z 16006KT 10SM -RA FEW075 SCT095 BKN110 15/13 A3005 RMK AO2 RAB42 SLP175 P0000 60000 7//// T01500128 10150 20133 58007 (BA)","FM-15","7",,,,,,,,,,,,,,,,,,,,,,,,,,,,"2006-09-08"
"72518014735","2021-06-03T07:00:00","FM-12","4",,,,,"PRECIP","260",,"PLASTIC","42.6918","-73.83109","NWS ALBANY, NY",,,,,,,,,,,,,,,,,,,,,,,,,,,,"55","59",,"||RA","+0.02","8","87","30.05","74","29.73","9.94","57","160",,"7",,,,,,,,,,,,,,,,,,,,,,,,,,,,,,,,,,,,,"SYN09272518 11866 81606 10150 20128 30069 40175 58007 69901 761// 91151 333 10233 20133 555 90312=","FM-12","4",,,,,,,,,,,,,,,,,,,,,,,,,,,,"2006-09-08"
"72518014735","2021-06-03T07:51:00","FM-15","7",,,,,"PRECIP","260",,"PLASTIC","42.6918","-73.83109","NWS ALBANY, NY",,,,,,,,,,,,,,,,,,,,,,,,,,,"30.03","55","60","T",,,,"84","30.03","BKN:07 100 OVC:08 250","29.71","10.00","57","160",,"7",,,,,,,,,,,,,,,,,,,,,,,,,,,,,,,,,,,,,"MET11706/03/21 07:51:02 METAR KALB 031251Z 16006KT 10SM BKN100 OVC250 16/13 A3003 RMK AO2 RAE29 SLP168 P0000 T01560128 (JB)","FM-15","7",,,,,,,,,,,,,,,,,,,,,,,,,,,,"2006-09-08"
"72518014735","2021-06-03T08:51:00","FM-15","7",,,,,"PRECIP","260",,"PLASTIC","42.6918","-73.83109","NWS ALBANY, NY",,,,,,,,,,,,,,,,,,,,,,,,,,,"30.02","55","59","0.00",,,,"87","30.02","BKN:07 90 OVC:08 250","29.70","10.00","57","160","20","10",,,,,,,,,,,,,,,,,,,,,,,,,,,,,,,,,,,,,"MET12406/03/21 08:51:02 METAR KALB 031351Z 16009G17KT 10SM BKN090 OVC250 15/13 A3002 RMK AO2 SLP166 PRESENT WX VCSH T01500128 (JB)","FM-15","7",,,,,,,,,,,,,,,,,,,,,,,,,,,,"2006-09-08"
"72518014735","2021-06-03T09:51:00","FM-15","7",,,,,"PRECIP","260",,"PLASTIC","42.6918","-73.83109","NWS ALBANY, NY",,,,,,,,,,,,,,,,,,,,,,,,,,,"30.00","56","61","0.00",,"+0.05","8","84","29.99","BKN:07 80 OVC:08 250","29.68","10.00","58","160",,"11",,,,,,,,,,,,,,,,,,,,,,,,,,,,,,,,,,,,,"MET11706/03/21 09:51:02 METAR KALB 031451Z 16010KT 10SM BKN080 OVC250 16/13 A3000 RMK AO2 SLP157 60000 T01610133 58017 (JB)","FM-15","7",,,,,,,,,,,,,,,,,,,,,,,,,,,,"2006-09-08"
"72518014735","2021-06-03T10:00:00","FM-12","4",,,,,"PRECIP","260",,"PLASTIC","42.6918","-73.83109","NWS ALBANY, NY",,,,,,,,,,,,,,,,,,,,,,,,,,,,"56","61",,,"+0.05","8","84","29.99","74","29.68","9.94","58","160",,"11",,,,,,,,,,,,,,,,,,,,,,,,,,,,,,,,,,,,,"SYN07072518 12866 81610 10161 20133 30052 40157 58017 69907 91451 555 90315=","FM-12","4",,,,,,,,,,,,,,,,,,,,,,,,,,,,"2006-09-08"
"72518014735","2021-06-03T10:51:00","FM-15","7",,,,,"PRECIP","260",,"PLASTIC","42.6918","-73.83109","NWS ALBANY, NY",,,,,,,,,,,,,,,,,,,,,,,,,,,"29.98","58","66","0.00",,,,"75","29.98","FEW:02 55 SCT:04 80 BKN:07 100","29.67","10.00","61","170",,"13",,,,,,,,,,,,,,,,,,,,,,,,,,,,,,,,,,,,,"MET12806/03/21 10:51:02 METAR KALB 031551Z 17011KT 10SM FEW055 SCT080 BKN100 19/14 A2998 RMK AO2 SLP152 PRESENT WX VCSH T01890144 (JB)","FM-15","7",,,,,,,,,,,,,,,,,,,,,,,,,,,,"2006-09-08"
"72518014735","2021-06-03T11:51:00","FM-15","7",,,,,"PRECIP","260",,"PLASTIC","42.6918","-73.83109","NWS ALBANY, NY",,,,,,,,,,,,,,,,,,,,,,,,,,,"29.96","61","70","0.00",,,,"73","29.96","FEW:02 60 SCT:04 90 BKN:07 110","29.65","10.00","64","170","29","20",,,,,,,,,,,,,,,,,,,,,,,,,,,,,,,,,,,,,"MET11506/03/21 11:51:02 METAR KALB 031651Z 17017G25KT 10SM FEW060 SCT090 BKN110 21/16 A2996 RMK AO2 SLP146 T02110161 (JB)","FM-15","7",,,,,,,,,,,,,,,,,,,,,,,,,,,,"2006-09-08"
"72518014735","2021-06-03T12:51:00","FM-15","7",,,,,"PRECIP","260",,"PLASTIC","42.6918","-73.83109","NWS ALBANY, NY",,,,,,,,,,,,,,,,,,,,,,,,,,,"29.94","62","70","0.00",,"+0.06","8","76","29.94","SCT:04 60 SCT:04 100 BKN:07 140","29.62","10.00","65","170","25","17",,,,,,,,,,,,,,,,,,,,,,,,,,,,,,,,,,,,,"MET13906/03/21 12:51:02 METAR KALB 031751Z 17015G22KT 10SM SCT060 SCT100 BKN140 21/17 A2994 RMK AO2 SLP138 60000 T02110167 10217 20150 58019 (JB)","FM-15","7",,,,,,,,,,,,,,,,,,,,,,,,,,,,"2006-09-08"
"72518014735","2021-06-03T13:00:00","FM-12","4",,,,,"PRECIP","260",,"PLASTIC","42.6918","-73.83109","NWS ALBANY, NY",,,,,,,,,,,,,,,,,,,,,,,,,,,,"62","70",,,"+0.06","8","76","29.94","57","29.62","9.94","65","170",,"17",,,,,,,,,,,,,,,,,,,,,,,,,,,,,,,,,,,,,"SYN09272518 12766 61715 10211 20167 30032 40138 58019 69901 91751 333 10217 20150 91022 555 90318=","FM-12","4",,,,,,,,,,,,,,,,,,,,,,,,,,,,"2006-09-08"
"72518014735","2021-06-03T13:51:00","FM-15","7",,,,,"PRECIP","260",,"PLASTIC","42.6918","-73.83109","NWS ALBANY, NY",,,,,,,,,,,,,,,,,,,,,,,,,,,"29.92","62","70","0.00",,,,"76","29.92","SCT:04 50 SCT:04 110 BKN:07 200","29.61","10.00","65","170","23","14",,,,,,,,,,,,,,,,,,,,,,,,,,,,,,,,,,,,,"MET11506/03/21 13:51:02 METAR KALB 031851Z 17012G20KT 10SM SCT050 SCT110 BKN200 21/17 A2992 RMK AO2 SLP132 T02110167 (JB)","FM-15","7",,,,,,,,,,,,,,,,,,,,,,,,,,,,"2006-09-08"
"72518014735","2021-06-03T14:51:00","FM-15","7",,,,,"PRECIP","260",,"PLASTIC","42.6918","-73.83109","NWS ALBANY, NY",,,,,,,,,,,,,,,,,,,,,,,,,,,"29.91","62","69","0.00",,,,"78","29.91","BKN:07 42 BKN:07 55 BKN:07 110","29.59","10.00","65","160",,"11",,,,,,,,,,,,,,,,,,,,,,,,,,,,,,,,,,,,,"MET11206/03/21 14:51:02 METAR KALB 031951Z 16010KT 10SM BKN042 BKN055 BKN110 21/17 A2991 RMK AO2 SLP127 T02060167 (JF)","FM-15","7",,,,,,,,,,,,,,,,,,,,,,,,,,,,"2006-09-08"
"72518014735","2021-06-03T15:51:00","FM-15","7",,,,,"PRECIP","260",,"PLASTIC","42.6918","-73.83109","NWS ALBANY, NY",,,,,,,,,,,,,,,,,,,,,,,,,,,"29.90","63","69","T","|RA |RA","+0.04","6","81","29.89","FEW:02 32 SCT:04 48 BKN:07 60","29.59","10.00","65","160","22","16",,,,,,,,,,,,,,,,,,,,,,,,,,,,,,,,,,,,,"MET15006/03/21 15:51:02 METAR KALB 032051Z 16014G19KT 10SM -RA FEW032 SCT048 BKN060 21/17 A2990 RMK AO2 RAB41 SLP123 BINOVC P0000 60000 T02060172 56015 (JF)","FM-15","7",,,,,,,,,,,,,,,,,,,,,,,,,,,,"2006-09-08"
"72518014735","2021-06-03T16:00:00","FM-12","4",,,,,"PRECIP","260",,"PLASTIC","42.6918","-73.83109","NWS ALBANY, NY",,,,,,,,,,,,,,,,,,,,,,,,,,,,"63","69",,"||RA","+0.04","6","81","29.89","26","29.58","9.94","65","160",,"16",,,,,,,,,,,,,,,,,,,,,,,,,,,,,,,,,,,,,"SYN08672518 11566 81614 10206 20172 30018 40123 56015 69907 761// 92051 333 91019 555 90321=","FM-12","4",,,,,,,,,,,,,,,,,,,,,,,,,,,,"2006-09-08"
"72518014735","2021-06-03T16:51:00","FM-15","7",,,,,"PRECIP","260",,"PLASTIC","42.6918","-73.83109","NWS ALBANY, NY",,,,,,,,,,,,,,,,,,,,,,,,,,,"29.89","63","68","T",,,,"84","29.88","FEW:02 32 SCT:04 55 BKN:07 70","29.57","10.00","65","160",,"11",,,,,,,,,,,,,,,,,,,,,,,,,,,,,,,,,,,,,"MET13606/03/21 16:51:02 METAR KALB 032151Z 16010KT 10SM FEW032 SCT055 BKN070 20/17 A2989 RMK AO2 RAE05 SLP120 OCNL BINOVC P0000 T02000172 (JF)","FM-15","7",,,,,,,,,,,,,,,,,,,,,,,,,,,,"2006-09-08"
"72518014735","2021-06-03T17:51:00","FM-15","7",,,,,"PRECIP","260",,"PLASTIC","42.6918","-73.83109","NWS ALBANY, NY",,,,,,,,,,,,,,,,,,,,,,,,,,,"29.88","63","68","0.00",,,,"84","29.88","FEW:02 40 SCT:04 55 BKN:07 110","29.57","10.00","65","170","22","15",,,,,,,,,,,,,,,,,,,,,,,,,,,,,,,,,,,,,"MET11506/03/21 17:51:02 METAR KALB 032251Z 17013G19KT 10SM FEW040 SCT055 BKN110 20/17 A2988 RMK AO2 SLP117 T02000172 (JF)","FM-15","7",,,,,,,,,,,,,,,,,,,,,,,,,,,,"2006-09-08"
"72518014735","2021-06-03T18:51:00","FM-15","7",,,,,"PRECIP","260",,"PLASTIC","42.6918","-73.83109","NWS ALBANY, NY",,,,,,,,,,,,,,,,,,,,,,,,,,,"29.88","63","67","0.00",,"+0.01","5","87","29.88","FEW:02 40 SCT:04 95 BKN:07 130","29.57","10.00","65","160","22","14",,,,,,,,,,,,,,,,,,,,,,,,,,,,,,,,,,,,,"MET17506/03/21 18:51:02 METAR KALB 032351Z 16012G19KT 10SM FEW040 SCT095 BKN130 19/17 A2988 RMK AO2 SLP118 CB DSNT NW-N MOV NE PRESENT WX VCSH 60000 T01940172 10217 20194 55005 (JF)","FM-15","7",,,,,,,,,,,,,,,,,,,,,,,,,,,,"2006-09-08"
"72518014735","2021-06-03T19:00:00","FM-12","4",,,,,"PRECIP","260",,"PLASTIC","42.6918","-73.83109","NWS ALBANY, NY",,,,,,,,,,,,,,,,,,,,,,,,,,,,"63","67",,,"+0.01","5","87","29.88","41","29.57","9.94","65","160",,"14",,,,,,,,,,,,,,,,,,,,,,,,,,,,,,,,,,,,,"SYN09272518 12666 81612 10194 20172 30012 40118 55005 69901 92351 333 10217 20133 91019 555 90400=","FM-12","4",,,,,,,,,,,,,,,,,,,,,,,,,,,,"2006-09-08"
"72518014735","2021-06-03T19:51:00","FM-15","7",,,,,"PRECIP","260",,"PLASTIC","42.6918","-73.83109","NWS ALBANY, NY",,,,,,,,,,,,,,,,,,,,,,,,,,,"29.90","65","65","0.05","-RA:02 |RA |RA",,,"100","29.90","FEW:02 50 SCT:04 85 OVC:08 100","29.59","7.00","65","170",,"9",,,,,,,,,,,,,,,,,,,,,,,,,,,,,,,,,,,,,"MET12206/03/21 19:51:01 METAR KALB 040051Z 17008KT 7SM -RA FEW050 SCT085 OVC100 18/18 A2990 RMK AO2 RAB09 SLP125 P0003 T01830183","FM-15","7",,,,,,,,,,,,,,,,,,,,,,,,,,,,"2006-09-08"
"72518014735","2021-06-03T20:51:00","FM-15","7",,,,,"PRECIP","260",,"PLASTIC","42.6918","-73.83109","NWS ALBANY, NY",,,,,,,,,,,,,,,,,,,,,,,,,,,"29.91","65","65","0.03","|RA |RA",,,"100","29.90","FEW:02 45 BKN:07 60 BKN:07 85","29.59","9.00","65","150",,"8",,,,,,,,,,,,,,,,,,,,,,,,,,,,,,,,,,,,,"MET11806/03/21 20:51:01 METAR KALB 040151Z 15007KT 9SM -RA FEW045 BKN060 BKN085 18/18 A2991 RMK AO2 SLP126 P0005 T01830183 $","FM-15","7",,,,,,,,,,,,,,,,,,,,,,,,,,,,"2006-09-08"
"72518014735","2021-06-03T21:51:00","FM-15","7",,,,,"PRECIP","260",,"PLASTIC","42.6918","-73.83109","NWS ALBANY, NY",,,,,,,,,,,,,,,,,,,,,,,,,,,"29.91","64","64","0.04","-RA:02 |RA |RA","-0.03","1","100","29.91","FEW:02 18 BKN:07 39 OVC:08 50","29.59","8.00","64","190",,"8",,,,,,,,,,,,,,,,,,,,,,,,,,,,,,,,,,,,,"MET13006/03/21 21:51:01 METAR KALB 040251Z 19007KT 8SM -RA FEW018 BKN039 OVC050 18/18 A2991 RMK AO2 SLP127 P0001 60009 T01780178 51009 $","FM-15","7",,,,,,,,,,,,,,,,,,,,,,,,,,,,"2006-09-08"
"72518014735","2021-06-03T21:58:00","FM-16","7",,,,,"PRECIP","260",,"PLASTIC","42.6918","-73.83109","NWS ALBANY, NY",,,,,,,,,,,,,,,,,,,,,,,,,,,"29.91","64","64","0.03","RA:02 BR:1 |RA RA |RA",,,"100",,"FEW:02 6 SCT:04 31 OVC:08 42","29.59","2.50V","64","190",,"8",,,,,,,,,,,,,,,,,,,,,,,,,,,,,,,,,,,,,"MET12506/03/21 21:58:02 SPECI KALB 040258Z 19007KT 2 1/2SM RA BR FEW006 SCT031 OVC042 18/18 A2991 RMK AO2 VIS 2V3 P0003 T01780178 $","FM-16","7",,,,,,,,,,,,,,,,,,,,,,,,,,,,"2006-09-08"
"72518014735","2021-06-03T22:00:00","FM-12","4",,,,,"PRECIP","260",,"PLASTIC","42.6918","-73.83109","NWS ALBANY, NY",,,,,,,,,,,,,,,,,,,,,,,,,,,,"64","64",,"||RA","-0.03","1","100","29.91","15","29.59","7.46","64","190",,"8",,,,,,,,,,,,,,,,,,,,,,,,,,,,,,,,,,,,,"SYN07672518 11462 81907 10178 20178 30022 40127 51009 60027 761// 90251 555 90403=","FM-12","4",,,,,,,,,,,,,,,,,,,,,,,,,,,,"2006-09-08"
"72518014735","2021-06-03T22:15:00","FM-16","7",,,,,"PRECIP","260",,"PLASTIC","42.6918","-73.83109","NWS ALBANY, NY",,,,,,,,,,,,,,,,,,,,,,,,,,,"29.90","63","63","0.08","-RA:02 BR:1 |RA |RA",,,"100",,"FEW:02 7 BKN:07 35 OVC:08 46","29.59","3.00","63","160",,"6",,,,,,,,,,,,,,,,,,,,,,,,,,,,,,,,,,,,,"MET11406/03/21 22:15:02 SPECI KALB 040315Z 16005KT 3SM -RA BR FEW007 BKN035 OVC046 17/17 A2990 RMK AO2 P0008 T01720172 $","FM-16","7",,,,,,,,,,,,,,,,,,,,,,,,,,,,"2006-09-08"
"72518014735","2021-06-03T22:34:00","FM-16","7",,,,,"PRECIP","260",,"PLASTIC","42.6918","-73.83109","NWS ALBANY, NY",,,,,,,,,,,,,,,,,,,,,,,,,,,"29.90","63","63","0.15","+RA:02 BR:1 |RA |RA",,,"100",,"FEW:02 7 SCT:04 21 OVC:08 40","29.59","2.00","63","160",,"7",,,,,,,,,,,,,,,,,,,,,,,,,,,,,,,,,,,,,"MET11406/03/21 22:34:02 SPECI KALB 040334Z 16006KT 2SM +RA BR FEW007 SCT021 OVC040 17/17 A2990 RMK AO2 P0015 T01720172 $","FM-16","7",,,,,,,,,,,,,,,,,,,,,,,,,,,,"2006-09-08"
"72518014735","2021-06-03T22:51:00","FM-15","7",,,,,"PRECIP","260",,"PLASTIC","42.6918","-73.83109","NWS ALBANY, NY",,,,,,,,,,,,,,,,,,,,,,,,,,,"29.89","63","63","0.24","-RA:02 BR:1 |RA |RA",,,"100","29.89","FEW:02 7 BKN:07 45 OVC:08 65","29.57","3.00","63","160",,"7",,,,,,,,,,,,,,,,,,,,,,,,,,,,,,,,,,,,,"MET12106/03/21 22:51:02 METAR KALB 040351Z 16006KT 3SM -RA BR FEW007 BKN045 OVC065 17/17 A2989 RMK AO2 SLP122 P0023 T01720172 $","FM-15","7",,,,,,,,,,,,,,,,,,,,,,,,,,,,"2006-09-08"
"72518014735","2021-06-03T23:01:00","FM-16","7",,,,,"PRECIP","260",,"PLASTIC","42.6918","-73.83109","NWS ALBANY, NY",,,,,,,,,,,,,,,,,,,,,,,,,,,"29.88","63","63","0.06","RA:02 BR:1 |RA |RA",,,"100",,"BKN:07 43 BKN:07 60 OVC:08 80","29.57","2.00","63","140",,"9",,,,,,,,,,,,,,,,,,,,,,,,,,,,,,,,,,,,,"MET11306/03/21 23:01:02 SPECI KALB 040401Z 14008KT 2SM RA BR BKN043 BKN060 OVC080 17/17 A2988 RMK AO2 P0006 T01720172 $","FM-16","7",,,,,,,,,,,,,,,,,,,,,,,,,,,,"2006-09-08"
"72518014735","2021-06-03T23:05:00","FM-16","7",,,,,"PRECIP","260",,"PLASTIC","42.6918","-73.83109","NWS ALBANY, NY",,,,,,,,,,,,,,,,,,,,,,,,,,,"29.89","63","63","0.09","-RA:02 BR:1 |RA |RA",,,"100",,"BKN:07 43 BKN:07 55 OVC:08 65","29.57","3.00","63","150",,"8",,,,,,,,,,,,,,,,,,,,,,,,,,,,,,,,,,,,,"MET11406/03/21 23:05:02 SPECI KALB 040405Z 15007KT 3SM -RA BR BKN043 BKN055 OVC065 17/17 A2989 RMK AO2 P0009 T01720172 $","FM-16","7",,,,,,,,,,,,,,,,,,,,,,,,,,,,"2006-09-08"
"72518014735","2021-06-03T23:49:00","FM-16","6",,,,,"PRECIP","260",,"PLASTIC","42.6918","-73.83109","NWS ALBANY, NY",,,,,,,,,,,,,,,,,,,,,,,,,,,"29.87","63","63",,,,,"100",,"FEW:02 7 FEW:02 55 BKN:07 95","29.56","8.00","63","190",,"3",,,,,,,,,,,,,,,,,,,,,,,,,,,,,,,,,,,,,"MET11306/03/21 23:49:03 SPECI KALB 040449Z 19003KT 8SM FEW007 FEW055 BKN095 17/17 A2987 RMK AO2 RAE27 P0013 $ FIBI (BA)","FM-16","6",,,,,,,,,,,,,,,,,,,,,,,,,,,,"2006-09-08"
"72518014735","2021-06-03T23:51:00","FM-15","7",,,,,"PRECIP","260",,"PLASTIC","42.6918","-73.83109","NWS ALBANY, NY",,,,,,,,,,,,,,,,,,,,,,,,,,,"29.87","63","63","0.09",,,,"100","29.87","FEW:02 7 FEW:02 55 BKN:07 95","29.56","8.00","63","160",,"3",,,,,,,,,,,,,,,,,,,,,,,,,,,,,,,,,,,,,"MET13006/03/21 23:51:02 METAR KALB 040451Z 16003KT 8SM FEW007 FEW055 BKN095 17/17 A2987 RMK AO2 RAE27 SLP114 P0013 T01720172 402170133 $","FM-15","7",,,,,,,,,,,,,,,,,,,,,,,,,,,,"2006-09-08"
"72518014735","2021-06-03T23:59:00","SOD  ","6",,,,,"PRECIP","260",,"PLASTIC","42.6918","-73.83109","NWS ALBANY, NY",,,,,"64",,,"29.67",,"10.4","0","0.6","1","71","56","180","29","0.45","0","0.0","160","22","RA BR",,,,,,,,,,,,,,,,,,,,,,,,,,,,,,,,,,,,,,,,,,,,,,,,,,,,,,,,"SOD78324 HR PRECIPITATION (IN): 0.45 SNOW DEPTH (IN):0     24 HR SNOWFALL (IN):0.0  WEATHER(CODE):1  24 HR MAX TEMP (F): 7124 HR MIN TEMP (F): 56AVERAGE STATION PRESSURE:29.670 MINIMUM SEA LEVEL PRESSURE:29.86 TIME OF OCCURRENCE:2359 PEAK WIND SPEED (MPH): 29 PEAK WIND DIR (DEG):180 PEAK WIND TIME (LST):      FASTEST 2MIN SPEED (MPH): 22FASTEST 2MIN DIR (DEG):160 FASTEST 2MIN TIME (LST):     AVERAGE WIND SPEED (MPH):10.4 24 HR AVG TEMP (F): 64DEPART FROM NORMAL: -1  SKY COVER SR-SS (TENTHS): 1HEATING DEGREE DAYS:  1 COOLING DEGREE DAYS:  0 LATEST DAY MAX TEMP (0700-1900 LST):71  LATEST NIGHT MIN TEMP(1900-0800 LST):56 HOURLY INCREMENTAL PRECIPITATION VALUES (IN):.00 0.00 0.00 0.00 0.00 0.00 T    T    0.00 0.00 0.00 0.00 0.00 0.00 0.00 T    T    0.00 0.00 0.05 0.03 0.04 0.24 0.09","SOD  ","6",,,,,,,,,,,,,,,,,,,,,,,,,"0419","1928",,"2006-09-08"
"72518014735","2021-06-04T00:29:00","FM-16","7",,,,,"PRECIP","260",,"PLASTIC","42.6918","-73.83109","NWS ALBANY, NY",,,,,,,,,,,,,,,,,,,,,,,,,,,"29.87","63","63",,"BR:1 ||",,,"100",,"BKN:07 5","29.56","6.00","63","000",,"0",,,,,,,,,,,,,,,,,,,,,,,,,,,,,,,,,,,,,"MET09506/04/21 00:29:02 SPECI KALB 040529Z 00000KT 6SM BR BKN005 17/17 A2987 RMK AO2 T01720172 $ (BA)","FM-16","7",,,,,,,,,,,,,,,,,,,,,,,,,,,,"2006-09-08"
"72518014735","2021-06-04T00:49:00","FM-16","6",,,,,"PRECIP","260",,"PLASTIC","42.6918","-73.83109","NWS ALBANY, NY",,,,,,,,,,,,,,,,,,,,,,,,,,,"29.87","63","63",,"BR:1 ||",,,"100",,"SCT:04 5 OVC:08 190","29.56","6.00","63","160",,"6",,,,,,,,,,,,,,,,,,,,,,,,,,,,,,,,,,,,,"MET09706/04/21 00:49:02 SPECI KALB 040549Z 16005KT 6SM BR SCT005 OVC190 17/17 A2987 RMK AO2 $ FIBI (BA)","FM-16","6",,,,,,,,,,,,,,,,,,,,,,,,,,,,"2006-09-08"
"72518014735","2021-06-04T00:51:00","FM-15","7",,,,,"PRECIP","260",,"PLASTIC","42.6918","-73.83109","NWS ALBANY, NY",,,,,,,,,,,,,,,,,,,,,,,,,,,"29.87","63","63","0.00","BR:1 ||","+0.04","6","100","29.87","SCT:04 5 OVC:08 190","29.56","6.00","63","160",,"5",,,,,,,,,,,,,,,,,,,,,,,,,,,,,,,,,,,,,"MET13306/04/21 00:51:02 METAR KALB 040551Z 16004KT 6SM BR SCT005 OVC190 17/17 A2987 RMK AO2 SLP114 60045 T01720172 10194 20172 56013 $ (BA)","FM-15","7",,,,,,,,,,,,,,,,,,,,,,,,,,,,"2006-09-08"
"72518014735","2021-06-04T01:00:00","FM-12","4",,,,,"PRECIP","260",,"PLASTIC","42.6918","-73.83109","NWS ALBANY, NY",,,,,,,,,,,,,,,,,,,,,,,,,,,,"63","63",,,"+0.04","6","100","29.87","5","29.55","5.59","63","160",,"5",,,,,,,,,,,,,,,,,,,,,,,,,,,,,,,,,,,,,"SYN09272518 11259 81604 10172 20172 30008 40114 56013 60111 710// 90551 333 10194 20133 555 90406=","FM-12","4",,,,,,,,,,,,,,,,,,,,,,,,,,,,"2006-09-08"
"72518014735","2021-06-04T01:51:00","FM-15","7",,,,,"PRECIP","260",,"PLASTIC","42.6918","-73.83109","NWS ALBANY, NY",,,,,,,,,,,,,,,,,,,,,,,,,,,"29.88","63","63","0.04","-RA:02 BR:1 |RA |RA",,,"100","29.88","FEW:02 5 BKN:07 31 OVC:08 41","29.57","4.00","63","180",,"5",,,,,,,,,,,,,,,,,,,,,,,,,,,,,,,,,,,,,"MET13206/04/21 01:51:02 METAR KALB 040651Z 18004KT 4SM -RA BR FEW005 BKN031 OVC041 17/17 A2988 RMK AO2 RAB18 SLP117 P0004 T01720172 $ (BA)","FM-15","7",,,,,,,,,,,,,,,,,,,,,,,,,,,,"2006-09-08"
"72518014735","2021-06-04T01:59:00","FM-16","7",,,,,"PRECIP","260",,"PLASTIC","42.6918","-73.83109","NWS ALBANY, NY",,,,,,,,,,,,,,,,,,,,,,,,,,,"29.88","63","63","T","-RA:02 BR:1 |RA |RA",,,"100",,"FEW:02 5 BKN:07 28 OVC:08 41","29.57","5.00","63","200",,"5",,,,,,,,,,,,,,,,,,,,,,,,,,,,,,,,,,,,,"MET11906/04/21 01:59:02 SPECI KALB 040659Z 20004KT 5SM -RA BR FEW005 BKN028 OVC041 17/17 A2988 RMK AO2 P0000 T01720172 $ (BA)","FM-16","7",,,,,,,,,,,,,,,,,,,,,,,,,,,,"2006-09-08"
"72518014735","2021-06-04T02:26:00","FM-16","7",,,,,"PRECIP","260",,"PLASTIC","42.6918","-73.83109","NWS ALBANY, NY",,,,,,,,,,,,,,,,,,,,,,,,,,,"29.88","63","63","T","BR:1 ||",,,"100",,"BKN:07 4 BKN:07 26 OVC:08 60","29.57","3.00","63","000",,"0",,,,,,,,,,,,,,,,,,,,,,,,,,,,,,,,,,,,,"MET12106/04/21 02:26:02 SPECI KALB 040726Z 00000KT 3SM BR BKN004 BKN026 OVC060 17/17 A2988 RMK AO2 RAE01 P0000 T01720172 $ (BA)","FM-16","7",,,,,,,,,,,,,,,,,,,,,,,,,,,,"2006-09-08"
"72518014735","2021-06-04T02:40:00","FM-16","7",,,,,"PRECIP","260",,"PLASTIC","42.6918","-73.83109","NWS ALBANY, NY",,,,,,,,,,,,,,,,,,,,,,,,,,,"29.88","63","63","T","BR:1 ||",,,"100",,"SCT:04 3 BKN:07 26 OVC:08 60","29.57","5.00","63","000",,"0",,,,,,,,,,,,,,,,,,,,,,,,,,,,,,,,,,,,,"MET13706/04/21 02:40:02 SPECI KALB 040740Z 00000KT 5SM BR SCT003 BKN026 OVC060 17/17 A2988 RMK AO2 RAE01 PRESENT WX VCSH P0000 T01720172 $ (BA)","FM-16","7",,,,,,,,,,,,,,,,,,,,,,,,,,,,"2006-09-08"
"72518014735","2021-06-04T02:49:00","FM-16","6",,,,,"PRECIP","260",,"PLASTIC","42.6918","-73.83109","NWS ALBANY, NY",,,,,,,,,,,,,,,,,,,,,,,,,,,"29.88","63","63",,"BR:1 ||",,,"100",,"FEW:02 3 SCT:04 12 OVC:08 36","29.57","5.00","63","000",,"0",,,,,,,,,,,,,,,,,,,,,,,,,,,,,,,,,,,,,"MET13206/04/21 02:49:02 SPECI KALB 040749Z 00000KT 5SM BR FEW003 SCT012 OVC036 17/17 A2988 RMK AO2 RAE01 PRESENT WX VCSH P0000 $ FIBI (BA)","FM-16","6",,,,,,,,,,,,,,,,,,,,,,,,,,,,"2006-09-08"
"72518014735","2021-06-04T02:51:00","FM-15","7",,,,,"PRECIP","260",,"PLASTIC","42.6918","-73.83109","NWS ALBANY, NY",,,,,,,,,,,,,,,,,,,,,,,,,,,"29.87","63","63","T","BR:1 ||",,,"100","29.87","FEW:02 3 SCT:04 12 OVC:08 36","29.56","5.00","63","000",,"0",,,,,,,,,,,,,,,,,,,,,,,,,,,,,,,,,,,,,"MET14406/04/21 02:51:02 METAR KALB 040751Z 00000KT 5SM BR FEW003 SCT012 OVC036 17/17 A2987 RMK AO2 RAE01 SLP115 PRESENT WX VCSH P0000 T01720172 $ (BA)","FM-15","7",,,,,,,,,,,,,,,,,,,,,,,,,,,,"2006-09-08"
"72518014735","2021-06-04T03:51:00","FM-15","7",,,,,"PRECIP","260",,"PLASTIC","42.6918","-73.83109","NWS ALBANY, NY",,,,,,,,,,,,,,,,,,,,,,,,,,,"29.87","61","62","0.04","-RA:02 BR:1 |RA |RA","+0.00","8","96","29.87","FEW:02 3 BKN:07 48 OVC:08 95","29.56","3.00","61","000",,"0",,,,,,,,,,,,,,,,,,,,,,,,,,,,,,,,,,,,,"MET14406/04/21 03:51:02 METAR KALB 040851Z 00000KT 3SM -RA BR FEW003 BKN048 OVC095 17/16 A2987 RMK AO2 RAB01 SLP114 P0004 60008 T01670161 58000 $ (BA)","FM-15","7",,,,,,,,,,,,,,,,,,,,,,,,,,,,"2006-09-08"
"72518014735","2021-06-04T04:00:00","FM-12","4",,,,,"PRECIP","260",,"PLASTIC","42.6918","-73.83109","NWS ALBANY, NY",,,,,,,,,,,,,,,,,,,,,,,,,,,,"61","62",,"||RA","0.00","4","96","29.87","2","29.55","2.98","61","000",,"0",,,,,,,,,,,,,,,,,,,,,,,,,,,,,,,,,,,,,"SYN08672518 11148 80000 10167 20161 30008 40114 58000 60027 761// 90851 333 96010 555 90409=","FM-12","4",,,,,,,,,,,,,,,,,,,,,,,,,,,,"2006-09-08"
"72518014735","2021-06-04T04:45:00","FM-16","7",,,,,"PRECIP","260",,"PLASTIC","42.6918","-73.83109","NWS ALBANY, NY",,,,,,,,,,,,,,,,,,,,,,,,,,,"29.88","63","63","0.05","RA:02 BR:1 |RA |RA",,,"100",,"FEW:02 3 BKN:07 60 OVC:08 80","29.57","2.50","63","190",,"5",,,,,,,,,,,,,,,,,,,,,,,,,,,,,,,,,,,,,"MET11206/04/21 04:45:02 SPECI KALB 040945Z 19004KT 2 1/2SM RA BR FEW003 BKN060 OVC080 17/17 A2988 RMK AO2 P0005 $ (BA)","FM-16","7",,,,,,,,,,,,,,,,,,,,,,,,,,,,"2006-09-08"
"72518014735","2021-06-04T04:51:00","FM-15","7",,,,,"PRECIP","260",,"PLASTIC","42.6918","-73.83109","NWS ALBANY, NY",,,,,,,,,,,,,,,,,,,,,,,,,,,"29.88","62","62","0.09","RA:02 BR:1 |RA |RA",,,"100","29.88","FEW:02 3 BKN:07 46 OVC:08 80","29.57","2.00","62","000",,"0",,,,,,,,,,,,,,,,,,,,,,,,,,,,,,,,,,,,,"MET12506/04/21 04:51:02 METAR KALB 040951Z 00000KT 2SM RA BR FEW003 BKN046 OVC080 17/17 A2988 RMK AO2 SLP119 P0008 T01670167 $ (BA)","FM-15","7",,,,,,,,,,,,,,,,,,,,,,,,,,,,"2006-09-08"
"72518014735","2021-06-04T05:05:00","FM-16","7",,,,,"PRECIP","260",,"PLASTIC","42.6918","-73.83109","NWS ALBANY, NY",,,,,,,,,,,,,,,,,,,,,,,,,,,"29.89","62","62","0.01","-RA:02 BR:1 |RA |RA",,,"100",,"FEW:02 3 BKN:07 70 OVC:08 95","29.57","6.00","62","180",,"5",,,,,,,,,,,,,,,,,,,,,,,,,,,,,,,,,,,,,"MET11906/04/21 05:05:02 SPECI KALB 041005Z 18004KT 6SM -RA BR FEW003 BKN070 OVC095 17/17 A2989 RMK AO2 P0001 T01670167 $ (BA)","FM-16","7",,,,,,,,,,,,,,,,,,,,,,,,,,,,"2006-09-08"
"72518014735","2021-06-04T05:51:00","FM-15","7",,,,,"PRECIP","260",,"PLASTIC","42.6918","-73.83109","NWS ALBANY, NY",,,,,,,,,,,,,,,,,,,,,,,,,,,"29.89","62","62","0.02","-RA:02 s VCFG:2 s |RA s |FG s RA s",,,"100","29.89","FEW:02 3 BKN:07 55 OVC:08 100","29.57","8.00s","62","160",,"3",,,,,,,,,,,,,,,,,,,,,,,,,,,,,,,,,,,,,"MET13606/04/21 05:51:02 METAR KALB 041051Z 16003KT 8SM -RA VCFG FEW003 BKN055 OVC100 17/17 A2989 RMK AO2 SLP121 VCFG SW P0002 T01670167 $ (BA)","FM-15","7",,,,,,,,,,,,,,,,,,,,,,,,,,,,"2006-09-08"
"72518014735","2021-06-04T06:51:00","FM-15","7",,,,,"PRECIP","260",,"PLASTIC","42.6918","-73.83109","NWS ALBANY, NY",,,,,,,,,,,,,,,,,,,,,,,,,,,"29.90","63","63","T",,"-0.03","1","100","29.90","FEW:02 3 BKN:07 90 OVC:08 110","29.59","8.00","63","180",,"3",,,,,,,,,,,,,,,,,,,,,,,,,,,,,,,,,,,,,"MET15306/04/21 06:51:02 METAR KALB 041151Z 18003KT 8SM FEW003 BKN090 OVC110 17/17 A2990 RMK AO2 RAE36 SLP124 P0001 60019 70064 T01720172 10172 20167 51009 (BA)","FM-15","7",,,,,,,,,,,,,,,,,,,,,,,,,,,,"2006-09-08"
"72518014735","2021-06-04T07:00:00","FM-12","4",,,,,"PRECIP","260",,"PLASTIC","42.6918","-73.83109","NWS ALBANY, NY",,,,,,,,,,,,,,,,,,,,,,,,,,,,"63","63",,,"-0.03","1","100","29.90","2","29.58","7.46","63","180",,"3",,,,,,,,,,,,,,,,,,,,,,,,,,,,,,,,,,,,,"SYN09272518 12162 81803 10172 20172 30018 40124 51009 60051 91151 333 10217 20167 70163 555 90412=","FM-12","4",,,,,,,,,,,,,,,,,,,,,,,,,,,,"2006-09-08"
"72518014735","2021-06-04T07:51:00","FM-15","7",,,,,"PRECIP","260",,"PLASTIC","42.6918","-73.83109","NWS ALBANY, NY",,,,,,,,,,,,,,,,,,,,,,,,,,,"29.90","64","65","0.00","||FG s RA s",,,"97","29.90","FEW:02 3 FEW:02 30 BKN:07 100","29.59","10.00s","64","000",,"0",,,,,,,,,,,,,,,,,,,,,,,,,,,,,,,,,,,,,"MET12506/04/21 07:51:02 METAR KALB 041251Z 00000KT 10SM VCFG FEW003 FEW030 BKN100 18/18 A2990 RMK AO2 SLP124 VCFG SW T01830178 (JB)","FM-15","7",,,,,,,,,,,,,,,,,,,,,,,,,,,,"2006-09-08"
"72518014735","2021-06-04T08:49:00","FM-16","6",,,,,"PRECIP","260",,"PLASTIC","42.6918","-73.83109","NWS ALBANY, NY",,,,,,,,,,,,,,,,,,,,,,,,,,,"29.91","64","68",,,,,"88",,"BKN:07 17 BKN:07 90 BKN:07 250","29.59","10.00","66","200",,"6",,,,,,,,,,,,,,,,,,,,,,,,,,,,,,,,,,,,,"MET10006/04/21 08:49:02 SPECI KALB 041349Z 20005KT 10SM BKN017 BKN090 BKN250 20/18 A2991 RMK AO2 FIBI (JB)","FM-16","6",,,,,,,,,,,,,,,,,,,,,,,,,,,,"2006-09-08"
"72518014735","2021-06-04T08:51:00","FM-15","7",,,,,"PRECIP","260",,"PLASTIC","42.6918","-73.83109","NWS ALBANY, NY",,,,,,,,,,,,,,,,,,,,,,,,,,,"29.91","64","68","0.00",,,,"87","29.91","BKN:07 17 BKN:07 90 BKN:07 250","29.59","10.00","66","200",,"7",,,,,,,,,,,,,,,,,,,,,,,,,,,,,,,,,,,,,"MET11206/04/21 08:51:02 METAR KALB 041351Z 20006KT 10SM BKN017 BKN090 BKN250 20/18 A2991 RMK AO2 SLP128 T02000178 (JB)","FM-15","7",,,,,,,,,,,,,,,,,,,,,,,,,,,,"2006-09-08"
"72518014735","2021-06-04T09:51:00","FM-15","7",,,,,"PRECIP","260",,"PLASTIC","42.6918","-73.83109","NWS ALBANY, NY",,,,,,,,,,,,,,,,,,,,,,,,,,,"29.90","64","70","0.00",,"-0.01","0","82","29.90","FEW:02 19 BKN:07 25 BKN:07 85","29.59","10.00","66","000",,"0",,,,,,,,,,,,,,,,,,,,,,,,,,,,,,,,,,,,,"MET11806/04/21 09:51:02 METAR KALB 041451Z 00000KT 10SM FEW019 BKN025 BKN085 21/18 A2990 RMK AO2 SLP126 T02110178 50002 (JB)","FM-15","7",,,,,,,,,,,,,,,,,,,,,,,,,,,,"2006-09-08"
"72518014735","2021-06-04T10:00:00","FM-12","4",,,,,"PRECIP","260",,"PLASTIC","42.6918","-73.83109","NWS ALBANY, NY",,,,,,,,,,,,,,,,,,,,,,,,,,,,"64","70",,,"0.01","9","82","29.90","15","29.58","9.94","66","000",,"0",,,,,,,,,,,,,,,,,,,,,,,,,,,,,,,,,,,,,"SYN06472518 32466 60000 10211 20178 30018 40126 50002 91451 555 90415=","FM-12","4",,,,,,,,,,,,,,,,,,,,,,,,,,,,"2006-09-08"
"72518014735","2021-06-04T10:51:00","FM-15","7",,,,,"PRECIP","260",,"PLASTIC","42.6918","-73.83109","NWS ALBANY, NY",,,,,,,,,,,,,,,,,,,,,,,,,,,"29.90","63","70","0.00",,,,"79","29.90","BKN:07 23 BKN:07 33 OVC:08 250","29.59","10.00","66","000",,"0",,,,,,,,,,,,,,,,,,,,,,,,,,,,,,,,,,,,,"MET11206/04/21 10:51:02 METAR KALB 041551Z 00000KT 10SM BKN023 BKN033 OVC250 21/17 A2990 RMK AO2 SLP126 T02110172 (JB)","FM-15","7",,,,,,,,,,,,,,,,,,,,,,,,,,,,"2006-09-08"
"72518014735","2021-06-04T11:33:00","FM-16","7",,,,,"PRECIP","260",,"PLASTIC","42.6918","-73.83109","NWS ALBANY, NY",,,,,,,,,,,,,,,,,,,,,,,,,,,"29.90","63","71",,,,,"76",,"SCT:04 23 BKN:07 37 OVC:08 250","29.59","10.00","66","000",,"0",,,,,,,,,,,,,,,,,,,,,,,,,,,,,,,,,,,,,"MET10506/04/21 11:33:02 SPECI KALB 041633Z 00000KT 10SM SCT023 BKN037 OVC250 22/17 A2990 RMK AO2 T02170172 (JB)","FM-16","7",,,,,,,,,,,,,,,,,,,,,,,,,,,,"2006-09-08"
"72518014735","2021-06-04T11:51:00","FM-15","7",,,,,"PRECIP","260",,"PLASTIC","42.6918","-73.83109","NWS ALBANY, NY",,,,,,,,,,,,,,,,,,,,,,,,,,,"29.90","62","71","0.00",,,,"73","29.89","SCT:04 23 BKN:07 30 BKN:07 250","29.59","10.00","65","000",,"0",,,,,,,,,,,,,,,,,,,,,,,,,,,,,,,,,,,,,"MET11206/04/21 11:51:02 METAR KALB 041651Z 00000KT 10SM SCT023 BKN030 BKN250 22/17 A2990 RMK AO2 SLP123 T02170167 (JB)","FM-15","7",,,,,,,,,,,,,,,,,,,,,,,,,,,,"2006-09-08"
"72518014735","2021-06-04T12:51:00","FM-15","7",,,,,"PRECIP","260",,"PLASTIC","42.6918","-73.83109","NWS ALBANY, NY",,,,,,,,,,,,,,,,,,,,,,,,,,,"29.87","62","74","0.00",,"+0.03","8","67","29.87","SCT:04 27 SCT:04 180 BKN:07 250","29.56","10.00","66","VRB",,"5",,,,,,,,,,,,,,,,,,,,,,,,,,,,,,,,,,,,,"MET13006/04/21 12:51:02 METAR KALB 041751Z VRB04KT 10SM SCT027 SCT180 BKN250 23/17 A2987 RMK AO2 SLP114 T02330167 10233 20172 58011 (JB)","FM-15","7",,,,,,,,,,,,,,,,,,,,,,,,,,,,"2006-09-08"
"72518014735","2021-06-04T13:00:00","FM-12","4",,,,,"PRECIP","260",,"PLASTIC","42.6918","-73.83109","NWS ALBANY, NY",,,,,,,,,,,,,,,,,,,,,,,,,,,,"62","74",,,"+0.03","8","67","29.87","26","29.55","9.94","66",,,"5",,,,,,,,,,,,,,,,,,,,,,,,,,,,,,,,,,,,,"SYN08072518 32566 6//04 10233 20167 30008 40114 58011 91751 333 10233 20172 555 90418=","FM-12","4",,,,,,,,,,,,,,,,,,,,,,,,,,,,"2006-09-08"
"72518014735","2021-06-04T13:51:00","FM-15","7",,,,,"PRECIP","260",,"PLASTIC","42.6918","-73.83109","NWS ALBANY, NY",,,,,,,,,,,,,,,,,,,,,,,,,,,"29.86","61","76","0.00",,,,"60","29.85","FEW:02 39 SCT:04 180 BKN:07 250","29.54","10.00","67","320",,"5",,,,,,,,,,,,,,,,,,,,,,,,,,,,,,,,,,,,,"MET11206/04/21 13:51:02 METAR KALB 041851Z 32004KT 10SM FEW039 SCT180 BKN250 24/16 A2986 RMK AO2 SLP108 T02440161 (JB)","FM-15","7",,,,,,,,,,,,,,,,,,,,,,,,,,,,"2006-09-08"
"72518014735","2021-06-04T14:51:00","FM-15","7",,,,,"PRECIP","260",,"PLASTIC","42.6918","-73.83109","NWS ALBANY, NY",,,,,,,,,,,,,,,,,,,,,,,,,,,"29.85","59","77","0.00",,,,"54","29.84","FEW:02 43 SCT:04 200 BKN:07 260","29.54","10.00","66","VRB",,"6",,,,,,,,,,,,,,,,,,,,,,,,,,,,,,,,,,,,,"MET11306/04/21 14:51:02 METAR KALB 041951Z VRB05KT 10SM FEW043 SCT200 BKN260 25/15 A2985 RMK AO2 SLP105 T02500150 (MAK)","FM-15","7",,,,,,,,,,,,,,,,,,,,,,,,,,,,"2006-09-08"
"72518014735","2021-06-04T15:51:00","FM-15","7",,,,,"PRECIP","260",,"PLASTIC","42.6918","-73.83109","NWS ALBANY, NY",,,,,,,,,,,,,,,,,,,,,,,,,,,"29.84","59","77","0.00",,"+0.03","6","54","29.83","FEW:02 50 SCT:04 200 BKN:07 260","29.53","10.00","66","030",,"3",,,,,,,,,,,,,,,,,,,,,,,,,,,,,,,,,,,,,"MET11906/04/21 15:51:02 METAR KALB 042051Z 03003KT 10SM FEW050 SCT200 BKN260 25/15 A2984 RMK AO2 SLP103 T02500150 56010 (MAK)","FM-15","7",,,,,,,,,,,,,,,,,,,,,,,,,,,,"2006-09-08"
"72518014735","2021-06-04T16:00:00","FM-12","4",,,,,"PRECIP","260",,"PLASTIC","42.6918","-73.83109","NWS ALBANY, NY",,,,,,,,,,,,,,,,,,,,,,,,,,,,"59","77",,,"+0.03","6","54","29.83","57","29.52","9.94","66","030",,"3",,,,,,,,,,,,,,,,,,,,,,,,,,,,,,,,,,,,,"SYN06472518 32766 60303 10250 20150 39998 40103 56010 92051 555 90421=","FM-12","4",,,,,,,,,,,,,,,,,,,,,,,,,,,,"2006-09-08"
"72518014735","2021-06-04T16:51:00","FM-15","7",,,,,"PRECIP","260",,"PLASTIC","42.6918","-73.83109","NWS ALBANY, NY",,,,,,,,,,,,,,,,,,,,,,,,,,,"29.83","58","77","0.00",,,,"52","29.82","FEW:02 50 FEW:02 200 SCT:04 260","29.52","10.00","65","190",,"6",,,,,,,,,,,,,,,,,,,,,,,,,,,,,,,,,,,,,"MET11306/04/21 16:51:02 METAR KALB 042151Z 19005KT 10SM FEW050 FEW200 SCT260 25/14 A2983 RMK AO2 SLP099 T02500144 (MAK)","FM-15","7",,,,,,,,,,,,,,,,,,,,,,,,,,,,"2006-09-08"
"72518014735","2021-06-04T17:51:00","FM-15","7",,,,,"PRECIP","260",,"PLASTIC","42.6918","-73.83109","NWS ALBANY, NY",,,,,,,,,,,,,,,,,,,,,,,,,,,"29.83","56","77","0.00",,,,"48","29.83","FEW:02 50 FEW:02 200 SCT:04 260","29.52","10.00","64","250",,"5",,,,,,,,,,,,,,,,,,,,,,,,,,,,,,,,,,,,,"MET11306/04/21 17:51:02 METAR KALB 042251Z 25004KT 10SM FEW050 FEW200 SCT260 25/13 A2983 RMK AO2 SLP101 T02500133 (MAK)","FM-15","7",,,,,,,,,,,,,,,,,,,,,,,,,,,,"2006-09-08"
"72518014735","2021-06-04T18:51:00","FM-15","7",,,,,"PRECIP","260",,"PLASTIC","42.6918","-73.83109","NWS ALBANY, NY",,,,,,,,,,,,,,,,,,,,,,,,,,,"29.85","61","73","0.00",,"-0.01","3","66","29.85","FEW:02 55 FEW:02 260","29.54","10.00","66","180",,"7",,,,,,,,,,,,,,,,,,,,,,,,,,,,,,,,,,,,,"MET12406/04/21 18:51:02 METAR KALB 042351Z 18006KT 10SM FEW055 FEW260 23/16 A2985 RMK AO2 SLP108 T02280161 10261 20228 53004 (MAK)","FM-15","7",,,,,,,,,,,,,,,,,,,,,,,,,,,,"2006-09-08"
"72518014735","2021-06-04T19:00:00","FM-12","4",,,,,"PRECIP","260",,"PLASTIC","42.6918","-73.83109","NWS ALBANY, NY",,,,,,,,,,,,,,,,,,,,,,,,,,,,"61","73",,,"-0.01","3","66","29.85","57","29.54","9.94","66","180",,"7",,,,,,,,,,,,,,,,,,,,,,,,,,,,,,,,,,,,,"SYN08072518 32766 21806 10228 20161 30002 40108 53004 92351 333 10261 20167 555 90500=","FM-12","4",,,,,,,,,,,,,,,,,,,,,,,,,,,,"2006-09-08"
"72518014735","2021-06-04T19:51:00","FM-15","7",,,,,"PRECIP","260",,"PLASTIC","42.6918","-73.83109","NWS ALBANY, NY",,,,,,,,,,,,,,,,,,,,,,,,,,,"29.88","62","70","0.00",,,,"76","29.87","FEW:02 260","29.57","10.00","65","160",,"6",,,,,,,,,,,,,,,,,,,,,,,,,,,,,,,,,,,,,"MET09306/04/21 19:51:01 METAR KALB 050051Z 16005KT 10SM FEW260 21/17 A2988 RMK AO2 SLP116 T02110167","FM-15","7",,,,,,,,,,,,,,,,,,,,,,,,,,,,"2006-09-08"
"72518014735","2021-06-04T20:51:00","FM-15","7",,,,,"PRECIP","260",,"PLASTIC","42.6918","-73.83109","NWS ALBANY, NY",,,,,,,,,,,,,,,,,,,,,,,,,,,"29.89","61","68","0.00",,,,"78","29.88","FEW:02 260","29.57","10.00","64","150",,"7",,,,,,,,,,,,,,,,,,,,,,,,,,,,,,,,,,,,,"MET09306/04/21 20:51:01 METAR KALB 050151Z 15006KT 10SM FEW260 20/16 A2989 RMK AO2 SLP120 T02000161","FM-15","7",,,,,,,,,,,,,,,,,,,,,,,,,,,,"2006-09-08"
"72518014735","2021-06-04T21:51:00","FM-15","7",,,,,"PRECIP","260",,"PLASTIC","42.6918","-73.83109","NWS ALBANY, NY",,,,,,,,,,,,,,,,,,,,,,,,,,,"29.88","61","66","0.00",,"-0.03","0","84","29.88","FEW:02 260","29.57","10.00","63","140",,"5",,,,,,,,,,,,,,,,,,,,,,,,,,,,,,,,,,,,,"MET09906/04/21 21:51:01 METAR KALB 050251Z 14004KT 10SM FEW260 19/16 A2988 RMK AO2 SLP119 T01890161 50011","FM-15","7",,,,,,,,,,,,,,,,,,,,,,,,,,,,"2006-09-08"
"72518014735","2021-06-04T22:00:00","FM-12","4",,,,,"PRECIP","260",,"PLASTIC","42.6918","-73.83109","NWS ALBANY, NY",,,,,,,,,,,,,,,,,,,,,,,,,,,,"61","66",,,"0.03","9","84","29.88",,"29.57","9.94","63","140",,"5",,,,,,,,,,,,,,,,,,,,,,,,,,,,,,,,,,,,,"SYN06472518 32966 21404 10189 20161 30012 40119 50011 90251 555 90503=","FM-12","4",,,,,,,,,,,,,,,,,,,,,,,,,,,,"2006-09-08"
"72518014735","2021-06-04T22:51:00","FM-15","7",,,,,"PRECIP","260",,"PLASTIC","42.6918","-73.83109","NWS ALBANY, NY",,,,,,,,,,,,,,,,,,,,,,,,,,,"29.89","63","64","0.00",,,,"96","29.89","FEW:02 260","29.57","10.00","63","VRB",,"5",,,,,,,,,,,,,,,,,,,,,,,,,,,,,,,,,,,,,"MET09306/04/21 22:51:02 METAR KALB 050351Z VRB04KT 10SM FEW260 18/17 A2989 RMK AO2 SLP121 T01780172","FM-15","7",,,,,,,,,,,,,,,,,,,,,,,,,,,,"2006-09-08"
"72518014735","2021-06-04T23:51:00","FM-15","7",,,,,"PRECIP","260",,"PLASTIC","42.6918","-73.83109","NWS ALBANY, NY",,,,,,,,,,,,,,,,,,,,,,,,,,,"29.89","63","63","0.00",,,,"100","29.88","FEW:02 260","29.57","10.00","63","160",,"7",,,,,,,,,,,,,,,,,,,,,,,,,,,,,,,,,,,,,"MET10306/04/21 23:51:02 METAR KALB 050451Z 16006KT 10SM FEW260 17/17 A2989 RMK AO2 SLP119 T01720172 402610078","FM-15","7",,,,,,,,,,,,,,,,,,,,,,,,,,,,"2006-09-08"
"72518014735","2021-06-04T23:59:00","SOD  ","6",,,,,"PRECIP","260",,"PLASTIC","42.6918","-73.83109","NWS ALBANY, NY",,,,,"71",,,"29.55",,"3.6","6","7.3","0","79","62","180","12","0.19","0","0.0","160","9","RA BR",,,,,,,,,,,,,,,,,,,,,,,,,,,,,,,,,,,,,,,,,,,,,,,,,,,,,,,,"SOD75624 HR PRECIPITATION (IN): 0.19 SNOW DEPTH (IN):0     24 HR SNOWFALL (IN):0.0  WEATHER(CODE):1  24 HR MAX TEMP (F): 7924 HR MIN TEMP (F): 62AVERAGE STATION PRESSURE:29.555 MINIMUM SEA LEVEL PRESSURE:29.82 TIME OF OCCURRENCE:1740 PEAK WIND SPEED (MPH): 12 PEAK WIND DIR (DEG):180 PEAK WIND TIME (LST):      FASTEST 2MIN SPEED (MPH):  9FASTEST 2MIN DIR (DEG):160 FASTEST 2MIN TIME (LST):     AVERAGE WIND SPEED (MPH): 3.6 24 HR AVG TEMP (F): 71DEPART FROM NORMAL:  6  HEATING DEGREE DAYS:  0 COOLING DEGREE DAYS:  6 LATEST DAY MAX TEMP (0700-1900 LST):79  LATEST NIGHT MIN TEMP(1900-0800 LST):62 HOURLY INCREMENTAL PRECIPITATION VALUES (IN):.00 0.04 T    0.04 0.09 0.02 T    0.00 0.00 0.00 0.00 0.00 0.00 0.00 0.00 0.00 0.00 0.00 0.00 0.00 0.00 0.00 0.00 0.00","SOD  ","6",,,,,,,,,,,,,,,,,,,,,,,,,"0418","1929",,"2006-09-08"
"72518014735","2021-06-05T00:51:00","FM-15","7",,,,,"PRECIP","260",,"PLASTIC","42.6918","-73.83109","NWS ALBANY, NY",,,,,,,,,,,,,,,,,,,,,,,,,,,"29.88","63","63","0.00",,"+0.00","8","100","29.88","FEW:02 260","29.57","10.00","63","160",,"6",,,,,,,,,,,,,,,,,,,,,,,,,,,,,,,,,,,,,"MET11606/05/21 00:51:02 METAR KALB 050551Z 16005KT 10SM FEW260 17/17 A2988 RMK AO2 SLP117 T01720172 10228 20172 58001 (CL)","FM-15","7",,,,,,,,,,,,,,,,,,,,,,,,,,,,"2006-09-08"
"72518014735","2021-06-05T01:00:00","FM-12","4",,,,,"PRECIP","260",,"PLASTIC","42.6918","-73.83109","NWS ALBANY, NY",,,,,,,,,,,,,,,,,,,,,,,,,,,,"63","63",,,"+0.00","8","100","29.88",,"29.57","9.94","63","160",,"6",,,,,,,,,,,,,,,,,,,,,,,,,,,,,,,,,,,,,"SYN08072518 32966 21605 10172 20172 30012 40117 58001 90551 333 10228 20167 555 90506=","FM-12","4",,,,,,,,,,,,,,,,,,,,,,,,,,,,"2006-09-08"
"72518014735","2021-06-05T01:51:00","FM-15","7",,,,,"PRECIP","260",,"PLASTIC","42.6918","-73.83109","NWS ALBANY, NY",,,,,,,,,,,,,,,,,,,,,,,,,,,"29.88","62","62","0.00","BC:3 FG:2 |FG |",,,"100","29.87","BKN:07 65","29.57","10.00","62","160",,"7",,,,,,,,,,,,,,,,,,,,,,,,,,,,,,,,,,,,,"MET11306/05/21 01:51:02 METAR KALB 050651Z 16006KT 10SM BCFG BKN065 17/17 A2988 RMK AO2 SLP115 BCFG S-SW T01670167 (CL)","FM-15","7",,,,,,,,,,,,,,,,,,,,,,,,,,,,"2006-09-08"
"72518014735","2021-06-05T02:51:00","FM-15","7",,,,,"PRECIP","260",,"PLASTIC","42.6918","-73.83109","NWS ALBANY, NY",,,,,,,,,,,,,,,,,,,,,,,,,,,"29.88","61","61","0.00","BC:3 FG:2 |FG |",,,"100","29.88","SCT:04 70","29.57","10.00","61","150",,"5",,,,,,,,,,,,,,,,,,,,,,,,,,,,,,,,,,,,,"MET11106/05/21 02:51:02 METAR KALB 050751Z 15004KT 10SM BCFG SCT070 16/16 A2988 RMK AO2 SLP117 BCFG SW T01610161 (CL)","FM-15","7",,,,,,,,,,,,,,,,,,,,,,,,,,,,"2006-09-08"
"72518014735","2021-06-05T02:58:00","FM-16","7",,,,,"PRECIP","260",,"PLASTIC","42.6918","-73.83109","NWS ALBANY, NY",,,,,,,,,,,,,,,,,,,,,,,,,,,"29.89","61","61",,"BC:3 FG:2 |FG |",,,"100",,"FEW:02 4 SCT:04 70","29.57","10.00","61","150",,"3",,,,,,,,,,,,,,,,,,,,,,,,,,,,,,,,,,,,,"MET11106/05/21 02:58:02 SPECI KALB 050758Z 15003KT 10SM BCFG FEW004 SCT070 16/16 A2989 RMK AO2 BCFG SW T01610161 (CL)","FM-16","7",,,,,,,,,,,,,,,,,,,,,,,,,,,,"2006-09-08"
"72518014735","2021-06-05T03:49:00","FM-16","6",,,,,"PRECIP","260",,"PLASTIC","42.6918","-73.83109","NWS ALBANY, NY",,,,,,,,,,,,,,,,,,,,,,,,,,,"29.88","61","61",,"BC:3 FG:2 |FG |",,,"100",,"OVC:08 3","29.57","7.00","61","150",,"7",,,,,,,,,,,,,,,,,,,,,,,,,,,,,,,,,,,,,"MET09806/05/21 03:49:02 SPECI KALB 050849Z 15006KT 7SM BCFG OVC003 16/16 A2988 RMK AO2 BCFG SW FIBI (CL)","FM-16","6",,,,,,,,,,,,,,,,,,,,,,,,,,,,"2006-09-08"
"72518014735","2021-06-05T03:51:00","FM-15","7",,,,,"PRECIP","260",,"PLASTIC","42.6918","-73.83109","NWS ALBANY, NY",,,,,,,,,,,,,,,,,,,,,,,,,,,"29.88","60","60","0.00","BR:1 ||","+0.00","6","100","29.87","OVC:08 3","29.57","6.00","60","160",,"6",,,,,,,,,,,,,,,,,,,,,,,,,,,,,,,,,,,,,"MET10606/05/21 03:51:02 METAR KALB 050851Z 16005KT 6SM BR OVC003 16/16 A2988 RMK AO2 SLP116 T01560156 56001 (CL)","FM-15","7",,,,,,,,,,,,,,,,,,,,,,,,,,,,"2006-09-08"
"72518014735","2021-06-05T04:00:00","FM-12","4",,,,,"PRECIP","260",,"PLASTIC","42.6918","-73.83109","NWS ALBANY, NY",,,,,,,,,,,,,,,,,,,,,,,,,,,,"60","60",,,"+0.00","6","100","29.87","2","29.57","5.59","60","160",,"6",,,,,,,,,,,,,,,,,,,,,,,,,,,,,,,,,,,,,"SYN07072518 31159 81605 10156 20156 30012 40116 56001 710// 90851 555 90509=","FM-12","4",,,,,,,,,,,,,,,,,,,,,,,,,,,,"2006-09-08"
"72518014735","2021-06-05T04:01:00","FM-16","7",,,,,"PRECIP","260",,"PLASTIC","42.6918","-73.83109","NWS ALBANY, NY",,,,,,,,,,,,,,,,,,,,,,,,,,,"29.87","60","60",,"BR:1 ||",,,"100",,"OVC:08 3","29.56","2.00","60","160",,"7",,,,,,,,,,,,,,,,,,,,,,,,,,,,,,,,,,,,,"MET09306/05/21 04:01:02 SPECI KALB 050901Z 16006KT 2SM BR OVC003 16/16 A2987 RMK AO2 T01560156 (CL)","FM-16","7",,,,,,,,,,,,,,,,,,,,,,,,,,,,"2006-09-08"
"72518014735","2021-06-05T04:51:00","FM-15","7",,,,,"PRECIP","260",,"PLASTIC","42.6918","-73.83109","NWS ALBANY, NY",,,,,,,,,,,,,,,,,,,,,,,,,,,"29.87","60","60","0.00","BR:1 ||",,,"100","29.87","OVC:08 4","29.56","2.00","60","160",,"8",,,,,,,,,,,,,,,,,,,,,,,,,,,,,,,,,,,,,"MET10006/05/21 04:51:02 METAR KALB 050951Z 16007KT 2SM BR OVC004 16/16 A2987 RMK AO2 SLP114 T01560156 (CL)","FM-15","7",,,,,,,,,,,,,,,,,,,,,,,,,,,,"2006-09-08"
"72518014735","2021-06-05T05:51:00","FM-15","7",,,,,"PRECIP","260",,"PLASTIC","42.6918","-73.83109","NWS ALBANY, NY",,,,,,,,,,,,,,,,,,,,,,,,,,,"29.88","61","61","0.00","BR:1 ||",,,"100","29.88","BKN:07 4","29.57","2.00","61","170",,"7",,,,,,,,,,,,,,,,,,,,,,,,,,,,,,,,,,,,,"MET11006/05/21 05:51:02 METAR KALB 051051Z 17006KT 2SM BR BKN004 16/16 A2988 RMK AO2 SFC VIS 4 SLP117 T01610161 (CL)","FM-15","7",,,,,,,,,,,,,,,,,,,,,,,,,,,,"2006-09-08"
"72518014735","2021-06-05T06:09:00","FM-16","7",,,,,"PRECIP","260",,"PLASTIC","42.6918","-73.83109","NWS ALBANY, NY",,,,,,,,,,,,,,,,,,,,,,,,,,,"29.88","61","61",,,,,"100",,"BKN:07 5","29.57","2.00","61","150",,"7",,,,,,,,,,,,,,,,,,,,,,,,,,,,,,,,,,,,,"MET10106/05/21 06:09:02 SPECI KALB 051109Z 15006KT 2SM BKN005 16/16 A2988 RMK AO2 SFC VIS 10 T01610161 (JF)","FM-16","7",,,,,,,,,,,,,,,,,,,,,,,,,,,,"2006-09-08"
"72518014735","2021-06-05T06:33:00","FM-16","7",,,,,"PRECIP","260",,"PLASTIC","42.6918","-73.83109","NWS ALBANY, NY",,,,,,,,,,,,,,,,,,,,,,,,,,,"29.88","63","63",,,,,"100",,"SCT:04 6","29.57","2.00","63","160",,"7",,,,,,,,,,,,,,,,,,,,,,,,,,,,,,,,,,,,,"MET10106/05/21 06:33:02 SPECI KALB 051133Z 16006KT 2SM SCT006 17/17 A2988 RMK AO2 SFC VIS 10 T01720172 (JF)","FM-16","7",,,,,,,,,,,,,,,,,,,,,,,,,,,,"2006-09-08"
"72518014735","2021-06-05T06:42:00","FM-16","7",,,,,"PRECIP","260",,"PLASTIC","42.6918","-73.83109","NWS ALBANY, NY",,,,,,,,,,,,,,,,,,,,,,,,,,,"29.88","63","63",,,,,"100",,"SCT:04 6","29.57","10.00","63","160",,"6",,,,,,,,,,,,,,,,,,,,,,,,,,,,,,,,,,,,,"MET09106/05/21 06:42:02 SPECI KALB 051142Z 16005KT 10SM SCT006 17/17 A2988 RMK AO2 T01720172 (JF)","FM-16","7",,,,,,,,,,,,,,,,,,,,,,,,,,,,"2006-09-08"
"72518014735","2021-06-05T06:51:00","FM-15","7",,,,,"PRECIP","260",,"PLASTIC","42.6918","-73.83109","NWS ALBANY, NY",,,,,,,,,,,,,,,,,,,,,,,,,,,"29.88","64","64","0.00",,"-0.01","3","100","29.88","SCT:04 6 SCT:04 260","29.57","10.00","64","130",,"8",,,,,,,,,,,,,,,,,,,,,,,,,,,,,,,,,,,,,"MET12306/05/21 06:51:02 METAR KALB 051151Z 13007KT 10SM SCT006 SCT260 18/18 A2988 RMK AO2 SLP118 T01780178 10178 20156 53002 (JF)","FM-15","7",,,,,,,,,,,,,,,,,,,,,,,,,,,,"2006-09-08"
"72518014735","2021-06-05T07:00:00","FM-12","4",,,,,"PRECIP","260",,"PLASTIC","42.6918","-73.83109","NWS ALBANY, NY",,,,,,,,,,,,,,,,,,,,,,,,,,,,"64","64",,,"-0.01","3","100","29.88","5","29.57","9.94","64","130",,"8",,,,,,,,,,,,,,,,,,,,,,,,,,,,,,,,,,,,,"SYN08072518 32266 41307 10178 20178 30012 40118 53002 91151 333 10261 20156 555 90512=","FM-12","4",,,,,,,,,,,,,,,,,,,,,,,,,,,,"2006-09-08"
"72518014735","2021-06-05T07:51:00","FM-15","7",,,,,"PRECIP","260",,"PLASTIC","42.6918","-73.83109","NWS ALBANY, NY",,,,,,,,,,,,,,,,,,,,,,,,,,,"29.88","64","67","0.00",,,,"91","29.87","SCT:04 260","29.57","10.00","65","170",,"8",,,,,,,,,,,,,,,,,,,,,,,,,,,,,,,,,,,,,"MET09806/05/21 07:51:02 METAR KALB 051251Z 17007KT 10SM SCT260 19/18 A2988 RMK AO2 SLP116 T01940178 (JF)","FM-15","7",,,,,,,,,,,,,,,,,,,,,,,,,,,,"2006-09-08"
"72518014735","2021-06-05T08:51:00","FM-15","7",,,,,"PRECIP","260",,"PLASTIC","42.6918","-73.83109","NWS ALBANY, NY",,,,,,,,,,,,,,,,,,,,,,,,,,,"29.87","64","71","0.00",,,,"79","29.86","BKN:07 260","29.56","10.00","67","180",,"8",,,,,,,,,,,,,,,,,,,,,,,,,,,,,,,,,,,,,"MET09806/05/21 08:51:02 METAR KALB 051351Z 18007KT 10SM BKN260 22/18 A2987 RMK AO2 SLP112 T02170178 (JF)","FM-15","7",,,,,,,,,,,,,,,,,,,,,,,,,,,,"2006-09-08"
"72518014735","2021-06-05T09:51:00","FM-15","7",,,,,"PRECIP","260",,"PLASTIC","42.6918","-73.83109","NWS ALBANY, NY",,,,,,,,,,,,,,,,,,,,,,,,,,,"29.85","65","75","0.00",,"+0.03","8","71","29.85","SCT:04 260","29.54","10.00","69","170",,"7",,,,,,,,,,,,,,,,,,,,,,,,,,,,,,,,,,,,,"MET10406/05/21 09:51:02 METAR KALB 051451Z 17006KT 10SM SCT260 24/18 A2985 RMK AO2 SLP107 T02390183 58011 (JF)","FM-15","7",,,,,,,,,,,,,,,,,,,,,,,,,,,,"2006-09-08"
"72518014735","2021-06-05T10:00:00","FM-12","4",,,,,"PRECIP","260",,"PLASTIC","42.6918","-73.83109","NWS ALBANY, NY",,,,,,,,,,,,,,,,,,,,,,,,,,,,"65","75",,,"+0.03","8","71","29.85",,"29.54","9.94","69","170",,"7",,,,,,,,,,,,,,,,,,,,,,,,,,,,,,,,,,,,,"SYN06472518 32966 41706 10239 20183 30002 40107 58011 91451 555 90515=","FM-12","4",,,,,,,,,,,,,,,,,,,,,,,,,,,,"2006-09-08"
"72518014735","2021-06-05T10:51:00","FM-15","7",,,,,"PRECIP","260",,"PLASTIC","42.6918","-73.83109","NWS ALBANY, NY",,,,,,,,,,,,,,,,,,,,,,,,,,,"29.83","66","80","0.00",,,,"62","29.83","SCT:04 260","29.52","10.00","71","140",,"11",,,,,,,,,,,,,,,,,,,,,,,,,,,,,,,,,,,,,"MET09806/05/21 10:51:02 METAR KALB 051551Z 14010KT 10SM SCT260 27/19 A2983 RMK AO2 SLP100 T02670189 (JF)","FM-15","7",,,,,,,,,,,,,,,,,,,,,,,,,,,,"2006-09-08"
"72518014735","2021-06-05T11:51:00","FM-15","7",,,,,"PRECIP","260",,"PLASTIC","42.6918","-73.83109","NWS ALBANY, NY",,,,,,,,,,,,,,,,,,,,,,,,,,,"29.81","66","83","0.00",,,,"57","29.81","SCT:04 260","29.50","10.00","72","170",,"10",,,,,,,,,,,,,,,,,,,,,,,,,,,,,,,,,,,,,"MET10806/05/21 11:51:02 METAR KALB 051651Z 17009KT 10SM SCT260 28/19 A2981 RMK AO2 SLP094 SCT V FEW T02830189 (JF)","FM-15","7",,,,,,,,,,,,,,,,,,,,,,,,,,,,"2006-09-08"
"72518014735","2021-06-05T12:51:00","FM-15","7",,,,,"PRECIP","260",,"PLASTIC","42.6918","-73.83109","NWS ALBANY, NY",,,,,,,,,,,,,,,,,,,,,,,,,,,"29.81","66","85","0.00",,"+0.04","6","53","29.80","FEW:02 60 SCT:04 260","29.50","10.00","72","180",,"8",,,,,,,,,,,,,,,,,,,,,,,,,,,,,,,,,,,,,"MET13306/05/21 12:51:02 METAR KALB 051751Z 18007KT 10SM FEW060 SCT260 29/19 A2981 RMK AO2 SLP093 SCT V FEW T02940189 10294 20178 56014 (JF)","FM-15","7",,,,,,,,,,,,,,,,,,,,,,,,,,,,"2006-09-08"
"72518014735","2021-06-05T13:00:00","FM-12","4",,,,,"PRECIP","260",,"PLASTIC","42.6918","-73.83109","NWS ALBANY, NY",,,,,,,,,,,,,,,,,,,,,,,,,,,,"66","85",,,"+0.04","6","53","29.80","57","29.49","9.94","72","180",,"8",,,,,,,,,,,,,,,,,,,,,,,,,,,,,,,,,,,,,"SYN08072518 32766 41807 10294 20189 39988 40093 56014 91751 333 10294 20178 555 90518=","FM-12","4",,,,,,,,,,,,,,,,,,,,,,,,,,,,"2006-09-08"
"72518014735","2021-06-05T13:51:00","FM-15","7",,,,,"PRECIP","260",,"PLASTIC","42.6918","-73.83109","NWS ALBANY, NY",,,,,,,,,,,,,,,,,,,,,,,,,,,"29.80","63","87","0.00",,,,"45","29.79","FEW:02 60 SCT:04 85 SCT:04 260","29.49","10.00","71","220","21","11",,,,,,,,,,,,,,,,,,,,,,,,,,,,,,,,,,,,,"MET12506/05/21 13:51:02 METAR KALB 051851Z 22010G18KT 10SM FEW060 SCT085 SCT260 31/17 A2980 RMK AO2 SLP089 ACSL NE-E T03060172 (JF)","FM-15","7",,,,,,,,,,,,,,,,,,,,,,,,,,,,"2006-09-08"
"72518014735","2021-06-05T14:51:00","FM-15","7",,,,,"PRECIP","260",,"PLASTIC","42.6918","-73.83109","NWS ALBANY, NY",,,,,,,,,,,,,,,,,,,,,,,,,,,"29.80","62","87","0.00",,,,"43","29.80","FEW:02 70 FEW:02 160 BKN:07 260","29.49","10.00","71","270","22","17",,,,,,,,,,,,,,,,,,,,,,,,,,,,,,,,,,,,,"MET11506/05/21 14:51:02 METAR KALB 051951Z 27015G19KT 10SM FEW070 FEW160 BKN260 31/17 A2980 RMK AO2 SLP090 T03060167 (JF)","FM-15","7",,,,,,,,,,,,,,,,,,,,,,,,,,,,"2006-09-08"
"72518014735","2021-06-05T15:51:00","FM-15","7",,,,,"PRECIP","260",,"PLASTIC","42.6918","-73.83109","NWS ALBANY, NY",,,,,,,,,,,,,,,,,,,,,,,,,,,"29.82","60","86","0.00",,"-0.01","3","42","29.82","FEW:02 70 FEW:02 160 BKN:07 260","29.51","10.00","69","290",,"13",,,,,,,,,,,,,,,,,,,,,,,,,,,,,,,,,,,,,"MET11906/05/21 15:51:02 METAR KALB 052051Z 29011KT 10SM FEW070 FEW160 BKN260 30/16 A2982 RMK AO2 SLP097 T03000156 53004 (MAK)","FM-15","7",,,,,,,,,,,,,,,,,,,,,,,,,,,,"2006-09-08"
"72518014735","2021-06-05T16:00:00","FM-12","4",,,,,"PRECIP","260",,"PLASTIC","42.6918","-73.83109","NWS ALBANY, NY",,,,,,,,,,,,,,,,,,,,,,,,,,,,"60","86",,,"-0.01","3","42","29.82","74","29.51","9.94","69","290",,"13",,,,,,,,,,,,,,,,,,,,,,,,,,,,,,,,,,,,,"SYN06472518 32866 62911 10300 20156 39992 40097 53004 92051 555 90521=","FM-12","4",,,,,,,,,,,,,,,,,,,,,,,,,,,,"2006-09-08"
"72518014735","2021-06-05T16:51:00","FM-15","7",,,,,"PRECIP","260",,"PLASTIC","42.6918","-73.83109","NWS ALBANY, NY",,,,,,,,,,,,,,,,,,,,,,,,,,,"29.83","61","84","0.00",,,,"46","29.83","FEW:02 90 FEW:02 200 BKN:07 260","29.52","10.00","69","290",,"8",,,,,,,,,,,,,,,,,,,,,,,,,,,,,,,,,,,,,"MET11306/05/21 16:51:02 METAR KALB 052151Z 29007KT 10SM FEW090 FEW200 BKN260 29/16 A2983 RMK AO2 SLP100 T02890161 (MAK)","FM-15","7",,,,,,,,,,,,,,,,,,,,,,,,,,,,"2006-09-08"
"72518014735","2021-06-05T17:51:00","FM-15","7",,,,,"PRECIP","260",,"PLASTIC","42.6918","-73.83109","NWS ALBANY, NY",,,,,,,,,,,,,,,,,,,,,,,,,,,"29.84","60","83","0.00",,,,"46","29.84","SCT:04 95 SCT:04 200 BKN:07 260","29.53","10.00","68","270",,"10",,,,,,,,,,,,,,,,,,,,,,,,,,,,,,,,,,,,,"MET11306/05/21 17:51:02 METAR KALB 052251Z 27009KT 10SM SCT095 SCT200 BKN260 28/16 A2984 RMK AO2 SLP104 T02830156 (MAK)","FM-15","7",,,,,,,,,,,,,,,,,,,,,,,,,,,,"2006-09-08"
"72518014735","2021-06-05T18:51:00","FM-15","7",,,,,"PRECIP","260",,"PLASTIC","42.6918","-73.83109","NWS ALBANY, NY",,,,,,,,,,,,,,,,,,,,,,,,,,,"29.86","60","79","0.00",,"-0.04","3","52","29.85","FEW:02 95 SCT:04 130 BKN:07 260","29.54","10.00","67","240",,"5",,,,,,,,,,,,,,,,,,,,,,,,,,,,,,,,,,,,,"MET13106/05/21 18:51:02 METAR KALB 052351Z 24004KT 10SM FEW095 SCT130 BKN260 26/16 A2986 RMK AO2 SLP110 T02610156 10311 20261 53014 (MAK)","FM-15","7",,,,,,,,,,,,,,,,,,,,,,,,,,,,"2006-09-08"
"72518014735","2021-06-05T19:00:00","FM-12","4",,,,,"PRECIP","260",,"PLASTIC","42.6918","-73.83109","NWS ALBANY, NY",,,,,,,,,,,,,,,,,,,,,,,,,,,,"60","79",,,"-0.04","3","52","29.85",,"29.54","9.94","67","240",,"5",,,,,,,,,,,,,,,,,,,,,,,,,,,,,,,,,,,,,"SYN08072518 32966 62404 10261 20156 30005 40110 53014 92351 333 10311 20156 555 90600=","FM-12","4",,,,,,,,,,,,,,,,,,,,,,,,,,,,"2006-09-08"
"72518014735","2021-06-05T19:51:00","FM-15","7",,,,,"PRECIP","260",,"PLASTIC","42.6918","-73.83109","NWS ALBANY, NY",,,,,,,,,,,,,,,,,,,,,,,,,,,"29.88","62","75","0.00",,,,"64","29.88","FEW:02 95 SCT:04 130 BKN:07 260","29.57","10.00","67","000",,"0",,,,,,,,,,,,,,,,,,,,,,,,,,,,,,,,,,,,,"MET10706/05/21 19:51:01 METAR KALB 060051Z 00000KT 10SM FEW095 SCT130 BKN260 24/17 A2988 RMK AO2 SLP118 T02390167","FM-15","7",,,,,,,,,,,,,,,,,,,,,,,,,,,,"2006-09-08"
"72518014735","2021-06-05T20:51:00","FM-15","7",,,,,"PRECIP","260",,"PLASTIC","42.6918","-73.83109","NWS ALBANY, NY",,,,,,,,,,,,,,,,,,,,,,,,,,,"29.91","63","71","0.00",,,,"76","29.91","FEW:02 100 FEW:02 130 BKN:07 260","29.59","10.00","66","000",,"0",,,,,,,,,,,,,,,,,,,,,,,,,,,,,,,,,,,,,"MET10706/05/21 20:51:01 METAR KALB 060151Z 00000KT 10SM FEW100 FEW130 BKN260 22/17 A2991 RMK AO2 SLP127 T02170172","FM-15","7",,,,,,,,,,,,,,,,,,,,,,,,,,,,"2006-09-08"
"72518014735","2021-06-05T21:51:00","FM-15","7",,,,,"PRECIP","260",,"PLASTIC","42.6918","-73.83109","NWS ALBANY, NY",,,,,,,,,,,,,,,,,,,,,,,,,,,"29.93","62","69","0.00",,"-0.06","1","78","29.92","SCT:04 100 BKN:07 250","29.62","10.00","65","220",,"3",,,,,,,,,,,,,,,,,,,,,,,,,,,,,,,,,,,,,"MET10606/05/21 21:51:02 METAR KALB 060251Z 22003KT 10SM SCT100 BKN250 21/17 A2993 RMK AO2 SLP132 T02060167 51021","FM-15","7",,,,,,,,,,,,,,,,,,,,,,,,,,,,"2006-09-08"
"72518014735","2021-06-05T22:00:00","FM-12","4",,,,,"PRECIP","260",,"PLASTIC","42.6918","-73.83109","NWS ALBANY, NY",,,,,,,,,,,,,,,,,,,,,,,,,,,,"62","69",,,"-0.06","1","78","29.92",,"29.61","9.94","65","220",,"3",,,,,,,,,,,,,,,,,,,,,,,,,,,,,,,,,,,,,"SYN06472518 32966 62203 10206 20167 30028 40132 51021 90251 555 90603=","FM-12","4",,,,,,,,,,,,,,,,,,,,,,,,,,,,"2006-09-08"
"72518014735","2021-06-05T22:51:00","FM-15","7",,,,,"PRECIP","260",,"PLASTIC","42.6918","-73.83109","NWS ALBANY, NY",,,,,,,,,,,,,,,,,,,,,,,,,,,"29.94","59","68","0.00",,,,"73","29.93","SCT:04 100 BKN:07 250","29.62","10.00","63","250",,"6",,,,,,,,,,,,,,,,,,,,,,,,,,,,,,,,,,,,,"MET10006/05/21 22:51:02 METAR KALB 060351Z 25005KT 10SM SCT100 BKN250 20/15 A2994 RMK AO2 SLP136 T02000150","FM-15","7",,,,,,,,,,,,,,,,,,,,,,,,,,,,"2006-09-08"
"72518014735","2021-06-05T23:51:00","FM-15","7",,,,,"PRECIP","260",,"PLASTIC","42.6918","-73.83109","NWS ALBANY, NY",,,,,,,,,,,,,,,,,,,,,,,,,,,"29.95","55","70","0.00",,,,"59","29.94","SCT:04 110 BKN:07 250","29.64","10.00","61","250",,"9",,,,,,,,,,,,,,,,,,,,,,,,,,,,,,,,,,,,,"MET11006/05/21 23:51:02 METAR KALB 060451Z 25008KT 10SM SCT110 BKN250 21/13 A2995 RMK AO2 SLP139 T02110128 403110156","FM-15","7",,,,,,,,,,,,,,,,,,,,,,,,,,,,"2006-09-08"
"72518014735","2021-06-05T23:59:00","SOD  ","6",,,,,"PRECIP","260",,"PLASTIC","42.6918","-73.83109","NWS ALBANY, NY",,,,,"74",,,"29.54",,"7.6","9","10.0","0","88","60","270","28","0.00","0","0.0","280","18","FG BR",,,,,,,,,,,,,,,,,,,,,,,,,,,,,,,,,,,,,,,,,,,,,,,,,,,,,,,,"SOD75624 HR PRECIPITATION (IN): 0.00 SNOW DEPTH (IN):0     24 HR SNOWFALL (IN):0.0  WEATHER(CODE):1  24 HR MAX TEMP (F): 8824 HR MIN TEMP (F): 60AVERAGE STATION PRESSURE:29.540 MINIMUM SEA LEVEL PRESSURE:29.79 TIME OF OCCURRENCE:1449 PEAK WIND SPEED (MPH): 28 PEAK WIND DIR (DEG):270 PEAK WIND TIME (LST):      FASTEST 2MIN SPEED (MPH): 18FASTEST 2MIN DIR (DEG):280 FASTEST 2MIN TIME (LST):     AVERAGE WIND SPEED (MPH): 7.6 24 HR AVG TEMP (F): 74DEPART FROM NORMAL:  8  HEATING DEGREE DAYS:  0 COOLING DEGREE DAYS:  9 LATEST DAY MAX TEMP (0700-1900 LST):88  LATEST NIGHT MIN TEMP(1900-0800 LST):60 HOURLY INCREMENTAL PRECIPITATION VALUES (IN):.00 0.00 0.00 0.00 0.00 0.00 0.00 0.00 0.00 0.00 0.00 0.00 0.00 0.00 0.00 0.00 0.00 0.00 0.00 0.00 0.00 0.00 0.00 0.00","SOD  ","6",,,,,,,,,,,,,,,,,,,,,,,,,"0418","1930",,"2006-09-08"
"72518014735","2021-06-06T00:51:00","FM-15","7",,,,,"PRECIP","260",,"PLASTIC","42.6918","-73.83109","NWS ALBANY, NY",,,,,,,,,,,,,,,,,,,,,,,,,,,"29.95","52","71","0.00",,"-0.02","1","51","29.94","FEW:02 110 BKN:07 250","29.64","10.00","60","250",,"7",,,,,,,,,,,,,,,,,,,,,,,,,,,,,,,,,,,,,"MET12306/06/21 00:51:02 METAR KALB 060551Z 25006KT 10SM FEW110 BKN250 22/11 A2995 RMK AO2 SLP140 T02170111 10267 20189 51008 (CL)","FM-15","7",,,,,,,,,,,,,,,,,,,,,,,,,,,,"2006-09-08"
"72518014735","2021-06-06T01:00:00","FM-12","4",,,,,"PRECIP","260",,"PLASTIC","42.6918","-73.83109","NWS ALBANY, NY",,,,,,,,,,,,,,,,,,,,,,,,,,,,"52","71",,,"-0.02","1","51","29.94",,"29.63","9.94","60","250",,"7",,,,,,,,,,,,,,,,,,,,,,,,,,,,,,,,,,,,,"SYN08072518 32966 62506 10217 20111 30035 40140 51008 90551 333 10267 20156 555 90606=","FM-12","4",,,,,,,,,,,,,,,,,,,,,,,,,,,,"2006-09-08"
"72518014735","2021-06-06T01:51:00","FM-15","7",,,,,"PRECIP","260",,"PLASTIC","42.6918","-73.83109","NWS ALBANY, NY",,,,,,,,,,,,,,,,,,,,,,,,,,,"29.96","55","66","0.00",,,,"68","29.96","FEW:02 110 BKN:07 250","29.65","10.00","60","000",,"0",,,,,,,,,,,,,,,,,,,,,,,,,,,,,,,,,,,,,"MET10506/06/21 01:51:02 METAR KALB 060651Z 00000KT 10SM FEW110 BKN250 19/13 A2996 RMK AO2 SLP144 T01890128 (CL)","FM-15","7",,,,,,,,,,,,,,,,,,,,,,,,,,,,"2006-09-08"
"72518014735","2021-06-06T02:51:00","FM-15","7",,,,,"PRECIP","260",,"PLASTIC","42.6918","-73.83109","NWS ALBANY, NY",,,,,,,,,,,,,,,,,,,,,,,,,,,"29.97","56","63","0.00",,,,"78","29.96","FEW:02 110 SCT:04 250","29.65","10.00","59","000",,"0",,,,,,,,,,,,,,,,,,,,,,,,,,,,,,,,,,,,,"MET10506/06/21 02:51:02 METAR KALB 060751Z 00000KT 10SM FEW110 SCT250 17/13 A2997 RMK AO2 SLP147 T01720133 (CL)","FM-15","7",,,,,,,,,,,,,,,,,,,,,,,,,,,,"2006-09-08"
"72518014735","2021-06-06T03:51:00","FM-15","7",,,,,"PRECIP","260",,"PLASTIC","42.6918","-73.83109","NWS ALBANY, NY",,,,,,,,,,,,,,,,,,,,,,,,,,,"29.98","56","60","0.00",,"-0.03","1","86","29.97","FEW:02 50 SCT:04 100 BKN:07 220","29.67","10.00","58","000",,"0",,,,,,,,,,,,,,,,,,,,,,,,,,,,,,,,,,,,,"MET11806/06/21 03:51:02 METAR KALB 060851Z 00000KT 10SM FEW050 SCT100 BKN220 16/13 A2998 RMK AO2 SLP150 T01560133 51009 (CL)","FM-15","7",,,,,,,,,,,,,,,,,,,,,,,,,,,,"2006-09-08"
"72518014735","2021-06-06T04:00:00","FM-12","4",,,,,"PRECIP","260",,"PLASTIC","42.6918","-73.83109","NWS ALBANY, NY",,,,,,,,,,,,,,,,,,,,,,,,,,,,"56","60",,,"-0.03","1","86","29.97","57","29.66","9.94","58","000",,"0",,,,,,,,,,,,,,,,,,,,,,,,,,,,,,,,,,,,,"SYN06472518 32766 60000 10156 20133 30045 40150 51009 90851 555 90609=","FM-12","4",,,,,,,,,,,,,,,,,,,,,,,,,,,,"2006-09-08"
"72518014735","2021-06-06T04:51:00","FM-15","7",,,,,"PRECIP","260",,"PLASTIC","42.6918","-73.83109","NWS ALBANY, NY",,,,,,,,,,,,,,,,,,,,,,,,,,,"29.99","57","61","0.00",,,,"87","29.98","FEW:02 46 SCT:04 120 BKN:07 210","29.67","10.00","59","000",,"0",,,,,,,,,,,,,,,,,,,,,,,,,,,,,,,,,,,,,"MET11206/06/21 04:51:02 METAR KALB 060951Z 00000KT 10SM FEW046 SCT120 BKN210 16/14 A2999 RMK AO2 SLP154 T01610139 (CL)","FM-15","7",,,,,,,,,,,,,,,,,,,,,,,,,,,,"2006-09-08"
"72518014735","2021-06-06T05:51:00","FM-15","7",,,,,"PRECIP","260",,"PLASTIC","42.6918","-73.83109","NWS ALBANY, NY",,,,,,,,,,,,,,,,,,,,,,,,,,,"30.01","59","66","0.00",,,,"78","30.01","FEW:02 120 FEW:02 200 FEW:02 250","29.70","10.00","62","000",,"0",,,,,,,,,,,,,,,,,,,,,,,,,,,,,,,,,,,,,"MET11206/06/21 05:51:02 METAR KALB 061051Z 00000KT 10SM FEW120 FEW200 FEW250 19/15 A3001 RMK AO2 SLP161 T01890150 (CL)","FM-15","7",,,,,,,,,,,,,,,,,,,,,,,,,,,,"2006-09-08"
"72518014735","2021-06-06T06:51:00","FM-15","7",,,,,"PRECIP","260",,"PLASTIC","42.6918","-73.83109","NWS ALBANY, NY",,,,,,,,,,,,,,,,,,,,,,,,,,,"30.02","60","70","0.00",,"-0.04","1","71","30.01","FEW:02 200 FEW:02 250","29.70","10.00","64","170",,"8",,,,,,,,,,,,,,,,,,,,,,,,,,,,,,,,,,,,,"MET12406/06/21 06:51:02 METAR KALB 061151Z 17007KT 10SM FEW200 FEW250 21/16 A3002 RMK AO2 SLP163 T02110156 10217 20156 51013 (JDO)","FM-15","7",,,,,,,,,,,,,,,,,,,,,,,,,,,,"2006-09-08"
"72518014735","2021-06-06T07:00:00","FM-12","4",,,,,"PRECIP","260",,"PLASTIC","42.6918","-73.83109","NWS ALBANY, NY",,,,,,,,,,,,,,,,,,,,,,,,,,,,"60","70",,,"-0.04","1","71","30.01",,"29.70","9.94","64","170",,"8",,,,,,,,,,,,,,,,,,,,,,,,,,,,,,,,,,,,,"SYN08072518 32966 21707 10211 20156 30059 40163 51013 91151 333 10311 20156 555 90612=","FM-12","4",,,,,,,,,,,,,,,,,,,,,,,,,,,,"2006-09-08"
"72518014735","2021-06-06T07:51:00","FM-15","7",,,,,"PRECIP","260",,"PLASTIC","42.6918","-73.83109","NWS ALBANY, NY",,,,,,,,,,,,,,,,,,,,,,,,,,,"30.02","61","74","0.00",,,,"64","30.02","FEW:02 200 FEW:02 250","29.70","10.00","66","150",,"6",,,,,,,,,,,,,,,,,,,,,,,,,,,,,,,,,,,,,"MET10606/06/21 07:51:02 METAR KALB 061251Z 15005KT 10SM FEW200 FEW250 23/16 A3002 RMK AO2 SLP165 T02330161 (JDO)","FM-15","7",,,,,,,,,,,,,,,,,,,,,,,,,,,,"2006-09-08"
"72518014735","2021-06-06T08:51:00","FM-15","7",,,,,"PRECIP","260",,"PLASTIC","42.6918","-73.83109","NWS ALBANY, NY",,,,,,,,,,,,,,,,,,,,,,,,,,,"30.02","63","78","0.00",,,,"60","30.02","FEW:02 200 FEW:02 250","29.70","10.00","68","150",,"6",,,,,,,,,,,,,,,,,,,,,,,,,,,,,,,,,,,,,"MET10606/06/21 08:51:02 METAR KALB 061351Z 15005KT 10SM FEW200 FEW250 26/17 A3002 RMK AO2 SLP165 T02560172 (JDO)","FM-15","7",,,,,,,,,,,,,,,,,,,,,,,,,,,,"2006-09-08"
"72518014735","2021-06-06T09:51:00","FM-15","7",,,,,"PRECIP","260",,"PLASTIC","42.6918","-73.83109","NWS ALBANY, NY",,,,,,,,,,,,,,,,,,,,,,,,,,,"30.02","63","81","0.00",,"-0.01","1","54","30.02","FEW:02 180 FEW:02 250","29.70","10.00","69","160",,"6",,,,,,,,,,,,,,,,,,,,,,,,,,,,,,,,,,,,,"MET11206/06/21 09:51:02 METAR KALB 061451Z 16005KT 10SM FEW180 FEW250 27/17 A3002 RMK AO2 SLP165 T02720172 51002 (JDO)","FM-15","7",,,,,,,,,,,,,,,,,,,,,,,,,,,,"2006-09-08"
"72518014735","2021-06-06T10:00:00","FM-12","4",,,,,"PRECIP","260",,"PLASTIC","42.6918","-73.83109","NWS ALBANY, NY",,,,,,,,,,,,,,,,,,,,,,,,,,,,"63","81",,,"-0.01","1","54","30.02",,"29.70","9.94","69","160",,"6",,,,,,,,,,,,,,,,,,,,,,,,,,,,,,,,,,,,,"SYN06472518 32966 21605 10272 20172 30059 40165 51002 91451 555 90615=","FM-12","4",,,,,,,,,,,,,,,,,,,,,,,,,,,,"2006-09-08"
"72518014735","2021-06-06T10:51:00","FM-15","7",,,,,"PRECIP","260",,"PLASTIC","42.6918","-73.83109","NWS ALBANY, NY",,,,,,,,,,,,,,,,,,,,,,,,,,,"30.01","61","85","0.00",,,,"45","30.01","FEW:02 55 FEW:02 180 SCT:04 250","29.70","10.00","70","240",,"7",,,,,,,,,,,,,,,,,,,,,,,,,,,,,,,,,,,,,"MET11306/06/21 10:51:02 METAR KALB 061551Z 24006KT 10SM FEW055 FEW180 SCT250 29/16 A3001 RMK AO2 SLP162 T02940161 (JDO)","FM-15","7",,,,,,,,,,,,,,,,,,,,,,,,,,,,"2006-09-08"
"72518014735","2021-06-06T11:51:00","FM-15","7",,,,,"PRECIP","260",,"PLASTIC","42.6918","-73.83109","NWS ALBANY, NY",,,,,,,,,,,,,,,,,,,,,,,,,,,"30.00","60","86","0.00",,,,"42","30.00","SCT:04 70 BKN:07 250","29.68","10.00","69","230",,"10",,,,,,,,,,,,,,,,,,,,,,,,,,,,,,,,,,,,,"MET10606/06/21 11:51:02 METAR KALB 061651Z 23009KT 10SM SCT070 BKN250 30/16 A3000 RMK AO2 SLP158 T03000156 (JDO)","FM-15","7",,,,,,,,,,,,,,,,,,,,,,,,,,,,"2006-09-08"
"72518014735","2021-06-06T12:51:00","FM-15","7",,,,,"PRECIP","260",,"PLASTIC","42.6918","-73.83109","NWS ALBANY, NY",,,,,,,,,,,,,,,,,,,,,,,,,,,"29.99","60","86","0.00",,"+0.03","8","42","29.98","SCT:04 70 BKN:07 250","29.67","10.00","69","VRB",,"9",,,,,,,,,,,,,,,,,,,,,,,,,,,,,,,,,,,,,"MET12406/06/21 12:51:02 METAR KALB 061751Z 23008KT 10SM SCT070 BKN250 30/16 A2999 RMK AO2 SLP154 T03000156 10306 20211 58009 (JDO)","FM-15","7",,,,,,,,,,,,,,,,,,,,,,,,,,,,"2006-09-08"
"72518014735","2021-06-06T13:00:00","FM-12","4",,,,,"PRECIP","260",,"PLASTIC","42.6918","-73.83109","NWS ALBANY, NY",,,,,,,,,,,,,,,,,,,,,,,,,,,,"60","86",,,"+0.03","8","42","29.98","74","29.67","9.94","69","230",,"9",,,,,,,,,,,,,,,,,,,,,,,,,,,,,,,,,,,,,"SYN08072518 32866 62308 10300 20156 30049 40154 58009 91751 333 10306 20211 555 90618=","FM-12","4",,,,,,,,,,,,,,,,,,,,,,,,,,,,"2006-09-08"
"72518014735","2021-06-06T13:51:00","FM-15","7",,,,,"PRECIP","260",,"PLASTIC","42.6918","-73.83109","NWS ALBANY, NY",,,,,,,,,,,,,,,,,,,,,,,,,,,"29.98","60","88","0.00",,,,"39","29.98","FEW:02 70 BKN:07 250","29.67","10.00","70","210",,"9",,,,,,,,,,,,,,,,,,,,,,,,,,,,,,,,,,,,,"MET10606/06/21 13:51:02 METAR KALB 061851Z 21008KT 10SM FEW070 BKN250 31/16 A2998 RMK AO2 SLP151 T03110156 (JDO)","FM-15","7",,,,,,,,,,,,,,,,,,,,,,,,,,,,"2006-09-08"
"72518014735","2021-06-06T14:51:00","FM-15","7",,,,,"PRECIP","260",,"PLASTIC","42.6918","-73.83109","NWS ALBANY, NY",,,,,,,,,,,,,,,,,,,,,,,,,,,"29.98","60","88","0.00",,,,"39","29.97","FEW:02 70 BKN:07 250","29.67","10.00","70","250",,"9",,,,,,,,,,,,,,,,,,,,,,,,,,,,,,,,,,,,,"MET10606/06/21 14:51:02 METAR KALB 061951Z 25008KT 10SM FEW070 BKN250 31/16 A2998 RMK AO2 SLP150 T03110156 (MAK)","FM-15","7",,,,,,,,,,,,,,,,,,,,,,,,,,,,"2006-09-08"
"72518014735","2021-06-06T15:51:00","FM-15","7",,,,,"PRECIP","260",,"PLASTIC","42.6918","-73.83109","NWS ALBANY, NY",,,,,,,,,,,,,,,,,,,,,,,,,,,"29.97","61","87","0.00",,"+0.02","6","42","29.96","FEW:02 70 BKN:07 250","29.65","10.00","70","220",,"9",,,,,,,,,,,,,,,,,,,,,,,,,,,,,,,,,,,,,"MET11206/06/21 15:51:02 METAR KALB 062051Z 22008KT 10SM FEW070 BKN250 31/16 A2997 RMK AO2 SLP147 T03060161 56008 (MAK)","FM-15","7",,,,,,,,,,,,,,,,,,,,,,,,,,,,"2006-09-08"
"72518014735","2021-06-06T16:00:00","FM-12","4",,,,,"PRECIP","260",,"PLASTIC","42.6918","-73.83109","NWS ALBANY, NY",,,,,,,,,,,,,,,,,,,,,,,,,,,,"61","87",,,"+0.02","6","42","29.96","74","29.65","9.94","70","220",,"9",,,,,,,,,,,,,,,,,,,,,,,,,,,,,,,,,,,,,"SYN06472518 32866 62208 10306 20161 30042 40147 56008 92051 555 90621=","FM-12","4",,,,,,,,,,,,,,,,,,,,,,,,,,,,"2006-09-08"
"72518014735","2021-06-06T16:51:00","FM-15","7",,,,,"PRECIP","260",,"PLASTIC","42.6918","-73.83109","NWS ALBANY, NY",,,,,,,,,,,,,,,,,,,,,,,,,,,"29.96","61","87","0.00",,,,"42","29.96","FEW:02 70 BKN:07 250","29.65","10.00","70","230",,"9",,,,,,,,,,,,,,,,,,,,,,,,,,,,,,,,,,,,,"MET10606/06/21 16:51:02 METAR KALB 062151Z 23008KT 10SM FEW070 BKN250 31/16 A2996 RMK AO2 SLP144 T03060161 (MAK)","FM-15","7",,,,,,,,,,,,,,,,,,,,,,,,,,,,"2006-09-08"
"72518014735","2021-06-06T17:51:00","FM-15","7",,,,,"PRECIP","260",,"PLASTIC","42.6918","-73.83109","NWS ALBANY, NY",,,,,,,,,,,,,,,,,,,,,,,,,,,"29.96","61","85","0.00",,,,"45","29.96","FEW:02 70 SCT:04 250","29.65","10.00","70","260",,"8",,,,,,,,,,,,,,,,,,,,,,,,,,,,,,,,,,,,,"MET10606/06/21 17:51:02 METAR KALB 062251Z 26007KT 10SM FEW070 SCT250 29/16 A2996 RMK AO2 SLP144 T02940161 (MAK)","FM-15","7",,,,,,,,,,,,,,,,,,,,,,,,,,,,"2006-09-08"
"72518014735","2021-06-06T18:51:00","FM-15","7",,,,,"PRECIP","260",,"PLASTIC","42.6918","-73.83109","NWS ALBANY, NY",,,,,,,,,,,,,,,,,,,,,,,,,,,"29.97","61","82","0.00",,"+0.00","5","49","29.96","FEW:02 70 SCT:04 240 BKN:07 280","29.65","10.00","69","250",,"5",,,,,,,,,,,,,,,,,,,,,,,,,,,,,,,,,,,,,"MET13106/06/21 18:51:02 METAR KALB 062351Z 25004KT 10SM FEW070 SCT240 BKN280 28/16 A2997 RMK AO2 SLP146 T02780161 10311 20278 55000 (MAK)","FM-15","7",,,,,,,,,,,,,,,,,,,,,,,,,,,,"2006-09-08"
"72518014735","2021-06-06T19:00:00","FM-12","4",,,,,"PRECIP","260",,"PLASTIC","42.6918","-73.83109","NWS ALBANY, NY",,,,,,,,,,,,,,,,,,,,,,,,,,,,"61","82",,,"+0.00","5","49","29.96","74","29.65","9.94","69","250",,"5",,,,,,,,,,,,,,,,,,,,,,,,,,,,,,,,,,,,,"SYN08072518 32866 62504 10278 20161 30042 40146 55000 92351 333 10311 20156 555 90700=","FM-12","4",,,,,,,,,,,,,,,,,,,,,,,,,,,,"2006-09-08"
"72518014735","2021-06-06T19:51:00","FM-15","7",,,,,"PRECIP","260",,"PLASTIC","42.6918","-73.83109","NWS ALBANY, NY",,,,,,,,,,,,,,,,,,,,,,,,,,,"29.99","63","75","0.00",,,,"66","29.98","FEW:02 240 FEW:02 280","29.67","10.00","67","260",,"3",,,,,,,,,,,,,,,,,,,,,,,,,,,,,,,,,,,,,"MET10006/06/21 19:51:01 METAR KALB 070051Z 26003KT 10SM FEW240 FEW280 24/17 A2999 RMK AO2 SLP153 T02390172","FM-15","7",,,,,,,,,,,,,,,,,,,,,,,,,,,,"2006-09-08"
"72518014735","2021-06-06T20:51:00","FM-15","7",,,,,"PRECIP","260",,"PLASTIC","42.6918","-73.83109","NWS ALBANY, NY",,,,,,,,,,,,,,,,,,,,,,,,,,,"30.01","64","74","0.00",,,,"71","30.01","FEW:02 260","29.70","10.00","68","000",,"0",,,,,,,,,,,,,,,,,,,,,,,,,,,,,,,,,,,,,"MET09306/06/21 20:51:01 METAR KALB 070151Z 00000KT 10SM FEW260 23/18 A3001 RMK AO2 SLP161 T02330178","FM-15","7",,,,,,,,,,,,,,,,,,,,,,,,,,,,"2006-09-08"
"72518014735","2021-06-06T21:51:00","FM-15","7",,,,,"PRECIP","260",,"PLASTIC","42.6918","-73.83109","NWS ALBANY, NY",,,,,,,,,,,,,,,,,,,,,,,,,,,"30.02","62","74","0.00",,"-0.05","1","67","30.01","CLR:00","29.70","10.00","67","170",,"3",,,,,,,,,,,,,,,,,,,,,,,,,,,,,,,,,,,,,"MET09606/06/21 21:51:01 METAR KALB 070251Z 17003KT 10SM CLR 23/17 A3002 RMK AO2 SLP164 T02330167 51017","FM-15","7",,,,,,,,,,,,,,,,,,,,,,,,,,,,"2006-09-08"
"72518014735","2021-06-06T22:00:00","FM-12","4",,,,,"PRECIP","260",,"PLASTIC","42.6918","-73.83109","NWS ALBANY, NY",,,,,,,,,,,,,,,,,,,,,,,,,,,,"62","74",,,"-0.05","1","67","30.01",,"29.70","9.94","67","170",,"3",,,,,,,,,,,,,,,,,,,,,,,,,,,,,,,,,,,,,"SYN06472518 32966 01703 10233 20167 30059 40164 51017 90251 555 90703=","FM-12","4",,,,,,,,,,,,,,,,,,,,,,,,,,,,"2006-09-08"
"72518014735","2021-06-06T22:51:00","FM-15","7",,,,,"PRECIP","260",,"PLASTIC","42.6918","-73.83109","NWS ALBANY, NY",,,,,,,,,,,,,,,,,,,,,,,,,,,"30.03","62","74","0.00",,,,"67","30.02","CLR:00","29.71","10.00","67","160",,"3",,,,,,,,,,,,,,,,,,,,,,,,,,,,,,,,,,,,,"MET09006/06/21 22:51:02 METAR KALB 070351Z 16003KT 10SM CLR 23/17 A3003 RMK AO2 SLP167 T02330167","FM-15","7",,,,,,,,,,,,,,,,,,,,,,,,,,,,"2006-09-08"
"72518014735","2021-06-06T23:51:00","FM-15","7",,,,,"PRECIP","260",,"PLASTIC","42.6918","-73.83109","NWS ALBANY, NY",,,,,,,,,,,,,,,,,,,,,,,,,,,"30.03","62","68","0.00",,,,"81","30.03","CLR:00","29.71","10.00","64","180",,"3",,,,,,,,,,,,,,,,,,,,,,,,,,,,,,,,,,,,,"MET10006/06/21 23:51:02 METAR KALB 070451Z 18003KT 10SM CLR 20/17 A3003 RMK AO2 SLP169 T02000167 403110156","FM-15","7",,,,,,,,,,,,,,,,,,,,,,,,,,,,"2006-09-08"
"72518014735","2021-06-06T23:59:00","SOD  ","6",,,,,"PRECIP","260",,"PLASTIC","42.6918","-73.83109","NWS ALBANY, NY",,,,,"74",,,"29.67",,"5.1","9","9.7","0","88","60","230","22","0.00","0","0.0","220","16",,,,,,,,,,,,,,,,,,,,,,,,,,,,,,,,,,,,,,,,,,,,,,,,,,,,,,,,,"SOD73924 HR PRECIPITATION (IN): 0.00 SNOW DEPTH (IN):0     24 HR SNOWFALL (IN):0.0  24 HR MAX TEMP (F): 8824 HR MIN TEMP (F): 60AVERAGE STATION PRESSURE:29.665 MINIMUM SEA LEVEL PRESSURE:29.94 TIME OF OCCURRENCE:0112 PEAK WIND SPEED (MPH): 22 PEAK WIND DIR (DEG):230 PEAK WIND TIME (LST):      FASTEST 2MIN SPEED (MPH): 16FASTEST 2MIN DIR (DEG):220 FASTEST 2MIN TIME (LST):     AVERAGE WIND SPEED (MPH): 5.1 24 HR AVG TEMP (F): 74DEPART FROM NORMAL:  8  HEATING DEGREE DAYS:  0 COOLING DEGREE DAYS:  9 LATEST DAY MAX TEMP (0700-1900 LST):88  LATEST NIGHT MIN TEMP(1900-0800 LST):60 HOURLY INCREMENTAL PRECIPITATION VALUES (IN):.00 0.00 0.00 0.00 0.00 0.00 0.00 0.00 0.00 0.00 0.00 0.00 0.00 0.00 0.00 0.00 0.00 0.00 0.00 0.00 0.00 0.00 0.00 0.00","SOD  ","6",,,,,,,,,,,,,,,,,,,,,,,,,"0418","1930",,"2006-09-08"
"72518014735","2021-06-07T00:51:00","FM-15","7",,,,,"PRECIP","260",,"PLASTIC","42.6918","-73.83109","NWS ALBANY, NY",,,,,,,,,,,,,,,,,,,,,,,,,,,"30.03","63","68","0.00",,"-0.01","0","84","30.02","CLR:00","29.71","10.00","65","000",,"0",,,,,,,,,,,,,,,,,,,,,,,,,,,,,,,,,,,,,"MET11306/07/21 00:51:02 METAR KALB 070551Z 00000KT 10SM CLR 20/17 A3003 RMK AO2 SLP167 T02000172 10278 20194 50004 (BA)","FM-15","7",,,,,,,,,,,,,,,,,,,,,,,,,,,,"2006-09-08"
"72518014735","2021-06-07T01:00:00","FM-12","4",,,,,"PRECIP","260",,"PLASTIC","42.6918","-73.83109","NWS ALBANY, NY",,,,,,,,,,,,,,,,,,,,,,,,,,,,"63","68",,,"0.01","9","84","30.02",,"29.71","9.94","65","000",,"0",,,,,,,,,,,,,,,,,,,,,,,,,,,,,,,,,,,,,"SYN08072518 32966 00000 10200 20172 30062 40167 50004 90551 333 10278 20156 555 90706=","FM-12","4",,,,,,,,,,,,,,,,,,,,,,,,,,,,"2006-09-08"
"72518014735","2021-06-07T01:51:00","FM-15","7",,,,,"PRECIP","260",,"PLASTIC","42.6918","-73.83109","NWS ALBANY, NY",,,,,,,,,,,,,,,,,,,,,,,,,,,"30.03","62","68","0.00",,,,"81","30.02","CLR:00","29.71","10.00","64","160",,"5",,,,,,,,,,,,,,,,,,,,,,,,,,,,,,,,,,,,,"MET09506/07/21 01:51:02 METAR KALB 070651Z 16004KT 10SM CLR 20/17 A3003 RMK AO2 SLP167 T02000167 (BA)","FM-15","7",,,,,,,,,,,,,,,,,,,,,,,,,,,,"2006-09-08"
"72518014735","2021-06-07T02:51:00","FM-15","7",,,,,"PRECIP","260",,"PLASTIC","42.6918","-73.83109","NWS ALBANY, NY",,,,,,,,,,,,,,,,,,,,,,,,,,,"30.03","62","63","0.00",,,,"97","30.02","CLR:00","29.71","10.00","62","000",,"0",,,,,,,,,,,,,,,,,,,,,,,,,,,,,,,,,,,,,"MET09506/07/21 02:51:02 METAR KALB 070751Z 00000KT 10SM CLR 17/17 A3003 RMK AO2 SLP166 T01720167 (BA)","FM-15","7",,,,,,,,,,,,,,,,,,,,,,,,,,,,"2006-09-08"
"72518014735","2021-06-07T03:51:00","FM-15","7",,,,,"PRECIP","260",,"PLASTIC","42.6918","-73.83109","NWS ALBANY, NY",,,,,,,,,,,,,,,,,,,,,,,,,,,"30.04","62","63","0.00",,"-0.01","3","97","30.03","CLR:00","29.72","10.00","62","000",,"0",,,,,,,,,,,,,,,,,,,,,,,,,,,,,,,,,,,,,"MET10106/07/21 03:51:02 METAR KALB 070851Z 00000KT 10SM CLR 17/17 A3004 RMK AO2 SLP170 T01720167 53002 (BA)","FM-15","7",,,,,,,,,,,,,,,,,,,,,,,,,,,,"2006-09-08"
"72518014735","2021-06-07T04:00:00","FM-12","4",,,,,"PRECIP","260",,"PLASTIC","42.6918","-73.83109","NWS ALBANY, NY",,,,,,,,,,,,,,,,,,,,,,,,,,,,"62","63",,,"-0.01","3","97","30.03",,"29.72","9.94","62","000",,"0",,,,,,,,,,,,,,,,,,,,,,,,,,,,,,,,,,,,,"SYN06472518 32966 00000 10172 20167 30065 40170 53002 90851 555 90709=","FM-12","4",,,,,,,,,,,,,,,,,,,,,,,,,,,,"2006-09-08"
"72518014735","2021-06-07T04:51:00","FM-15","7",,,,,"PRECIP","260",,"PLASTIC","42.6918","-73.83109","NWS ALBANY, NY",,,,,,,,,,,,,,,,,,,,,,,,,,,"30.05","62","63","0.00",,,,"97","30.04","FEW:02 90","29.73","10.00","62","000",,"0",,,,,,,,,,,,,,,,,,,,,,,,,,,,,,,,,,,,,"MET09806/07/21 04:51:02 METAR KALB 070951Z 00000KT 10SM FEW090 17/17 A3005 RMK AO2 SLP173 T01720167 (BA)","FM-15","7",,,,,,,,,,,,,,,,,,,,,,,,,,,,"2006-09-08"
"72518014735","2021-06-07T05:51:00","FM-15","7",,,,,"PRECIP","260",,"PLASTIC","42.6918","-73.83109","NWS ALBANY, NY",,,,,,,,,,,,,,,,,,,,,,,,,,,"30.06","64","67","0.00",,,,"91","30.05","FEW:02 90","29.75","10.00","65","000",,"0",,,,,,,,,,,,,,,,,,,,,,,,,,,,,,,,,,,,,"MET09806/07/21 05:51:02 METAR KALB 071051Z 00000KT 10SM FEW090 19/18 A3006 RMK AO2 SLP177 T01940178 (BA)","FM-15","7",,,,,,,,,,,,,,,,,,,,,,,,,,,,"2006-09-08"
"72518014735","2021-06-07T06:51:00","FM-15","7",,,,,"PRECIP","260",,"PLASTIC","42.6918","-73.83109","NWS ALBANY, NY",,,,,,,,,,,,,,,,,,,,,,,,,,,"30.07","65","72","0.00",,"-0.03","3","79","30.06","FEW:02 90","29.75","10.00","68","150",,"3",,,,,,,,,,,,,,,,,,,,,,,,,,,,,,,,,,,,,"MET11606/07/21 06:51:02 METAR KALB 071151Z 15003KT 10SM FEW090 22/18 A3007 RMK AO2 SLP180 T02220183 10222 20161 53011 (CL)","FM-15","7",,,,,,,,,,,,,,,,,,,,,,,,,,,,"2006-09-08"
"72518014735","2021-06-07T07:00:00","FM-12","4",,,,,"PRECIP","260",,"PLASTIC","42.6918","-73.83109","NWS ALBANY, NY",,,,,,,,,,,,,,,,,,,,,,,,,,,,"65","72",,,"-0.03","3","79","30.06",,"29.75","9.94","68","150",,"3",,,,,,,,,,,,,,,,,,,,,,,,,,,,,,,,,,,,,"SYN08072518 32966 21503 10222 20183 30075 40180 53011 91151 333 10311 20161 555 90712=","FM-12","4",,,,,,,,,,,,,,,,,,,,,,,,,,,,"2006-09-08"
"72518014735","2021-06-07T07:51:00","FM-15","7",,,,,"PRECIP","260",,"PLASTIC","42.6918","-73.83109","NWS ALBANY, NY",,,,,,,,,,,,,,,,,,,,,,,,,,,"30.07","65","75","0.00",,,,"71","30.07","FEW:02 90 FEW:02 170","29.75","10.00","69","160",,"5",,,,,,,,,,,,,,,,,,,,,,,,,,,,,,,,,,,,,"MET10506/07/21 07:51:02 METAR KALB 071251Z 16004KT 10SM FEW090 FEW170 24/18 A3007 RMK AO2 SLP183 T02390183 (CL)","FM-15","7",,,,,,,,,,,,,,,,,,,,,,,,,,,,"2006-09-08"
"72518014735","2021-06-07T08:51:00","FM-15","7",,,,,"PRECIP","260",,"PLASTIC","42.6918","-73.83109","NWS ALBANY, NY",,,,,,,,,,,,,,,,,,,,,,,,,,,"30.08","65","78","0.00",,,,"64","30.07","SCT:04 90","29.76","10.00","70","VRB",,"3",,,,,,,,,,,,,,,,,,,,,,,,,,,,,,,,,,,,,"MET09806/07/21 08:51:02 METAR KALB 071351Z VRB03KT 10SM SCT090 26/18 A3008 RMK AO2 SLP183 T02560183 (CL)","FM-15","7",,,,,,,,,,,,,,,,,,,,,,,,,,,,"2006-09-08"
"72518014735","2021-06-07T09:51:00","FM-15","7",,,,,"PRECIP","260",,"PLASTIC","42.6918","-73.83109","NWS ALBANY, NY",,,,,,,,,,,,,,,,,,,,,,,,,,,"30.07","65","81","0.00",,"-0.00","0","58","30.06","SCT:04 85","29.75","10.00","71","VRB",,"5",,,,,,,,,,,,,,,,,,,,,,,,,,,,,,,,,,,,,"MET10406/07/21 09:51:02 METAR KALB 071451Z VRB04KT 10SM SCT085 27/18 A3007 RMK AO2 SLP180 T02720183 50000 (CL)","FM-15","7",,,,,,,,,,,,,,,,,,,,,,,,,,,,"2006-09-08"
"72518014735","2021-06-07T10:00:00","FM-12","4",,,,,"PRECIP","260",,"PLASTIC","42.6918","-73.83109","NWS ALBANY, NY",,,,,,,,,,,,,,,,,,,,,,,,,,,,"65","81",,,"0.00","9","58","30.06",,"29.75","9.94","71",,,"5",,,,,,,,,,,,,,,,,,,,,,,,,,,,,,,,,,,,,"SYN06472518 32966 4//04 10272 20183 30075 40180 50000 91451 555 90715=","FM-12","4",,,,,,,,,,,,,,,,,,,,,,,,,,,,"2006-09-08"
"72518014735","2021-06-07T10:51:00","FM-15","7",,,,,"PRECIP","260",,"PLASTIC","42.6918","-73.83109","NWS ALBANY, NY",,,,,,,,,,,,,,,,,,,,,,,,,,,"30.05","63","85","0.00",,,,"48","30.05","SCT:04 70 SCT:04 95","29.73","10.00","71","250","16","8",,,,,,,,,,,,,,,,,,,,,,,,,,,,,,,,,,,,,"MET10806/07/21 10:51:02 METAR KALB 071551Z 25007G14KT 10SM SCT070 SCT095 29/17 A3005 RMK AO2 SLP175 T02940172 (CL)","FM-15","7",,,,,,,,,,,,,,,,,,,,,,,,,,,,"2006-09-08"
"72518014735","2021-06-07T11:51:00","FM-15","7",,,,,"PRECIP","260",,"PLASTIC","42.6918","-73.83109","NWS ALBANY, NY",,,,,,,,,,,,,,,,,,,,,,,,,,,"30.04","62","87","0.00",,,,"43","30.03","SCT:04 65","29.72","10.00","71","240",,"10",,,,,,,,,,,,,,,,,,,,,,,,,,,,,,,,,,,,,"MET09806/07/21 11:51:02 METAR KALB 071651Z 24009KT 10SM SCT065 31/17 A3004 RMK AO2 SLP171 T03060167 (CL)","FM-15","7",,,,,,,,,,,,,,,,,,,,,,,,,,,,"2006-09-08"
"72518014735","2021-06-07T12:51:00","FM-15","7",,,,,"PRECIP","260",,"PLASTIC","42.6918","-73.83109","NWS ALBANY, NY",,,,,,,,,,,,,,,,,,,,,,,,,,,"30.03","61","89","0.00",,"+0.04","7","39","30.02","BKN:07 70","29.71","10.00","71","270","16","8",,,,,,,,,,,,,,,,,,,,,,,,,,,,,,,,,,,,,"MET11906/07/21 12:51:02 METAR KALB 071751Z 27007G14KT 10SM BKN070 32/16 A3003 RMK AO2 SLP166 T03170161 10317 20217 57014 (CL)","FM-15","7",,,,,,,,,,,,,,,,,,,,,,,,,,,,"2006-09-08"
"72518014735","2021-06-07T13:00:00","FM-12","4",,,,,"PRECIP","260",,"PLASTIC","42.6918","-73.83109","NWS ALBANY, NY",,,,,,,,,,,,,,,,,,,,,,,,,,,,"61","89",,,"+0.04","7","39","30.02","74","29.71","9.94","71","270",,"8",,,,,,,,,,,,,,,,,,,,,,,,,,,,,,,,,,,,,"SYN08672518 32866 62707 10317 20161 30062 40166 57014 91751 333 10317 20217 91014 555 90718=","FM-12","4",,,,,,,,,,,,,,,,,,,,,,,,,,,,"2006-09-08"
"72518014735","2021-06-07T13:51:00","FM-15","7",,,,,"PRECIP","260",,"PLASTIC","42.6918","-73.83109","NWS ALBANY, NY",,,,,,,,,,,,,,,,,,,,,,,,,,,"30.01","62","90","0.00",,,,"39","30.01","SCT:04 60 SCT:04 75","29.70","10.00","72","280",,"8",,,,,,,,,,,,,,,,,,,,,,,,,,,,,,,,,,,,,"MET10506/07/21 13:51:02 METAR KALB 071851Z 28007KT 10SM SCT060 SCT075 32/17 A3001 RMK AO2 SLP161 T03220167 (CL)","FM-15","7",,,,,,,,,,,,,,,,,,,,,,,,,,,,"2006-09-08"
"72518014735","2021-06-07T14:51:00","FM-15","7",,,,,"PRECIP","260",,"PLASTIC","42.6918","-73.83109","NWS ALBANY, NY",,,,,,,,,,,,,,,,,,,,,,,,,,,"30.00","63","88","0.00",,,,"43","29.99","FEW:02 85 BKN:07 140 BKN:07 250","29.68","10.00","72","260",,"8",,,,,,,,,,,,,,,,,,,,,,,,,,,,,,,,,,,,,"MET11306/07/21 14:51:02 METAR KALB 071951Z 26007KT 10SM FEW085 BKN140 BKN250 31/17 A3000 RMK AO2 SLP156 T03110172 (MAK)","FM-15","7",,,,,,,,,,,,,,,,,,,,,,,,,,,,"2006-09-08"
"72518014735","2021-06-07T15:51:00","FM-15","7",,,,,"PRECIP","260",,"PLASTIC","42.6918","-73.83109","NWS ALBANY, NY",,,,,,,,,,,,,,,,,,,,,,,,,,,"29.98","63","89","0.00",,"+0.05","8","42","29.97","FEW:02 95 BKN:07 140","29.67","10.00","72","190",,"7",,,,,,,,,,,,,,,,,,,,,,,,,,,,,,,,,,,,,"MET11206/07/21 15:51:02 METAR KALB 072051Z 19006KT 10SM FEW095 BKN140 32/17 A2998 RMK AO2 SLP150 T03170172 58016 (MAK)","FM-15","7",,,,,,,,,,,,,,,,,,,,,,,,,,,,"2006-09-08"
"72518014735","2021-06-07T16:00:00","FM-12","4",,,,,"PRECIP","260",,"PLASTIC","42.6918","-73.83109","NWS ALBANY, NY",,,,,,,,,,,,,,,,,,,,,,,,,,,,"63","89",,,"+0.05","8","42","29.97",,"29.66","9.94","72","190",,"7",,,,,,,,,,,,,,,,,,,,,,,,,,,,,,,,,,,,,"SYN06472518 32966 61906 10317 20172 30045 40150 58016 92051 555 90721=","FM-12","4",,,,,,,,,,,,,,,,,,,,,,,,,,,,"2006-09-08"
"72518014735","2021-06-07T16:51:00","FM-15","7",,,,,"PRECIP","260",,"PLASTIC","42.6918","-73.83109","NWS ALBANY, NY",,,,,,,,,,,,,,,,,,,,,,,,,,,"29.98","64","87","0.00",,,,"46","29.97","FEW:02 75 SCT:04 110 BKN:07 140","29.67","10.00","72","190",,"10",,,,,,,,,,,,,,,,,,,,,,,,,,,,,,,,,,,,,"MET11306/07/21 16:51:02 METAR KALB 072151Z 19009KT 10SM FEW075 SCT110 BKN140 31/18 A2998 RMK AO2 SLP149 T03060178 (MAK)","FM-15","7",,,,,,,,,,,,,,,,,,,,,,,,,,,,"2006-09-08"
"72518014735","2021-06-07T17:51:00","FM-15","7",,,,,"PRECIP","260",,"PLASTIC","42.6918","-73.83109","NWS ALBANY, NY",,,,,,,,,,,,,,,,,,,,,,,,,,,"29.98","65","83","0.00",,,,"55","29.98","FEW:02 85 BKN:07 100 BKN:07 200","29.67","10.00","71","200",,"7",,,,,,,,,,,,,,,,,,,,,,,,,,,,,,,,,,,,,"MET11306/07/21 17:51:02 METAR KALB 072251Z 20006KT 10SM FEW085 BKN100 BKN200 28/18 A2998 RMK AO2 SLP151 T02830183 (MAK)","FM-15","7",,,,,,,,,,,,,,,,,,,,,,,,,,,,"2006-09-08"
"72518014735","2021-06-07T18:51:00","FM-15","7",,,,,"PRECIP","260",,"PLASTIC","42.6918","-73.83109","NWS ALBANY, NY",,,,,,,,,,,,,,,,,,,,,,,,,,,"29.98","67","82","0.00",,"+0.00","8","60","29.97","FEW:02 85 BKN:07 100 BKN:07 150","29.67","10.00","72","190",,"5",,,,,,,,,,,,,,,,,,,,,,,,,,,,,,,,,,,,,"MET13106/07/21 18:51:02 METAR KALB 072351Z 19004KT 10SM FEW085 BKN100 BKN150 28/19 A2998 RMK AO2 SLP150 T02780194 10322 20278 58000 (MAK)","FM-15","7",,,,,,,,,,,,,,,,,,,,,,,,,,,,"2006-09-08"
"72518014735","2021-06-07T19:00:00","FM-12","4",,,,,"PRECIP","260",,"PLASTIC","42.6918","-73.83109","NWS ALBANY, NY",,,,,,,,,,,,,,,,,,,,,,,,,,,,"67","82",,,"0.00","4","60","29.97",,"29.66","9.94","72","190",,"5",,,,,,,,,,,,,,,,,,,,,,,,,,,,,,,,,,,,,"SYN08072518 32966 61904 10278 20194 30045 40150 58000 92351 333 10322 20161 555 90800=","FM-12","4",,,,,,,,,,,,,,,,,,,,,,,,,,,,"2006-09-08"
"72518014735","2021-06-07T19:51:00","FM-15","7",,,,,"PRECIP","260",,"PLASTIC","42.6918","-73.83109","NWS ALBANY, NY",,,,,,,,,,,,,,,,,,,,,,,,,,,"29.98","67","79","0.00",,,,"67","29.97","FEW:02 85 SCT:04 100 BKN:07 160","29.67","10.00","71","200",,"6",,,,,,,,,,,,,,,,,,,,,,,,,,,,,,,,,,,,,"MET10706/07/21 19:51:01 METAR KALB 080051Z 20005KT 10SM FEW085 SCT100 BKN160 26/19 A2998 RMK AO2 SLP150 T02610194","FM-15","7",,,,,,,,,,,,,,,,,,,,,,,,,,,,"2006-09-08"
"72518014735","2021-06-07T20:51:00","FM-15","7",,,,,"PRECIP","260",,"PLASTIC","42.6918","-73.83109","NWS ALBANY, NY",,,,,,,,,,,,,,,,,,,,,,,,,,,"30.00","67","77","0.00",,,,"71","29.99","FEW:02 100 SCT:04 160 BKN:07 250","29.68","10.00","70","170",,"6",,,,,,,,,,,,,,,,,,,,,,,,,,,,,,,,,,,,,"MET10706/07/21 20:51:01 METAR KALB 080151Z 17005KT 10SM FEW100 SCT160 BKN250 25/19 A3000 RMK AO2 SLP156 T02500194","FM-15","7",,,,,,,,,,,,,,,,,,,,,,,,,,,,"2006-09-08"
"72518014735","2021-06-07T21:51:00","FM-15","7",,,,,"PRECIP","260",,"PLASTIC","42.6918","-73.83109","NWS ALBANY, NY",,,,,,,,,,,,,,,,,,,,,,,,,,,"30.01","69","77","0.00",,"-0.03","3","77","30.00","FEW:02 160 BKN:07 250","29.70","10.00","72","170",,"6",,,,,,,,,,,,,,,,,,,,,,,,,,,,,,,,,,,,,"MET10606/07/21 21:51:02 METAR KALB 080251Z 17005KT 10SM FEW160 BKN250 25/21 A3001 RMK AO2 SLP158 T02500206 53009","FM-15","7",,,,,,,,,,,,,,,,,,,,,,,,,,,,"2006-09-08"
"72518014735","2021-06-07T22:00:00","FM-12","4",,,,,"PRECIP","260",,"PLASTIC","42.6918","-73.83109","NWS ALBANY, NY",,,,,,,,,,,,,,,,,,,,,,,,,,,,"69","77",,,"-0.03","3","77","30.00",,"29.69","9.94","72","170",,"6",,,,,,,,,,,,,,,,,,,,,,,,,,,,,,,,,,,,,"SYN06472518 32966 61705 10250 20206 30055 40158 53009 90251 555 90803=","FM-12","4",,,,,,,,,,,,,,,,,,,,,,,,,,,,"2006-09-08"
"72518014735","2021-06-07T22:51:00","FM-15","7",,,,,"PRECIP","260",,"PLASTIC","42.6918","-73.83109","NWS ALBANY, NY",,,,,,,,,,,,,,,,,,,,,,,,,,,"30.01","68","75","0.00",,,,"79","30.00","BKN:07 250","29.70","10.00","70","150",,"8",,,,,,,,,,,,,,,,,,,,,,,,,,,,,,,,,,,,,"MET09306/07/21 22:51:02 METAR KALB 080351Z 15007KT 10SM BKN250 24/20 A3001 RMK AO2 SLP160 T02390200","FM-15","7",,,,,,,,,,,,,,,,,,,,,,,,,,,,"2006-09-08"
"72518014735","2021-06-07T23:51:00","FM-15","7",,,,,"PRECIP","260",,"PLASTIC","42.6918","-73.83109","NWS ALBANY, NY",,,,,,,,,,,,,,,,,,,,,,,,,,,"30.02","68","74","0.00",,,,"82","30.01","BKN:07 250","29.70","10.00","70","160",,"8",,,,,,,,,,,,,,,,,,,,,,,,,,,,,,,,,,,,,"MET10306/07/21 23:51:02 METAR KALB 080451Z 16007KT 10SM BKN250 23/20 A3002 RMK AO2 SLP162 T02330200 403220161","FM-15","7",,,,,,,,,,,,,,,,,,,,,,,,,,,,"2006-09-08"
"72518014735","2021-06-07T23:59:00","SOD  ","6",,,,,"PRECIP","260",,"PLASTIC","42.6918","-73.83109","NWS ALBANY, NY",,,,,"76",,,"29.70",,"5.2","11","11.4","0","90","61","250","19","0.00","0","0.0","220","14",,,,,,,,,,,,,,,,,,,,,,,,,,,,,,,,,,,,,,,,,,,,,,,,,,,,,,,,,"SOD73924 HR PRECIPITATION (IN): 0.00 SNOW DEPTH (IN):0     24 HR SNOWFALL (IN):0.0  24 HR MAX TEMP (F): 9024 HR MIN TEMP (F): 61AVERAGE STATION PRESSURE:29.705 MINIMUM SEA LEVEL PRESSURE:29.97 TIME OF OCCURRENCE:2000 PEAK WIND SPEED (MPH): 19 PEAK WIND DIR (DEG):250 PEAK WIND TIME (LST):      FASTEST 2MIN SPEED (MPH): 14FASTEST 2MIN DIR (DEG):220 FASTEST 2MIN TIME (LST):     AVERAGE WIND SPEED (MPH): 5.2 24 HR AVG TEMP (F): 76DEPART FROM NORMAL: 10  HEATING DEGREE DAYS:  0 COOLING DEGREE DAYS: 11 LATEST DAY MAX TEMP (0700-1900 LST):90  LATEST NIGHT MIN TEMP(1900-0800 LST):61 HOURLY INCREMENTAL PRECIPITATION VALUES (IN):.00 0.00 0.00 0.00 0.00 0.00 0.00 0.00 0.00 0.00 0.00 0.00 0.00 0.00 0.00 0.00 0.00 0.00 0.00 0.00 0.00 0.00 0.00 0.00","SOD  ","6",,,,,,,,,,,,,,,,,,,,,,,,,"0417","1931",,"2006-09-08"
"72518014735","2021-06-08T00:51:00","FM-15","7",,,,,"PRECIP","260",,"PLASTIC","42.6918","-73.83109","NWS ALBANY, NY",,,,,,,,,,,,,,,,,,,,,,,,,,,"30.02","68","73","0.00",,"-0.01","3","84","30.01","FEW:02 160 BKN:07 250","29.70","10.00","70","170",,"6",,,,,,,,,,,,,,,,,,,,,,,,,,,,,,,,,,,,,"MET12306/08/21 00:51:02 METAR KALB 080551Z 17005KT 10SM FEW160 BKN250 23/20 A3002 RMK AO2 SLP164 T02280200 10278 20228 53005 (BA)","FM-15","7",,,,,,,,,,,,,,,,,,,,,,,,,,,,"2006-09-08"
"72518014735","2021-06-08T01:00:00","FM-12","4",,,,,"PRECIP","260",,"PLASTIC","42.6918","-73.83109","NWS ALBANY, NY",,,,,,,,,,,,,,,,,,,,,,,,,,,,"68","73",,,"-0.01","3","84","30.01",,"29.70","9.94","70","170",,"6",,,,,,,,,,,,,,,,,,,,,,,,,,,,,,,,,,,,,"SYN08072518 32966 61705 10228 20200 30059 40164 53005 90551 333 10278 20161 555 90806=","FM-12","4",,,,,,,,,,,,,,,,,,,,,,,,,,,,"2006-09-08"
"72518014735","2021-06-08T01:51:00","FM-15","7",,,,,"PRECIP","260",,"PLASTIC","42.6918","-73.83109","NWS ALBANY, NY",,,,,,,,,,,,,,,,,,,,,,,,,,,"30.03","69","73","0.00",,,,"87","30.02","FEW:02 120 BKN:07 250","29.71","10.00","70","000",,"0",,,,,,,,,,,,,,,,,,,,,,,,,,,,,,,,,,,,,"MET10506/08/21 01:51:02 METAR KALB 080651Z 00000KT 10SM FEW120 BKN250 23/21 A3003 RMK AO2 SLP166 T02280206 (BA)","FM-15","7",,,,,,,,,,,,,,,,,,,,,,,,,,,,"2006-09-08"
"72518014735","2021-06-08T02:51:00","FM-15","7",,,,,"PRECIP","260",,"PLASTIC","42.6918","-73.83109","NWS ALBANY, NY",,,,,,,,,,,,,,,,,,,,,,,,,,,"30.02","69","72","0.00",,,,"91","30.01","BKN:07 210","29.70","10.00","70","000",,"0",,,,,,,,,,,,,,,,,,,,,,,,,,,,,,,,,,,,,"MET09806/08/21 02:51:02 METAR KALB 080751Z 00000KT 10SM BKN210 22/21 A3002 RMK AO2 SLP164 T02220206 (BA)","FM-15","7",,,,,,,,,,,,,,,,,,,,,,,,,,,,"2006-09-08"
"72518014735","2021-06-08T03:51:00","FM-15","7",,,,,"PRECIP","260",,"PLASTIC","42.6918","-73.83109","NWS ALBANY, NY",,,,,,,,,,,,,,,,,,,,,,,,,,,"30.03","69","72","0.00",,"-0.01","1","91","30.02","BKN:07 110 OVC:08 200","29.71","10.00","70","000",,"0",,,,,,,,,,,,,,,,,,,,,,,,,,,,,,,,,,,,,"MET11106/08/21 03:51:02 METAR KALB 080851Z 00000KT 10SM BKN110 OVC200 22/21 A3003 RMK AO2 SLP166 T02220206 51003 (BA)","FM-15","7",,,,,,,,,,,,,,,,,,,,,,,,,,,,"2006-09-08"
"72518014735","2021-06-08T04:00:00","FM-12","4",,,,,"PRECIP","260",,"PLASTIC","42.6918","-73.83109","NWS ALBANY, NY",,,,,,,,,,,,,,,,,,,,,,,,,,,,"69","72",,,"-0.01","1","91","30.02",,"29.71","9.94","70","000",,"0",,,,,,,,,,,,,,,,,,,,,,,,,,,,,,,,,,,,,"SYN06472518 32966 80000 10222 20206 30062 40166 51003 90851 555 90809=","FM-12","4",,,,,,,,,,,,,,,,,,,,,,,,,,,,"2006-09-08"
"72518014735","2021-06-08T04:51:00","FM-15","7",,,,,"PRECIP","260",,"PLASTIC","42.6918","-73.83109","NWS ALBANY, NY",,,,,,,,,,,,,,,,,,,,,,,,,,,"30.04","70","71","0.00",,,,"96","30.03","FEW:02 70 SCT:04 110 OVC:08 200","29.72","10.00","70","160",,"3",,,,,,,,,,,,,,,,,,,,,,,,,,,,,,,,,,,,,"MET11206/08/21 04:51:02 METAR KALB 080951Z 16003KT 10SM FEW070 SCT110 OVC200 22/21 A3004 RMK AO2 SLP169 T02170211 (BA)","FM-15","7",,,,,,,,,,,,,,,,,,,,,,,,,,,,"2006-09-08"
"72518014735","2021-06-08T05:51:00","FM-15","7",,,,,"PRECIP","260",,"PLASTIC","42.6918","-73.83109","NWS ALBANY, NY",,,,,,,,,,,,,,,,,,,,,,,,,,,"30.04","70","73","0.00",,,,"90","30.03","SCT:04 110 BKN:07 130 BKN:07 200","29.72","10.00","71","170",,"7",,,,,,,,,,,,,,,,,,,,,,,,,,,,,,,,,,,,,"MET11206/08/21 05:51:02 METAR KALB 081051Z 17006KT 10SM SCT110 BKN130 BKN200 23/21 A3004 RMK AO2 SLP170 T02280211 (JB)","FM-15","7",,,,,,,,,,,,,,,,,,,,,,,,,,,,"2006-09-08"
"72518014735","2021-06-08T06:51:00","FM-15","7",,,,,"PRECIP","260",,"PLASTIC","42.6918","-73.83109","NWS ALBANY, NY",,,,,,,,,,,,,,,,,,,,,,,,,,,"30.05","70","75","0.00",,"-0.02","2","84","30.04","FEW:02 110 SCT:04 130 BKN:07 200","29.73","10.00","72","170",,"5",,,,,,,,,,,,,,,,,,,,,,,,,,,,,,,,,,,,,"MET13006/08/21 06:51:02 METAR KALB 081151Z 17004KT 10SM FEW110 SCT130 BKN200 24/21 A3005 RMK AO2 SLP172 T02390211 10239 20211 52006 (JB)","FM-15","7",,,,,,,,,,,,,,,,,,,,,,,,,,,,"2006-09-08"
"72518014735","2021-06-08T07:00:00","FM-12","4",,,,,"PRECIP","260",,"PLASTIC","42.6918","-73.83109","NWS ALBANY, NY",,,,,,,,,,,,,,,,,,,,,,,,,,,,"70","75",,,"-0.02","2","84","30.04",,"29.73","9.94","72","170",,"5",,,,,,,,,,,,,,,,,,,,,,,,,,,,,,,,,,,,,"SYN08072518 32966 61704 10239 20211 30069 40172 52006 91151 333 10322 20211 555 90812=","FM-12","4",,,,,,,,,,,,,,,,,,,,,,,,,,,,"2006-09-08"
"72518014735","2021-06-08T07:51:00","FM-15","7",,,,,"PRECIP","260",,"PLASTIC","42.6918","-73.83109","NWS ALBANY, NY",,,,,,,,,,,,,,,,,,,,,,,,,,,"30.05","71","78","0.00",,,,"79","30.04","FEW:02 130 SCT:04 200 BKN:07 250","29.73","10.00","73","180",,"5",,,,,,,,,,,,,,,,,,,,,,,,,,,,,,,,,,,,,"MET11206/08/21 07:51:02 METAR KALB 081251Z 18004KT 10SM FEW130 SCT200 BKN250 26/22 A3005 RMK AO2 SLP173 T02560217 (JB)","FM-15","7",,,,,,,,,,,,,,,,,,,,,,,,,,,,"2006-09-08"
"72518014735","2021-06-08T08:51:00","FM-15","7",,,,,"PRECIP","260",,"PLASTIC","42.6918","-73.83109","NWS ALBANY, NY",,,,,,,,,,,,,,,,,,,,,,,,,,,"30.05","71","80","0.00",,,,"74","30.04","FEW:02 30 SCT:04 55 BKN:07 200","29.73","10.00","74","000",,"0",,,,,,,,,,,,,,,,,,,,,,,,,,,,,,,,,,,,,"MET11206/08/21 08:51:02 METAR KALB 081351Z 00000KT 10SM FEW030 SCT055 BKN200 27/22 A3005 RMK AO2 SLP173 T02670217 (JB)","FM-15","7",,,,,,,,,,,,,,,,,,,,,,,,,,,,"2006-09-08"
"72518014735","2021-06-08T09:51:00","FM-15","7",,,,,"PRECIP","260",,"PLASTIC","42.6918","-73.83109","NWS ALBANY, NY",,,,,,,,,,,,,,,,,,,,,,,,,,,"30.04","70","82","0.00",,"+0.00","8","67","30.03","FEW:02 40 SCT:04 60 SCT:04 200","29.72","10.00","74","000",,"0",,,,,,,,,,,,,,,,,,,,,,,,,,,,,,,,,,,,,"MET11806/08/21 09:51:02 METAR KALB 081451Z 00000KT 10SM FEW040 SCT060 SCT200 28/21 A3004 RMK AO2 SLP171 T02780211 58001 (JB)","FM-15","7",,,,,,,,,,,,,,,,,,,,,,,,,,,,"2006-09-08"
"72518014735","2021-06-08T10:00:00","FM-12","4",,,,,"PRECIP","260",,"PLASTIC","42.6918","-73.83109","NWS ALBANY, NY",,,,,,,,,,,,,,,,,,,,,,,,,,,,"70","82",,,"+0.00","8","67","30.03","41","29.72","9.94","74","000",,"0",,,,,,,,,,,,,,,,,,,,,,,,,,,,,,,,,,,,,"SYN06472518 32666 60000 10278 20211 30065 40171 58001 91451 555 90815=","FM-12","4",,,,,,,,,,,,,,,,,,,,,,,,,,,,"2006-09-08"
"72518014735","2021-06-08T10:51:00","FM-15","7",,,,,"PRECIP","260",,"PLASTIC","42.6918","-73.83109","NWS ALBANY, NY",,,,,,,,,,,,,,,,,,,,,,,,,,,"30.05","72","79","T","|RA |",,,"79","30.04","FEW:02 34 SCT:04 49 BKN:07 100","29.73","10.00","74","330",,"7",,,,,,,,,,,,,,,,,,,,,,,,,,,,,,,,,,,,,"MET14106/08/21 10:51:02 METAR KALB 081551Z 33006KT 10SM -RA FEW034 SCT049 BKN100 26/22 A3005 RMK AO2 RAB29 SLP173 PCPN VRY LGT P0000 T02610222 (JB)","FM-15","7",,,,,,,,,,,,,,,,,,,,,,,,,,,,"2006-09-08"
"72518014735","2021-06-08T11:51:00","FM-15","7",,,,,"PRECIP","260",,"PLASTIC","42.6918","-73.83109","NWS ALBANY, NY",,,,,,,,,,,,,,,,,,,,,,,,,,,"30.03","71","83","T",,,,"67","30.02","FEW:02 45 SCT:04 100 SCT:04 160","29.71","10.00","75","350",,"7",,,,,,,,,,,,,,,,,,,,,,,,,,,,,,,,,,,,,"MET12406/08/21 11:51:02 METAR KALB 081651Z 35006KT 10SM FEW045 SCT100 SCT160 28/22 A3003 RMK AO2 RAE15 SLP165 P0000 T02830217 (JB)","FM-15","7",,,,,,,,,,,,,,,,,,,,,,,,,,,,"2006-09-08"
"72518014735","2021-06-08T12:51:00","FM-15","7",,,,,"PRECIP","260",,"PLASTIC","42.6918","-73.83109","NWS ALBANY, NY",,,,,,,,,,,,,,,,,,,,,,,,,,,"30.01","69","85","0.00",,"+0.04","8","59","30.00","FEW:02 45 SCT:04 90 SCT:04 160","29.70","10.00","74","020",,"3",,,,,,,,,,,,,,,,,,,,,,,,,,,,,,,,,,,,,"MET13606/08/21 12:51:02 METAR KALB 081751Z 02003KT 10SM FEW045 SCT090 SCT160 29/21 A3001 RMK AO2 SLP159 60000 T02940206 10294 20239 58012 (JB)","FM-15","7",,,,,,,,,,,,,,,,,,,,,,,,,,,,"2006-09-08"
"72518014735","2021-06-08T13:00:00","FM-12","4",,,,,"PRECIP","260",,"PLASTIC","42.6918","-73.83109","NWS ALBANY, NY",,,,,,,,,,,,,,,,,,,,,,,,,,,,"69","85",,,"+0.04","8","59","30.00","41","29.69","9.94","74","020",,"3",,,,,,,,,,,,,,,,,,,,,,,,,,,,,,,,,,,,,"SYN08672518 12666 60203 10294 20206 30055 40159 58012 69901 91751 333 10294 20239 555 90818=","FM-12","4",,,,,,,,,,,,,,,,,,,,,,,,,,,,"2006-09-08"
"72518014735","2021-06-08T13:51:00","FM-15","7",,,,,"PRECIP","260",,"PLASTIC","42.6918","-73.83109","NWS ALBANY, NY",,,,,,,,,,,,,,,,,,,,,,,,,,,"29.99","67","83","0.00",,,,"59","29.98","FEW:02 45 FEW:02 90 SCT:04 190","29.67","10.00","72","000",,"0",,,,,,,,,,,,,,,,,,,,,,,,,,,,,,,,,,,,,"MET16306/08/21 13:51:02 METAR KALB 081851Z 00000KT 10SM FEW045 FEW090 SCT190 28/19 A2999 RMK AO2 LTG DSNT S-W SLP154 OCNL LTGCCCG DSNT SW CB DSNT SW MOV E T02830194 (JB)","FM-15","7",,,,,,,,,,,,,,,,,,,,,,,,,,,,"2006-09-08"
"72518014735","2021-06-08T14:40:00","FM-16","7",,,,,"PRECIP","260",,"PLASTIC","42.6918","-73.83109","NWS ALBANY, NY",,,,,,,,,,,,,,,,,,,,,,,,,,,"29.99","71","78","T","TS:7 -RA:02 |RA TS TS |RA",,,"79",,"SCT:04 55 SCT:04 100 OVC:08 150","29.67","9.00","73","270",,"5",,,,,,,,,,,,,,,,,,,,,,,,,,,,,,,,,,,,,"MET18906/08/21 14:40:02 SPECI KALB 081940Z 27004KT 9SM -TSRA SCT055CB SCT100 OVC150 26/22 A2999 RMK AO2 LTG DSNT S AND SW RAB32 TSB40 OCNL LTGICCG VC SE-SW TS VC SE-SW MOV E P0000 T02560217 (MAK)","FM-16","7",,,,,,,,,,,,,,,,,,,,,,,,,,,,"2006-09-08"
"72518014735","2021-06-08T14:51:00","FM-15","7",,,,,"PRECIP","260",,"PLASTIC","42.6918","-73.83109","NWS ALBANY, NY",,,,,,,,,,,,,,,,,,,,,,,,,,,"30.01","70","76","T","TS:7 -RA:02 |RA TS TS |RA",,,"82","30.00","SCT:04 50 SCT:04 110 OVC:08 150","29.70","10.00","72","230","32","23",,,,,,,,,,,,,,,,,,,,,,,,,,,,,,,,,,,,,"MET21806/08/21 14:51:02 METAR KALB 081951Z 23020G28KT 10SM -TSRA SCT050CB SCT110 OVC150 24/21 A3001 RMK AO2 PK WND 22028/1949 LTG DSNT S AND SW SLP160 RAB32 TSB40 OCNL LTGICCG VC SE-SW TS VC SE-SW MOV E P0000 T02440211 (MAK)","FM-15","7",,,,,,,,,,,,,,,,,,,,,,,,,,,,"2006-09-08"
"72518014735","2021-06-08T15:51:00","FM-15","7",,,,,"PRECIP","260",,"PLASTIC","42.6918","-73.83109","NWS ALBANY, NY",,,,,,,,,,,,,,,,,,,,,,,,,,,"29.99","70","71","0.02s","|TS |RA","+0.02","6","96","29.98","SCT:04 47 BKN:07 95 BKN:07 120","29.67","10.00","70","150",,"3",,,,,,,,,,,,,,,,,,,,,,,,,,,,,,,,,,,,,"MET17406/08/21 15:51:02 METAR KALB 082051Z 15003KT 10SM -TSRA SCT047 BKN095 BKN120 22/21 A2999 RMK AO2 SLP154 OCNL LTCICCG DSNT E TS DSNT E MOV NE P0001 60001 T02170211 56006 (MAK)","FM-15","7",,,,,,,,,,,,,,,,,,,,,,,,,,,,"2006-09-08"
"72518014735","2021-06-08T16:00:00","FM-12","4",,,,,"PRECIP","260",,"PLASTIC","42.6918","-73.83109","NWS ALBANY, NY",,,,,,,,,,,,,,,,,,,,,,,,,,,,"70","71",,,"+0.02","6","96","29.98","41","29.67","9.94","70","150",,"3",,,,,,,,,,,,,,,,,,,,,,,,,,,,,,,,,,,,,"SYN07072518 11666 81503 10217 20211 30049 40154 56006 69937 92051 555 90821=","FM-12","4",,,,,,,,,,,,,,,,,,,,,,,,,,,,"2006-09-08"
"72518014735","2021-06-08T16:03:00","FM-16","7",,,,,"PRECIP","260",,"PLASTIC","42.6918","-73.83109","NWS ALBANY, NY",,,,,,,,,,,,,,,,,,,,,,,,,,,"29.99","71","72","0.01","|RA |RA",,,"97",,"FEW:02 50 FEW:02 80 BKN:07 100","29.67","10.00","71","170",,"5",,,,,,,,,,,,,,,,,,,,,,,,,,,,,,,,,,,,,"MET15006/08/21 16:03:02 SPECI KALB 082103Z 17004KT 10SM -RA FEW050 FEW080 BKN100 22/22 A2999 RMK AO2 LTG DSNT N TSE03 CB DSNT E MOV NE P0001 T02220217 (MAK)","FM-16","7",,,,,,,,,,,,,,,,,,,,,,,,,,,,"2006-09-08"
"72518014735","2021-06-08T16:51:00","FM-15","7",,,,,"PRECIP","260",,"PLASTIC","42.6918","-73.83109","NWS ALBANY, NY",,,,,,,,,,,,,,,,,,,,,,,,,,,"29.98","72","72","T",,,,"100","29.98","BKN:07 100 BKN:07 160 OVC:08 250","29.67","10.00","72","170",,"8",,,,,,,,,,,,,,,,,,,,,,,,,,,,,,,,,,,,,"MET14306/08/21 16:51:02 METAR KALB 082151Z 17007KT 10SM BKN100 BKN160 OVC250 22/22 A2998 RMK AO2 LTG DSNT NW RAE39 TSE03 SLP151 P0001 T02220222 (MAK)","FM-15","7",,,,,,,,,,,,,,,,,,,,,,,,,,,,"2006-09-08"
"72518014735","2021-06-08T17:22:00","FM-16","7",,,,,"PRECIP","260",,"PLASTIC","42.6918","-73.83109","NWS ALBANY, NY",,,,,,,,,,,,,,,,,,,,,,,,,,,"29.98","71","72",,,,,"97",,"FEW:02 8 FEW:02 100 SCT:04 160","29.67","10.00","71","190",,"5",,,,,,,,,,,,,,,,,,,,,,,,,,,,,,,,,,,,,"MET10606/08/21 17:22:02 SPECI KALB 082222Z 19004KT 10SM FEW008 FEW100 SCT160 22/22 A2998 RMK AO2 T02220217 (MAK)","FM-16","7",,,,,,,,,,,,,,,,,,,,,,,,,,,,"2006-09-08"
"72518014735","2021-06-08T17:40:00","FM-16","7",,,,,"PRECIP","260",,"PLASTIC","42.6918","-73.83109","NWS ALBANY, NY",,,,,,,,,,,,,,,,,,,,,,,,,,,"29.99","71","72",,,,,"97",,"BKN:07 9 BKN:07 100 OVC:08 250","29.67","10.00","71","160",,"6",,,,,,,,,,,,,,,,,,,,,,,,,,,,,,,,,,,,,"MET10606/08/21 17:40:02 SPECI KALB 082240Z 16005KT 10SM BKN009 BKN100 OVC250 22/22 A2999 RMK AO2 T02220217 (MAK)","FM-16","7",,,,,,,,,,,,,,,,,,,,,,,,,,,,"2006-09-08"
"72518014735","2021-06-08T17:51:00","FM-15","7",,,,,"PRECIP","260",,"PLASTIC","42.6918","-73.83109","NWS ALBANY, NY",,,,,,,,,,,,,,,,,,,,,,,,,,,"30.00","71","72","0.00",,,,"97","30.00","BKN:07 10 BKN:07 120 OVC:08 250","29.68","10.00","71","160",,"6",,,,,,,,,,,,,,,,,,,,,,,,,,,,,,,,,,,,,"MET11306/08/21 17:51:02 METAR KALB 082251Z 16005KT 10SM BKN010 BKN120 OVC250 22/22 A3000 RMK AO2 SLP158 T02220217 (MAK)","FM-15","7",,,,,,,,,,,,,,,,,,,,,,,,,,,,"2006-09-08"
"72518014735","2021-06-08T18:49:00","FM-16","6",,,,,"PRECIP","260",,"PLASTIC","42.6918","-73.83109","NWS ALBANY, NY",,,,,,,,,,,,,,,,,,,,,,,,,,,"30.01","72","72",,"-RA:02 |RA |RA",,,"100",,"SCT:04 11 SCT:04 55 OVC:08 85","29.70","7.00","72","110",,"3",,,,,,,,,,,,,,,,,,,,,,,,,,,,,,,,,,,,,"MET11606/08/21 18:49:02 SPECI KALB 082349Z 11003KT 7SM -RA SCT011 SCT055 OVC085 22/22 A3001 RMK AO2 RAB11 P0003 FIBI (MAK)","FM-16","6",,,,,,,,,,,,,,,,,,,,,,,,,,,,"2006-09-08"
"72518014735","2021-06-08T18:51:00","FM-15","7",,,,,"PRECIP","260",,"PLASTIC","42.6918","-73.83109","NWS ALBANY, NY",,,,,,,,,,,,,,,,,,,,,,,,,,,"30.01","71","71","0.04","-RA:02 |RA |RA","-0.02","3","100","30.00","SCT:04 11 BKN:07 55 OVC:08 85","29.70","7.00","71","110",,"3",,,,,,,,,,,,,,,,,,,,,,,,,,,,,,,,,,,,,"MET15206/08/21 18:51:02 METAR KALB 082351Z 11003KT 7SM -RA SCT011 BKN055 OVC085 22/22 A3001 RMK AO2 RAB11 SLP160 P0003 60005 T02170217 10294 20217 53006 (MAK)","FM-15","7",,,,,,,,,,,,,,,,,,,,,,,,,,,,"2006-09-08"
"72518014735","2021-06-08T19:00:00","FM-12","4",,,,,"PRECIP","260",,"PLASTIC","42.6918","-73.83109","NWS ALBANY, NY",,,,,,,,,,,,,,,,,,,,,,,,,,,,"71","71",,"||RA","-0.02","3","100","30.00","15","29.69","6.84","71","110",,"3",,,,,,,,,,,,,,,,,,,,,,,,,,,,,,,,,,,,,"SYN09272518 11461 81103 10217 20217 30055 40160 53006 60011 761// 92351 333 10294 20211 555 90900=","FM-12","4",,,,,,,,,,,,,,,,,,,,,,,,,,,,"2006-09-08"
"72518014735","2021-06-08T19:25:00","FM-16","7",,,,,"PRECIP","260",,"PLASTIC","42.6918","-73.83109","NWS ALBANY, NY",,,,,,,,,,,,,,,,,,,,,,,,,,,"30.01","71","71","0.05","-RA:02 BR:1 |RA |RA",,,"100",,"BKN:07 16 BKN:07 70","29.70","5.00","71","120",,"3",,,,,,,,,,,,,,,,,,,,,,,,,,,,,,,,,,,,,"MET10506/08/21 19:25:01 SPECI KALB 090025Z 12003KT 5SM -RA BR BKN016 BKN070 22/22 A3001 RMK AO2 P0005 T02170217","FM-16","7",,,,,,,,,,,,,,,,,,,,,,,,,,,,"2006-09-08"
"72518014735","2021-06-08T19:49:00","FM-16","6",,,,,"PRECIP","260",,"PLASTIC","42.6918","-73.83109","NWS ALBANY, NY",,,,,,,,,,,,,,,,,,,,,,,,,,,"30.00","70","70",,"||RA",,,"100",,"SCT:04 16 SCT:04 65 SCT:04 110","29.68","9.00","70","120",,"3",,,,,,,,,,,,,,,,,,,,,,,,,,,,,,,,,,,,,"MET11006/08/21 19:49:03 SPECI KALB 090049Z 12003KT 9SM -RA SCT016 SCT065 SCT110 21/21 A3000 RMK AO2 P0007 FIBI (MAK)","FM-16","6",,,,,,,,,,,,,,,,,,,,,,,,,,,,"2006-09-08"
"72518014735","2021-06-08T19:51:00","FM-15","7",,,,,"PRECIP","260",,"PLASTIC","42.6918","-73.83109","NWS ALBANY, NY",,,,,,,,,,,,,,,,,,,,,,,,,,,"30.00","70","70","0.07","-RA:02 |RA |RA",,,"100","30.00","SCT:04 16 SCT:04 65 SCT:04 110","29.68","9.00","70","120",,"3",,,,,,,,,,,,,,,,,,,,,,,,,,,,,,,,,,,,,"MET11606/08/21 19:51:01 METAR KALB 090051Z 12003KT 9SM -RA SCT016 SCT065 SCT110 21/21 A3000 RMK AO2 SLP158 P0007 T02110211","FM-15","7",,,,,,,,,,,,,,,,,,,,,,,,,,,,"2006-09-08"
"72518014735","2021-06-08T20:51:00","FM-15","7",,,,,"PRECIP","260",,"PLASTIC","42.6918","-73.83109","NWS ALBANY, NY",,,,,,,,,,,,,,,,,,,,,,,,,,,"30.01","70","70","T","|RA |RA",,,"100","30.01","FEW:02 16 FEW:02 65 BKN:07 100","29.70","8.00","70","000",,"0",,,,,,,,,,,,,,,,,,,,,,,,,,,,,,,,,,,,,"MET11606/08/21 20:51:01 METAR KALB 090151Z 00000KT 8SM -RA FEW016 FEW065 BKN100 21/21 A3001 RMK AO2 SLP162 P0001 T02110211","FM-15","7",,,,,,,,,,,,,,,,,,,,,,,,,,,,"2006-09-08"
"72518014735","2021-06-08T21:49:00","FM-16","6",,,,,"PRECIP","260",,"PLASTIC","42.6918","-73.83109","NWS ALBANY, NY",,,,,,,,,,,,,,,,,,,,,,,,,,,"30.01","70","70",,"-RA:02 |RA |RA",,,"100",,"BKN:07 6 OVC:08 100","29.70","8.00","70","200",,"3",,,,,,,,,,,,,,,,,,,,,,,,,,,,,,,,,,,,,"MET10306/08/21 21:49:03 SPECI KALB 090249Z 20003KT 8SM -RA BKN006 OVC100 21/21 A3001 RMK AO2 P0002 FIBI (MAK)","FM-16","6",,,,,,,,,,,,,,,,,,,,,,,,,,,,"2006-09-08"
"72518014735","2021-06-08T21:51:00","FM-15","7",,,,,"PRECIP","260",,"PLASTIC","42.6918","-73.83109","NWS ALBANY, NY",,,,,,,,,,,,,,,,,,,,,,,,,,,"30.01","70","70","0.02","-RA:02 |RA |RA","-0.00","1","100","30.00","BKN:07 6 OVC:08 100","29.70","8.00","70","190",,"3",,,,,,,,,,,,,,,,,,,,,,,,,,,,,,,,,,,,,"MET12106/08/21 21:51:01 METAR KALB 090251Z 19003KT 8SM -RA BKN006 OVC100 21/21 A3001 RMK AO2 SLP159 P0002 60010 T02110211 51001","FM-15","7",,,,,,,,,,,,,,,,,,,,,,,,,,,,"2006-09-08"
"72518014735","2021-06-08T22:00:00","FM-12","4",,,,,"PRECIP","260",,"PLASTIC","42.6918","-73.83109","NWS ALBANY, NY",,,,,,,,,,,,,,,,,,,,,,,,,,,,"70","70",,"||RA","-0.00","1","100","30.00","5","29.69","7.46","70","190",,"3",,,,,,,,,,,,,,,,,,,,,,,,,,,,,,,,,,,,,"SYN07672518 11262 81903 10211 20211 30055 40159 51001 60037 761// 90251 555 90903=","FM-12","4",,,,,,,,,,,,,,,,,,,,,,,,,,,,"2006-09-08"
"72518014735","2021-06-08T22:51:00","FM-15","7",,,,,"PRECIP","260",,"PLASTIC","42.6918","-73.83109","NWS ALBANY, NY",,,,,,,,,,,,,,,,,,,,,,,,,,,"30.00","69","69","T",,,,"100","29.99","SCT:04 3 BKN:07 7 OVC:08 140","29.68","7.00","69","210",,"3",,,,,,,,,,,,,,,,,,,,,,,,,,,,,,,,,,,,,"MET12006/08/21 22:51:01 METAR KALB 090351Z 21003KT 7SM SCT003 BKN007 OVC140 21/21 A3000 RMK AO2 RAE19 SLP157 P0000 T02060206 $","FM-15","7",,,,,,,,,,,,,,,,,,,,,,,,,,,,"2006-09-08"
"72518014735","2021-06-08T23:00:00","FM-16","7",,,,,"PRECIP","260",,"PLASTIC","42.6918","-73.83109","NWS ALBANY, NY",,,,,,,,,,,,,,,,,,,,,,,,,,,"29.99","69","69",,,,,"100",,"BKN:07 4 OVC:08 7","29.67","7.00","69","180",,"3",,,,,,,,,,,,,,,,,,,,,,,,,,,,,,,,,,,,,"MET09406/08/21 23:00:02 SPECI KALB 090400Z 18003KT 7SM BKN004 OVC007 21/21 A2999 RMK AO2 T02060206 $","FM-16","7",,,,,,,,,,,,,,,,,,,,,,,,,,,,"2006-09-08"
"72518014735","2021-06-08T23:51:00","FM-15","7",,,,,"PRECIP","260",,"PLASTIC","42.6918","-73.83109","NWS ALBANY, NY",,,,,,,,,,,,,,,,,,,,,,,,,,,"29.99","69","69","0.00","BR:1 ||",,,"100","29.98","OVC:08 7","29.67","5.00","69","000",,"0",,,,,,,,,,,,,,,,,,,,,,,,,,,,,,,,,,,,,"MET11906/08/21 23:51:02 METAR KALB 090451Z 00000KT 5SM BR OVC007 21/21 A2999 RMK AO2 CIG 004V008 SLP153 T02060206 402940200 $","FM-15","7",,,,,,,,,,,,,,,,,,,,,,,,,,,,"2006-09-08"
"72518014735","2021-06-08T23:59:00","SOD  ","6",,,,,"PRECIP","260",,"PLASTIC","42.6918","-73.83109","NWS ALBANY, NY",,,,,"77",,,"29.70",,"4.0","12","12.1","0","85","68","220","32","0.15","0","0.0","220","24","TS RA BR",,,,,,,,,,,,,,,,,,,,,,,,,,,,,,,,,,,,,,,,,,,,,,,,,,,,,,,,"SOD75724 HR PRECIPITATION (IN): 0.15 SNOW DEPTH (IN):0     24 HR SNOWFALL (IN):0.0  WEATHER(CODE):13  24 HR MAX TEMP (F): 8524 HR MIN TEMP (F): 68AVERAGE STATION PRESSURE:29.700 MINIMUM SEA LEVEL PRESSURE:29.97 TIME OF OCCURRENCE:1715 PEAK WIND SPEED (MPH): 32 PEAK WIND DIR (DEG):220 PEAK WIND TIME (LST):      FASTEST 2MIN SPEED (MPH): 24FASTEST 2MIN DIR (DEG):220 FASTEST 2MIN TIME (LST):     AVERAGE WIND SPEED (MPH): 4.0 24 HR AVG TEMP (F): 77DEPART FROM NORMAL: 11  HEATING DEGREE DAYS:  0 COOLING DEGREE DAYS: 12 LATEST DAY MAX TEMP (0700-1900 LST):85  LATEST NIGHT MIN TEMP(1900-0800 LST):70 HOURLY INCREMENTAL PRECIPITATION VALUES (IN):.00 0.00 0.00 0.00 0.00 0.00 0.00 0.00 0.00 0.00 T    T    0.00 0.00 T    0.02 T    0.00 0.04 0.07 T    0.02 T    0.00","SOD  ","6",,,,,,,,,,,,,,,,,,,,,,,,,"0417","1931",,"2006-09-08"
"72518014735","2021-06-09T00:51:00","FM-15","7",,,,,"PRECIP","260",,"PLASTIC","42.6918","-73.83109","NWS ALBANY, NY",,,,,,,,,,,,,,,,,,,,,,,,,,,"29.99","68","68","0.00",,"+0.02","6","100","29.98","BKN:07 7 OVC:08 120","29.67","8.00","68","160",,"3",,,,,,,,,,,,,,,,,,,,,,,,,,,,,,,,,,,,,"MET14006/09/21 00:51:02 METAR KALB 090551Z 16003KT 8SM BKN007 OVC120 20/20 A2999 RMK AO2 SLP153 BKN V SCT 60010 T02000200 10217 20200 56006 $ (BA)","FM-15","7",,,,,,,,,,,,,,,,,,,,,,,,,,,,"2006-09-08"
"72518014735","2021-06-09T01:00:00","FM-12","4",,,,,"PRECIP","260",,"PLASTIC","42.6918","-73.83109","NWS ALBANY, NY",,,,,,,,,,,,,,,,,,,,,,,,,,,,"68","68",,,"+0.02","6","100","29.98","8","29.67","7.46","68","160",,"3",,,,,,,,,,,,,,,,,,,,,,,,,,,,,,,,,,,,,"SYN08672518 12362 81603 10200 20200 30049 40153 56006 60031 90551 333 10239 20200 555 90906=","FM-12","4",,,,,,,,,,,,,,,,,,,,,,,,,,,,"2006-09-08"
"72518014735","2021-06-09T01:06:00","FM-16","7",,,,,"PRECIP","260",,"PLASTIC","42.6918","-73.83109","NWS ALBANY, NY",,,,,,,,,,,,,,,,,,,,,,,,,,,"29.98","68","68",,,,,"100",,"SCT:04 7 BKN:07 23 BKN:07 130","29.67","8.00","68","160",,"3",,,,,,,,,,,,,,,,,,,,,,,,,,,,,,,,,,,,,"MET10606/09/21 01:06:02 SPECI KALB 090606Z 16003KT 8SM SCT007 BKN023 BKN130 20/20 A2998 RMK AO2 T02000200 $ (BA)","FM-16","7",,,,,,,,,,,,,,,,,,,,,,,,,,,,"2006-09-08"
"72518014735","2021-06-09T01:39:00","FM-16","7",,,,,"PRECIP","260",,"PLASTIC","42.6918","-73.83109","NWS ALBANY, NY",,,,,,,,,,,,,,,,,,,,,,,,,,,"29.99","68","68",,,,,"100",,"FEW:02 3 SCT:04 10 SCT:04 23","29.67","8.00","68","180",,"6",,,,,,,,,,,,,,,,,,,,,,,,,,,,,,,,,,,,,"MET10606/09/21 01:39:02 SPECI KALB 090639Z 18005KT 8SM FEW003 SCT010 SCT023 20/20 A2999 RMK AO2 T02000200 $ (BA)","FM-16","7",,,,,,,,,,,,,,,,,,,,,,,,,,,,"2006-09-08"
"72518014735","2021-06-09T01:51:00","FM-15","7",,,,,"PRECIP","260",,"PLASTIC","42.6918","-73.83109","NWS ALBANY, NY",,,,,,,,,,,,,,,,,,,,,,,,,,,"29.99","68","68","0.00",,,,"100","29.98","SCT:04 3 SCT:04 24 BKN:07 120","29.67","7.00","68","160",,"3",,,,,,,,,,,,,,,,,,,,,,,,,,,,,,,,,,,,,"MET11306/09/21 01:51:02 METAR KALB 090651Z 16003KT 7SM SCT003 SCT024 BKN120 20/20 A2999 RMK AO2 SLP154 T02000200 $ (BA)","FM-15","7",,,,,,,,,,,,,,,,,,,,,,,,,,,,"2006-09-08"
"72518014735","2021-06-09T02:16:00","FM-16","7",,,,,"PRECIP","260",,"PLASTIC","42.6918","-73.83109","NWS ALBANY, NY",,,,,,,,,,,,,,,,,,,,,,,,,,,"29.99","68","68",,,,,"100",,"FEW:02 3 BKN:07 27 BKN:07 110","29.67","6.00","68","000",,"0",,,,,,,,,,,,,,,,,,,,,,,,,,,,,,,,,,,,,"MET10906/09/21 02:16:02 SPECI KALB 090716Z 00000KT 6SM BR FEW003 BKN027 BKN110 20/20 A2999 RMK AO2 T02000200 $ (BA)","FM-16","7",,,,,,,,,,,,,,,,,,,,,,,,,,,,"2006-09-08"
"72518014735","2021-06-09T02:23:00","FM-16","7",,,,,"PRECIP","260",,"PLASTIC","42.6918","-73.83109","NWS ALBANY, NY",,,,,,,,,,,,,,,,,,,,,,,,,,,"29.99","68","68",,"BR:1 ||",,,"100",,"BKN:07 3 OVC:08 27","29.67","5.00","68","180",,"3",,,,,,,,,,,,,,,,,,,,,,,,,,,,,,,,,,,,,"MET10206/09/21 02:23:02 SPECI KALB 090723Z 18003KT 5SM BR BKN003 OVC027 20/20 A2999 RMK AO2 T02000200 $ (BA)","FM-16","7",,,,,,,,,,,,,,,,,,,,,,,,,,,,"2006-09-08"
"72518014735","2021-06-09T02:49:00","FM-16","7",,,,,"PRECIP","260",,"PLASTIC","42.6918","-73.83109","NWS ALBANY, NY",,,,,,,,,,,,,,,,,,,,,,,,,,,"29.99","68","68",,"BR:1 s |s |",,,"100",,"OVC:08 2","29.67","0.25s","68","180",,"5",,,,,,,,,,,,,,,,,,,,,,,,,,,,,,,,,,,,,"MET11406/09/21 02:49:02 SPECI KALB 090749Z 18004KT 1/4SM R01/4500VP6000FT BR OVC002 20/20 A2999 RMK AO2 SFC VIS 2 $ (BA)","FM-16","7",,,,,,,,,,,,,,,,,,,,,,,,,,,,"2006-09-08"
"72518014735","2021-06-09T02:51:00","FM-15","7",,,,,"PRECIP","260",,"PLASTIC","42.6918","-73.83109","NWS ALBANY, NY",,,,,,,,,,,,,,,,,,,,,,,,,,,"29.98","68","68","0.00","BR:1 s |s |",,,"100","29.98","OVC:08 2","29.67","0.25s","68","180",,"5",,,,,,,,,,,,,,,,,,,,,,,,,,,,,,,,,,,,,"MET13106/09/21 02:51:02 METAR KALB 090751Z 18004KT 1/4SM R01/4500VP6000FT BR OVC002 20/20 A2998 RMK AO2 SFC VIS 1 SLP152 T02000200 $ (BA)","FM-15","7",,,,,,,,,,,,,,,,,,,,,,,,,,,,"2006-09-08"
"72518014735","2021-06-09T03:41:00","FM-16","7",,,,,"PRECIP","260",,"PLASTIC","42.6918","-73.83109","NWS ALBANY, NY",,,,,,,,,,,,,,,,,,,,,,,,,,,"29.98","68","68",,"BR:1 s |s |",,,"100",,"OVC:08 2","29.67","0.50Vs","68","160",,"3",,,,,,,,,,,,,,,,,,,,,,,,,,,,,,,,,,,,,"MET13306/09/21 03:41:02 SPECI KALB 090841Z 16003KT 1/2SM R01/P6000FT BR OVC002 20/20 A2998 RMK AO2 SFC VIS 1 VIS 3/4V1 1/4 T02000200 $ (BA)","FM-16","7",,,,,,,,,,,,,,,,,,,,,,,,,,,,"2006-09-08"
"72518014735","2021-06-09T03:51:00","FM-15","7",,,,,"PRECIP","260",,"PLASTIC","42.6918","-73.83109","NWS ALBANY, NY",,,,,,,,,,,,,,,,,,,,,,,,,,,"29.98","68","68","0.00","BR:1 s |s |","+0.01","8","100","29.97","OVC:08 2","29.67","0.50Vs","68","000",,"0",,,,,,,,,,,,,,,,,,,,,,,,,,,,,,,,,,,,,"MET14606/09/21 03:51:02 METAR KALB 090851Z 00000KT 1/2SM R01/P6000FT BR OVC002 20/20 A2998 RMK AO2 SFC VIS 1 SLP150 VIS 3/4V1 1/4 T02000200 58003 $ (BA)","FM-15","7",,,,,,,,,,,,,,,,,,,,,,,,,,,,"2006-09-08"
"72518014735","2021-06-09T04:00:00","FM-12","4",,,,,"PRECIP","260",,"PLASTIC","42.6918","-73.83109","NWS ALBANY, NY",,,,,,,,,,,,,,,,,,,,,,,,,,,,"68","68",,,"+0.01","8","100","29.97","2","29.66","0.50","68","000",,"0",,,,,,,,,,,,,,,,,,,,,,,,,,,,,,,,,,,,,"SYN07072518 31108 80000 10200 20200 30045 40150 58003 710// 90851 555 90909=","FM-12","4",,,,,,,,,,,,,,,,,,,,,,,,,,,,"2006-09-08"
"72518014735","2021-06-09T04:01:00","FM-16","7",,,,,"PRECIP","260",,"PLASTIC","42.6918","-73.83109","NWS ALBANY, NY",,,,,,,,,,,,,,,,,,,,,,,,,,,"29.98","67","67",,"BR:1 ||",,,"100",,"BKN:07 2 OVC:08 200","29.67","1.25V","67","170",,"3",,,,,,,,,,,,,,,,,,,,,,,,,,,,,,,,,,,,,"MET12806/09/21 04:01:02 SPECI KALB 090901Z 17003KT 1 1/4SM BR BKN002 OVC200 19/19 A2998 RMK AO2 SFC VIS 2 1/2 VIS 2V3 T01940194 $ (BA)","FM-16","7",,,,,,,,,,,,,,,,,,,,,,,,,,,,"2006-09-08"
"72518014735","2021-06-09T04:04:00","FM-16","7",,,,,"PRECIP","260",,"PLASTIC","42.6918","-73.83109","NWS ALBANY, NY",,,,,,,,,,,,,,,,,,,,,,,,,,,"29.98","67","67",,"BR:1 ||",,,"100",,"SCT:04 2 OVC:08 200","29.67","2.50V","67","180",,"3",,,,,,,,,,,,,,,,,,,,,,,,,,,,,,,,,,,,,"MET11406/09/21 04:04:02 SPECI KALB 090904Z 18003KT 2 1/2SM BR SCT002 OVC200 19/19 A2998 RMK AO2 VIS 2V4 T01940194 $ (BA)","FM-16","7",,,,,,,,,,,,,,,,,,,,,,,,,,,,"2006-09-08"
"72518014735","2021-06-09T04:49:00","FM-16","6",,,,,"PRECIP","260",,"PLASTIC","42.6918","-73.83109","NWS ALBANY, NY",,,,,,,,,,,,,,,,,,,,,,,,,,,"29.98","66","66",,"BC:3 FG:2 BR:1 |FG |",,,"100",,"FEW:02 2 BKN:07 200","29.67","3.00","66","000",,"0",,,,,,,,,,,,,,,,,,,,,,,,,,,,,,,,,,,,,"MET13906/09/21 04:49:02 SPECI KALB 090949Z 00000KT 3SM R01/2200VP6000FT BCFG BR FEW002 BKN200 19/19 A2998 RMK AO2 VIS NW 2 BCFG ALQDS $ FIBI (BA)","FM-16","6",,,,,,,,,,,,,,,,,,,,,,,,,,,,"2006-09-08"
"72518014735","2021-06-09T04:51:00","FM-15","7",,,,,"PRECIP","260",,"PLASTIC","42.6918","-73.83109","NWS ALBANY, NY",,,,,,,,,,,,,,,,,,,,,,,,,,,"29.98","67","67","0.00","BC:3 FG:2 BR:1 |FG |",,,"100","29.98","FEW:02 2 BKN:07 200","29.67","3.00","67","000",,"0",,,,,,,,,,,,,,,,,,,,,,,,,,,,,,,,,,,,,"MET15106/09/21 04:51:02 METAR KALB 090951Z 00000KT 3SM R01/2200VP6000FT BCFG BR FEW002 BKN200 19/19 A2998 RMK AO2 SLP152 VIS NW 2 BCFG ALQDS T01940194 $ (BA)","FM-15","7",,,,,,,,,,,,,,,,,,,,,,,,,,,,"2006-09-08"
"72518014735","2021-06-09T05:51:00","FM-15","7",,,,,"PRECIP","260",,"PLASTIC","42.6918","-73.83109","NWS ALBANY, NY",,,,,,,,,,,,,,,,,,,,,,,,,,,"29.99","68","68","0.00","VCFG:2 s ||FG s",,,"100","29.98","FEW:02 2 SCT:04 200 BKN:07 250","29.67","10.00s","68","000",,"0",,,,,,,,,,,,,,,,,,,,,,,,,,,,,,,,,,,,,"MET12806/09/21 05:51:02 METAR KALB 091051Z 00000KT 10SM VCFG FEW002 SCT200 BKN250 20/20 A2999 RMK AO2 SLP152 VCFG E-S T02000200 $ (BA)","FM-15","7",,,,,,,,,,,,,,,,,,,,,,,,,,,,"2006-09-08"
"72518014735","2021-06-09T06:51:00","FM-15","7",,,,,"PRECIP","260",,"PLASTIC","42.6918","-73.83109","NWS ALBANY, NY",,,,,,,,,,,,,,,,,,,,,,,,,,,"29.99","70","72","0.00","||FG s","-0.01","1","94","29.98","FEW:02 2 FEW:02 20 FEW:02 200","29.67","10.00s","71","000",,"0",,,,,,,,,,,,,,,,,,,,,,,,,,,,,,,,,,,,,"MET15106/09/21 06:51:02 METAR KALB 091151Z 00000KT 10SM VCFG FEW002 FEW020 FEW200 22/21 A2999 RMK AO2 SLP153 VCFG E-SW 70015 T02220211 10222 20189 51003 (JB)","FM-15","7",,,,,,,,,,,,,,,,,,,,,,,,,,,,"2006-09-08"
"72518014735","2021-06-09T07:00:00","FM-12","4",,,,,"PRECIP","260",,"PLASTIC","42.6918","-73.83109","NWS ALBANY, NY",,,,,,,,,,,,,,,,,,,,,,,,,,,,"70","72",,"||FG","-0.01","1","94","29.98","2","29.67","9.94","71","000",,"0",,,,,,,,,,,,,,,,,,,,,,,,,,,,,,,,,,,,,"SYN09272518 31166 60000 10222 20211 30049 40153 51003 711// 91151 333 10294 20189 70038 555 90912=","FM-12","4",,,,,,,,,,,,,,,,,,,,,,,,,,,,"2006-09-08"
"72518014735","2021-06-09T07:51:00","FM-15","7",,,,,"PRECIP","260",,"PLASTIC","42.6918","-73.83109","NWS ALBANY, NY",,,,,,,,,,,,,,,,,,,,,,,,,,,"30.00","71","75","0.00",,,,"88","29.99","SCT:04 14 SCT:04 200 BKN:07 250","29.68","10.00","72","310",,"3",,,,,,,,,,,,,,,,,,,,,,,,,,,,,,,,,,,,,"MET11206/09/21 07:51:02 METAR KALB 091251Z 31003KT 10SM SCT014 SCT200 BKN250 24/22 A3000 RMK AO2 SLP156 T02390217 (JB)","FM-15","7",,,,,,,,,,,,,,,,,,,,,,,,,,,,"2006-09-08"
"72518014735","2021-06-09T08:43:00","FM-16","7",,,,,"PRECIP","260",,"PLASTIC","42.6918","-73.83109","NWS ALBANY, NY",,,,,,,,,,,,,,,,,,,,,,,,,,,"30.00","71","77",,,,,"82",,"BKN:07 19 BKN:07 200 BKN:07 250","29.68","10.00","73","340",,"8",,,,,,,,,,,,,,,,,,,,,,,,,,,,,,,,,,,,,"MET10506/09/21 08:43:02 SPECI KALB 091343Z 34007KT 10SM BKN019 BKN200 BKN250 25/22 A3000 RMK AO2 T02500217 (JB)","FM-16","7",,,,,,,,,,,,,,,,,,,,,,,,,,,,"2006-09-08"
"72518014735","2021-06-09T08:51:00","FM-15","7",,,,,"PRECIP","260",,"PLASTIC","42.6918","-73.83109","NWS ALBANY, NY",,,,,,,,,,,,,,,,,,,,,,,,,,,"30.00","71","76","0.00",,,,"85","30.00","BKN:07 19 BKN:07 200 BKN:07 250","29.68","10.00","73","300",,"9",,,,,,,,,,,,,,,,,,,,,,,,,,,,,,,,,,,,,"MET11206/09/21 08:51:02 METAR KALB 091351Z 30008KT 10SM BKN019 BKN200 BKN250 24/22 A3000 RMK AO2 SLP159 T02440217 (JB)","FM-15","7",,,,,,,,,,,,,,,,,,,,,,,,,,,,"2006-09-08"
"72518014735","2021-06-09T09:51:00","FM-15","7",,,,,"PRECIP","260",,"PLASTIC","42.6918","-73.83109","NWS ALBANY, NY",,,,,,,,,,,,,,,,,,,,,,,,,,,"30.02","71","77","0.00",,"-0.03","3","82","30.01","BKN:07 25 BKN:07 200","29.70","10.00","73","330",,"7",,,,,,,,,,,,,,,,,,,,,,,,,,,,,,,,,,,,,"MET11106/09/21 09:51:02 METAR KALB 091451Z 33006KT 10SM BKN025 BKN200 25/22 A3002 RMK AO2 SLP164 T02500217 53010 (JB)","FM-15","7",,,,,,,,,,,,,,,,,,,,,,,,,,,,"2006-09-08"
"72518014735","2021-06-09T10:00:00","FM-12","4",,,,,"PRECIP","260",,"PLASTIC","42.6918","-73.83109","NWS ALBANY, NY",,,,,,,,,,,,,,,,,,,,,,,,,,,,"71","77",,,"-0.03","3","82","30.01","26","29.70","9.94","73","330",,"7",,,,,,,,,,,,,,,,,,,,,,,,,,,,,,,,,,,,,"SYN06472518 32566 63306 10250 20217 30059 40164 53010 91451 555 90915=","FM-12","4",,,,,,,,,,,,,,,,,,,,,,,,,,,,"2006-09-08"
"72518014735","2021-06-09T10:38:00","FM-16","7",,,,,"PRECIP","260",,"PLASTIC","42.6918","-73.83109","NWS ALBANY, NY",,,,,,,,,,,,,,,,,,,,,,,,,,,"30.02","71","79",,,,,"77",,"FEW:02 25 BKN:07 33 BKN:07 250","29.70","10.00","74","330",,"6",,,,,,,,,,,,,,,,,,,,,,,,,,,,,,,,,,,,,"MET10506/09/21 10:38:02 SPECI KALB 091538Z 33005KT 10SM FEW025 BKN033 BKN250 26/22 A3002 RMK AO2 T02610217 (JB)","FM-16","7",,,,,,,,,,,,,,,,,,,,,,,,,,,,"2006-09-08"
"72518014735","2021-06-09T10:51:00","FM-15","7",,,,,"PRECIP","260",,"PLASTIC","42.6918","-73.83109","NWS ALBANY, NY",,,,,,,,,,,,,,,,,,,,,,,,,,,"30.01","70","78","0.00",,,,"76","30.00","FEW:02 25 BKN:07 33 BKN:07 250","29.70","10.00","73","360",,"5",,,,,,,,,,,,,,,,,,,,,,,,,,,,,,,,,,,,,"MET11206/09/21 10:51:02 METAR KALB 091551Z 36004KT 10SM FEW025 BKN033 BKN250 26/21 A3001 RMK AO2 SLP160 T02560211 (JB)","FM-15","7",,,,,,,,,,,,,,,,,,,,,,,,,,,,"2006-09-08"
"72518014735","2021-06-09T11:40:00","FM-16","7",,,,,"PRECIP","260",,"PLASTIC","42.6918","-73.83109","NWS ALBANY, NY",,,,,,,,,,,,,,,,,,,,,,,,,,,"30.01","71","80",,,,,"74",,"BKN:07 27 BKN:07 35 BKN:07 250","29.70","10.00","74","040",,"6",,,,,,,,,,,,,,,,,,,,,,,,,,,,,,,,,,,,,"MET13506/09/21 11:40:02 SPECI KALB 091640Z 04005KT 10SM BKN027 BKN035 BKN250 27/22 A3001 RMK AO2 LTG DSNT NW CB DSNT NW MOV SE T02670217 (JB)","FM-16","7",,,,,,,,,,,,,,,,,,,,,,,,,,,,"2006-09-08"
"72518014735","2021-06-09T11:51:00","FM-15","7",,,,,"PRECIP","260",,"PLASTIC","42.6918","-73.83109","NWS ALBANY, NY",,,,,,,,,,,,,,,,,,,,,,,,,,,"30.00","71","81","0.00",,,,"72","30.00","BKN:07 27 BKN:07 35 BKN:07 250","29.68","10.00","74","VRB",,"8",,,,,,,,,,,,,,,,,,,,,,,,,,,,,,,,,,,,,"MET13006/09/21 11:51:02 METAR KALB 091651Z 03007KT 10SM BKN027 BKN035 BKN250 27/22 A3000 RMK AO2 SLP158 CB DSNT NW MOV SE T02720217 (JB)","FM-15","7",,,,,,,,,,,,,,,,,,,,,,,,,,,,"2006-09-08"
"72518014735","2021-06-09T12:40:00","FM-16","7",,,,,"PRECIP","260",,"PLASTIC","42.6918","-73.83109","NWS ALBANY, NY",,,,,,,,,,,,,,,,,,,,,,,,,,,"30.00","70","79",,,,,"74",,"FEW:02s 29s SCT:04s 38s","29.68","10.00","73","360",,"6",,,,,,,,,,,,,,,,,,,,,,,,,,,,,,,,,,,,,"MET12606/09/21 12:40:02 SPECI KALB 091740Z 36005KT 10SM FEW029 SCT038CB SCT1 26/21 A3000 RMK AO2 CB NW MOV SE VCSH NW T02610211 (JB)","FM-16","7",,,,,,,,,,,,,,,,,,,,,,,,,,,,"2006-09-08"
"72518014735","2021-06-09T12:51:00","FM-15","7",,,,,"PRECIP","260",,"PLASTIC","42.6918","-73.83109","NWS ALBANY, NY",,,,,,,,,,,,,,,,,,,,,,,,,,,"30.00","70","78","0.00",,"+0.01","6","76","30.00","SCT:04 35 BKN:07 95 BKN:07 250","29.68","10.00","73","350",,"7",,,,,,,,,,,,,,,,,,,,,,,,,,,,,,,,,,,,,"MET16106/09/21 12:51:02 METAR KALB 091751Z 35006KT 10SM SCT035CB BKN095 BKN250 26/21 A3000 RMK AO2 SLP158 CB NW MOV SE PRESENT WX VCSH T02560211 10278 20222 56005 (JB)","FM-15","7",,,,,,,,,,,,,,,,,,,,,,,,,,,,"2006-09-08"
"72518014735","2021-06-09T13:00:00","FM-12","4",,,,,"PRECIP","260",,"PLASTIC","42.6918","-73.83109","NWS ALBANY, NY",,,,,,,,,,,,,,,,,,,,,,,,,,,,"70","78",,,"+0.01","6","76","30.00","41","29.68","9.94","73","350",,"7",,,,,,,,,,,,,,,,,,,,,,,,,,,,,,,,,,,,,"SYN08072518 32666 63506 10256 20211 30052 40158 56005 91751 333 10278 20217 555 90918=","FM-12","4",,,,,,,,,,,,,,,,,,,,,,,,,,,,"2006-09-08"
"72518014735","2021-06-09T13:03:00","FM-16","7",,,,,"PRECIP","260",,"PLASTIC","42.6918","-73.83109","NWS ALBANY, NY",,,,,,,,,,,,,,,,,,,,,,,,,,,"30.01","71","77","T","|TS |FG",,,"82",,"FEW:02 35 SCT:04 50","29.70","8.00","73","340",,"9",,,,,,,,,,,,,,,,,,,,,,,,,,,,,,,,,,,,,"MET15506/09/21 13:03:02 SPECI KALB 091803Z 34008KT 8SM -TSRA FEW035 SCT050CB BKN0 25/22 A3001 RMK AO2 RAB00 TSB01 OCNL LTGICCG W TS W MOV SE P0000 T02500217 (JB)","FM-16","7",,,,,,,,,,,,,,,,,,,,,,,,,,,,"2006-09-08"
"72518014735","2021-06-09T13:18:00","FM-16","7",,,,,"PRECIP","260",,"PLASTIC","42.6918","-73.83109","NWS ALBANY, NY",,,,,,,,,,,,,,,,,,,,,,,,,,,"30.00","72","76","T",,,,"88",,"SCT:04 50 BKN:07 70","29.68","10.00","73","330",,"7",,,,,,,,,,,,,,,,,,,,,,,,,,,,,,,,,,,,,"MET19006/09/21 13:18:02 SPECI KALB 091818Z 33006KT 10SM SCT050CB BKN070 BKN1 24/22 A3000 RMK AO2 LTG DSNT N RAB00E14 TSB01E16 OCNL LTGICCG SW AND DSNT N CB SW AND DSNT N MOV S P0000 T02440222 (JB)","FM-16","7",,,,,,,,,,,,,,,,,,,,,,,,,,,,"2006-09-08"
"72518014735","2021-06-09T13:51:00","FM-15","7",,,,,"PRECIP","260",,"PLASTIC","42.6918","-73.83109","NWS ALBANY, NY",,,,,,,,,,,,,,,,,,,,,,,,,,,"29.99","71","81","T",,,,"72","29.99","FEW:02 46 SCT:04 60 SCT:04 110","29.67","10.00","74","VRB",,"9",,,,,,,,,,,,,,,,,,,,,,,,,,,,,,,,,,,,,"MET15206/09/21 13:51:02 METAR KALB 091851Z 04008KT 10SM FEW046 SCT060 SCT110 27/22 A2999 RMK AO2 RAB00E14 TSB01E16 SLP155 CB DSNT N MOV S P0000 T02720217 (JB)","FM-15","7",,,,,,,,,,,,,,,,,,,,,,,,,,,,"2006-09-08"
"72518014735","2021-06-09T14:42:00","FM-16","7",,,,,"PRECIP","260",,"PLASTIC","42.6918","-73.83109","NWS ALBANY, NY",,,,,,,,,,,,,,,,,,,,,,,,,,,"29.98","70","78",,"|TS |FG",,,"76",,"SCT:04 46 BKN:07 60","29.67","10.00","73","020",,"13",,,,,,,,,,,,,,,,,,,,,,,,,,,,,,,,,,,,,"MET16006/09/21 14:42:02 SPECI KALB 091942Z 02011KT 10SM TS SCT046CB BKN060 BKN1 26/21 A2998 RMK AO2 LTG DSNT W AND NW TSB42 OCNL LTGICCG NW TS NW MOV S T02560211 (JF)","FM-16","7",,,,,,,,,,,,,,,,,,,,,,,,,,,,"2006-09-08"
"72518014735","2021-06-09T14:51:00","FM-15","7",,,,,"PRECIP","260",,"PLASTIC","42.6918","-73.83109","NWS ALBANY, NY",,,,,,,,,,,,,,,,,,,,,,,,,,,"29.98","70","76","0.00","TS:7 |TS TS |",,,"82","29.98","SCT:04 46 BKN:07 60","29.67","10.00","72","040",,"8",,,,,,,,,,,,,,,,,,,,,,,,,,,,,,,,,,,,,"MET17706/09/21 14:51:02 METAR KALB 091951Z 04007KT 10SM TS SCT046CB BKN060 BKN1 24/21 A2998 RMK AO2 LTG DSNT W AND NW TSB42 SLP152 OCNL LTGICCG VC W-NW TS VC W-NW MOV S T02440211 (JF)","FM-15","7",,,,,,,,,,,,,,,,,,,,,,,,,,,,"2006-09-08"
"72518014735","2021-06-09T15:51:00","FM-15","7",,,,,"PRECIP","260",,"PLASTIC","42.6918","-73.83109","NWS ALBANY, NY",,,,,,,,,,,,,,,,,,,,,,,,,,,"29.98","70","72","T","TS:7 |TS TS |","+0.02","6","94","29.98","FEW:02 15 FEW:02 46","29.67","10.00","71","310",,"7",,,,,,,,,,,,,,,,,,,,,,,,,,,,,,,,,,,,,"MET19406/09/21 15:51:02 METAR KALB 092051Z 31006KT 10SM TS FEW015 FEW046CB SCT0 22/21 A2998 RMK AO2 LTG DSNT SW AND W RAB12E51 SLP151 OCNL LTGICCG VC SW TS VC SW MOV S P0000 60000 T02220211 56007 (JF)","FM-15","7",,,,,,,,,,,,,,,,,,,,,,,,,,,,"2006-09-08"
"72518014735","2021-06-09T16:00:00","FM-12","4",,,,,"PRECIP","260",,"PLASTIC","42.6918","-73.83109","NWS ALBANY, NY",,,,,,,,,,,,,,,,,,,,,,,,,,,,"70","72",,"||TS","+0.02","6","94","29.98","15","29.66","9.94","71","310",,"7",,,,,,,,,,,,,,,,,,,,,,,,,,,,,,,,,,,,,"SYN07672518 11466 63106 10222 20211 30045 40151 56007 69907 795// 92051 555 90921=","FM-12","4",,,,,,,,,,,,,,,,,,,,,,,,,,,,"2006-09-08"
"72518014735","2021-06-09T16:22:00","FM-16","7",,,,,"PRECIP","260",,"PLASTIC","42.6918","-73.83109","NWS ALBANY, NY",,,,,,,,,,,,,,,,,,,,,,,,,,,"29.98","69","72",,,,,"91",,"FEW:02 46 BKN:07 65 BKN:07 180","29.67","10.00","70","280",,"5",,,,,,,,,,,,,,,,,,,,,,,,,,,,,,,,,,,,,"MET15406/09/21 16:22:02 SPECI KALB 092122Z 28004KT 10SM FEW046 BKN065 BKN180 22/21 A2998 RMK AO2 LTG DSNT SW TSE22 CB DSNT S-SW MOV S TCU DSNT NW T02220206 (JF)","FM-16","7",,,,,,,,,,,,,,,,,,,,,,,,,,,,"2006-09-08"
"72518014735","2021-06-09T16:51:00","FM-15","7",,,,,"PRECIP","260",,"PLASTIC","42.6918","-73.83109","NWS ALBANY, NY",,,,,,,,,,,,,,,,,,,,,,,,,,,"29.97","69","75","0.00",,,,"82","29.97","FEW:02 46 SCT:04 65 SCT:04 180","29.65","10.00","71","300",,"5",,,,,,,,,,,,,,,,,,,,,,,,,,,,,,,,,,,,,"MET13706/09/21 16:51:02 METAR KALB 092151Z 30004KT 10SM FEW046 SCT065 SCT180 24/21 A2997 RMK AO2 TSE22 SLP148 CB DSNT S-SW MOV S T02390206 (JF)","FM-15","7",,,,,,,,,,,,,,,,,,,,,,,,,,,,"2006-09-08"
"72518014735","2021-06-09T17:51:00","FM-15","7",,,,,"PRECIP","260",,"PLASTIC","42.6918","-73.83109","NWS ALBANY, NY",,,,,,,,,,,,,,,,,,,,,,,,,,,"29.97","69","76","0.00",,,,"79","29.97","FEW:02 65 FEW:02 180 SCT:04 250","29.65","10.00","71","260",,"6",,,,,,,,,,,,,,,,,,,,,,,,,,,,,,,,,,,,,"MET11206/09/21 17:51:02 METAR KALB 092251Z 26005KT 10SM FEW065 FEW180 SCT250 24/21 A2997 RMK AO2 SLP148 T02440206 (JF)","FM-15","7",,,,,,,,,,,,,,,,,,,,,,,,,,,,"2006-09-08"
"72518014735","2021-06-09T18:51:00","FM-15","7",,,,,"PRECIP","260",,"PLASTIC","42.6918","-73.83109","NWS ALBANY, NY",,,,,,,,,,,,,,,,,,,,,,,,,,,"29.99","70","75","0.00",,"-0.01","3","84","29.99","FEW:02 65 SCT:04 180 SCT:04 250","29.67","10.00","72","330",,"5",,,,,,,,,,,,,,,,,,,,,,,,,,,,,,,,,,,,,"MET14606/09/21 18:51:02 METAR KALB 092351Z 33004KT 10SM FEW065 SCT180 SCT250 24/21 A2999 RMK AO2 SLP155 FEW V SCT 60000 T02390211 10278 20222 53003 (JF)","FM-15","7",,,,,,,,,,,,,,,,,,,,,,,,,,,,"2006-09-08"
"72518014735","2021-06-09T19:00:00","FM-12","4",,,,,"PRECIP","260",,"PLASTIC","42.6918","-73.83109","NWS ALBANY, NY",,,,,,,,,,,,,,,,,,,,,,,,,,,,"70","75",,,"-0.01","3","84","29.99","57","29.67","9.94","72","330",,"5",,,,,,,,,,,,,,,,,,,,,,,,,,,,,,,,,,,,,"SYN08672518 12766 43304 10239 20211 30049 40155 53003 69901 92351 333 10278 20189 555 91000=","FM-12","4",,,,,,,,,,,,,,,,,,,,,,,,,,,,"2006-09-08"
"72518014735","2021-06-09T19:51:00","FM-15","7",,,,,"PRECIP","260",,"PLASTIC","42.6918","-73.83109","NWS ALBANY, NY",,,,,,,,,,,,,,,,,,,,,,,,,,,"30.00","70","72","0.00",,,,"94","30.00","SCT:04 49 BKN:07 65 BKN:07 180","29.68","10.00","71","000",,"0",,,,,,,,,,,,,,,,,,,,,,,,,,,,,,,,,,,,,"MET13106/09/21 19:51:01 METAR KALB 100051Z 00000KT 10SM SCT049 BKN065 BKN180 22/21 A3000 RMK AO2 SLP158 BKN065 V SCT TCU DSNT W T02220211","FM-15","7",,,,,,,,,,,,,,,,,,,,,,,,,,,,"2006-09-08"
"72518014735","2021-06-09T20:51:00","FM-15","7",,,,,"PRECIP","260",,"PLASTIC","42.6918","-73.83109","NWS ALBANY, NY",,,,,,,,,,,,,,,,,,,,,,,,,,,"30.02","69","70","0.00",,,,"97","30.01","SCT:04 49 SCT:04 180 BKN:07 250","29.70","10.00","69","000",,"0",,,,,,,,,,,,,,,,,,,,,,,,,,,,,,,,,,,,,"MET10706/09/21 20:51:01 METAR KALB 100151Z 00000KT 10SM SCT049 SCT180 BKN250 21/21 A3002 RMK AO2 SLP163 T02110206","FM-15","7",,,,,,,,,,,,,,,,,,,,,,,,,,,,"2006-09-08"
"72518014735","2021-06-09T21:51:00","FM-15","7",,,,,"PRECIP","260",,"PLASTIC","42.6918","-73.83109","NWS ALBANY, NY",,,,,,,,,,,,,,,,,,,,,,,,,,,"30.02","69","69","0.00",,"-0.03","1","100","30.02","SCT:04 50 SCT:04 70 SCT:04 250","29.70","10.00","69","000",,"0",,,,,,,,,,,,,,,,,,,,,,,,,,,,,,,,,,,,,"MET11306/09/21 21:51:01 METAR KALB 100251Z 00000KT 10SM SCT050 SCT070 SCT250 21/21 A3002 RMK AO2 SLP165 T02060206 51010","FM-15","7",,,,,,,,,,,,,,,,,,,,,,,,,,,,"2006-09-08"
"72518014735","2021-06-09T22:00:00","FM-12","4",,,,,"PRECIP","260",,"PLASTIC","42.6918","-73.83109","NWS ALBANY, NY",,,,,,,,,,,,,,,,,,,,,,,,,,,,"69","69",,,"-0.03","1","100","30.02","57","29.70","9.94","69","000",,"0",,,,,,,,,,,,,,,,,,,,,,,,,,,,,,,,,,,,,"SYN06472518 32766 40000 10206 20206 30059 40165 51010 90251 555 91003=","FM-12","4",,,,,,,,,,,,,,,,,,,,,,,,,,,,"2006-09-08"
"72518014735","2021-06-09T22:51:00","FM-15","7",,,,,"PRECIP","260",,"PLASTIC","42.6918","-73.83109","NWS ALBANY, NY",,,,,,,,,,,,,,,,,,,,,,,,,,,"30.02","64","67","0.00",,,,"91","30.01","FEW:02 55","29.70","10.00","65","340",,"5",,,,,,,,,,,,,,,,,,,,,,,,,,,,,,,,,,,,,"MET09306/09/21 22:51:02 METAR KALB 100351Z 34004KT 10SM FEW055 19/18 A3002 RMK AO2 SLP164 T01940178","FM-15","7",,,,,,,,,,,,,,,,,,,,,,,,,,,,"2006-09-08"
"72518014735","2021-06-09T23:51:00","FM-15","7",,,,,"PRECIP","260",,"PLASTIC","42.6918","-73.83109","NWS ALBANY, NY",,,,,,,,,,,,,,,,,,,,,,,,,,,"30.03","63","65","0.00",,,,"93","30.02","CLR:00","29.71","10.00","64","330",,"3",,,,,,,,,,,,,,,,,,,,,,,,,,,,,,,,,,,,,"MET10006/09/21 23:51:02 METAR KALB 100451Z 33003KT 10SM CLR 18/17 A3003 RMK AO2 SLP166 T01830172 402780178","FM-15","7",,,,,,,,,,,,,,,,,,,,,,,,,,,,"2006-09-08"
"72518014735","2021-06-09T23:59:00","SOD  ","6",,,,,"PRECIP","260",,"PLASTIC","42.6918","-73.83109","NWS ALBANY, NY",,,,,"73",,,"29.67",,"4.1","8","7.8","0","82","64","030","18","T","0","0.0","020","14","TS FG BR",,,,,,,,,,,,,,,,,,,,,,,,,,,,,,,,,,,,,,,,,,,,,,,,,,,,,,,,"SOD75824 HR PRECIPITATION (IN):    T SNOW DEPTH (IN):0     24 HR SNOWFALL (IN):0.0  WEATHER(CODE):123  24 HR MAX TEMP (F): 8224 HR MIN TEMP (F): 64AVERAGE STATION PRESSURE:29.675 MINIMUM SEA LEVEL PRESSURE:29.96 TIME OF OCCURRENCE:1739 PEAK WIND SPEED (MPH): 18 PEAK WIND DIR (DEG): 30 PEAK WIND TIME (LST):      FASTEST 2MIN SPEED (MPH): 14FASTEST 2MIN DIR (DEG): 20 FASTEST 2MIN TIME (LST):     AVERAGE WIND SPEED (MPH): 4.1 24 HR AVG TEMP (F): 73DEPART FROM NORMAL:  6  HEATING DEGREE DAYS:  0 COOLING DEGREE DAYS:  8 LATEST DAY MAX TEMP (0700-1900 LST):82  LATEST NIGHT MIN TEMP(1900-0800 LST):66 HOURLY INCREMENTAL PRECIPITATION VALUES (IN):.00 0.00 0.00 0.00 0.00 0.00 0.00 0.00 0.00 0.00 0.00 0.00 0.00 T    0.00 T    0.00 0.00 0.00 0.00 0.00 0.00 0.00 0.00","SOD  ","6",,,,,,,,,,,,,,,,,,,,,,,,,"0417","1932",,"2006-09-08"
"72518014735","2021-06-10T00:51:00","FM-15","7",,,,,"PRECIP","260",,"PLASTIC","42.6918","-73.83109","NWS ALBANY, NY",,,,,,,,,,,,,,,,,,,,,,,,,,,"30.04","62","62","0.00",,"-0.02","3","100","30.03","CLR:00","29.72","10.00","62","310",,"3",,,,,,,,,,,,,,,,,,,,,,,,,,,,,,,,,,,,,"MET11306/10/21 00:51:02 METAR KALB 100551Z 31003KT 10SM CLR 17/17 A3004 RMK AO2 SLP171 T01670167 10239 20167 53006 (BA)","FM-15","7",,,,,,,,,,,,,,,,,,,,,,,,,,,,"2006-09-08"
"72518014735","2021-06-10T01:00:00","FM-12","4",,,,,"PRECIP","260",,"PLASTIC","42.6918","-73.83109","NWS ALBANY, NY",,,,,,,,,,,,,,,,,,,,,,,,,,,,"62","62",,,"-0.02","3","100","30.03",,"29.72","9.94","62","310",,"3",,,,,,,,,,,,,,,,,,,,,,,,,,,,,,,,,,,,,"SYN08072518 32966 03103 10167 20167 30065 40171 53006 90551 333 10239 20167 555 91006=","FM-12","4",,,,,,,,,,,,,,,,,,,,,,,,,,,,"2006-09-08"
"72518014735","2021-06-10T01:51:00","FM-15","7",,,,,"PRECIP","260",,"PLASTIC","42.6918","-73.83109","NWS ALBANY, NY",,,,,,,,,,,,,,,,,,,,,,,,,,,"30.04","60","61","0.00",,,,"97","30.03","FEW:02 60","29.72","10.00","60","330",,"5",,,,,,,,,,,,,,,,,,,,,,,,,,,,,,,,,,,,,"MET09806/10/21 01:51:02 METAR KALB 100651Z 33004KT 10SM FEW060 16/16 A3004 RMK AO2 SLP171 T01610156 (BA)","FM-15","7",,,,,,,,,,,,,,,,,,,,,,,,,,,,"2006-09-08"
"72518014735","2021-06-10T02:51:00","FM-15","7",,,,,"PRECIP","260",,"PLASTIC","42.6918","-73.83109","NWS ALBANY, NY",,,,,,,,,,,,,,,,,,,,,,,,,,,"30.04","60","60","0.00",,,,"100","30.03","FEW:02 60","29.72","10.00","60","330",,"6",,,,,,,,,,,,,,,,,,,,,,,,,,,,,,,,,,,,,"MET09806/10/21 02:51:02 METAR KALB 100751Z 33005KT 10SM FEW060 16/16 A3004 RMK AO2 SLP170 T01560156 (BA)","FM-15","7",,,,,,,,,,,,,,,,,,,,,,,,,,,,"2006-09-08"
"72518014735","2021-06-10T03:51:00","FM-15","7",,,,,"PRECIP","260",,"PLASTIC","42.6918","-73.83109","NWS ALBANY, NY",,,,,,,,,,,,,,,,,,,,,,,,,,,"30.04","57","58","0.00",,"-0.00","3","97","30.04","FEW:02 60 SCT:04 150","29.72","10.00","57","340",,"6",,,,,,,,,,,,,,,,,,,,,,,,,,,,,,,,,,,,,"MET11106/10/21 03:51:02 METAR KALB 100851Z 34005KT 10SM FEW060 SCT150 14/14 A3004 RMK AO2 SLP173 T01440139 53001 (BA)","FM-15","7",,,,,,,,,,,,,,,,,,,,,,,,,,,,"2006-09-08"
"72518014735","2021-06-10T04:00:00","FM-12","4",,,,,"PRECIP","260",,"PLASTIC","42.6918","-73.83109","NWS ALBANY, NY",,,,,,,,,,,,,,,,,,,,,,,,,,,,"57","58",,,"-0.00","3","97","30.04","57","29.72","9.94","57","340",,"6",,,,,,,,,,,,,,,,,,,,,,,,,,,,,,,,,,,,,"SYN06472518 32766 43405 10144 20139 30065 40173 53001 90851 555 91009=","FM-12","4",,,,,,,,,,,,,,,,,,,,,,,,,,,,"2006-09-08"
"72518014735","2021-06-10T04:51:00","FM-15","7",,,,,"PRECIP","260",,"PLASTIC","42.6918","-73.83109","NWS ALBANY, NY",,,,,,,,,,,,,,,,,,,,,,,,,,,"30.06","55","56","0.00",,,,"97","30.06","FEW:02 150 SCT:04 250","29.75","10.00","55","000",,"0",,,,,,,,,,,,,,,,,,,,,,,,,,,,,,,,,,,,,"MET10506/10/21 04:51:02 METAR KALB 100951Z 00000KT 10SM FEW150 SCT250 13/13 A3006 RMK AO2 SLP179 T01330128 (BA)","FM-15","7",,,,,,,,,,,,,,,,,,,,,,,,,,,,"2006-09-08"
"72518014735","2021-06-10T05:51:00","FM-15","7",,,,,"PRECIP","260",,"PLASTIC","42.6918","-73.83109","NWS ALBANY, NY",,,,,,,,,,,,,,,,,,,,,,,,,,,"30.08","54","60","0.00",,,,"80","30.08","BKN:07 250","29.76","10.00","57","330",,"7",,,,,,,,,,,,,,,,,,,,,,,,,,,,,,,,,,,,,"MET09806/10/21 05:51:02 METAR KALB 101051Z 33006KT 10SM BKN250 16/12 A3008 RMK AO2 SLP185 T01560122 (BA)","FM-15","7",,,,,,,,,,,,,,,,,,,,,,,,,,,,"2006-09-08"
"72518014735","2021-06-10T06:51:00","FM-15","7",,,,,"PRECIP","260",,"PLASTIC","42.6918","-73.83109","NWS ALBANY, NY",,,,,,,,,,,,,,,,,,,,,,,,,,,"30.10","49","62","0.00",,"-0.05","1","62","30.09","FEW:02 60 BKN:07 250","29.78","10.00","55","020",,"9",,,,,,,,,,,,,,,,,,,,,,,,,,,,,,,,,,,,,"MET12306/10/21 06:51:02 METAR KALB 101151Z 02008KT 10SM FEW060 BKN250 17/09 A3010 RMK AO2 SLP190 T01670094 10172 20133 51017 (JB)","FM-15","7",,,,,,,,,,,,,,,,,,,,,,,,,,,,"2006-09-08"
"72518014735","2021-06-10T07:00:00","FM-12","4",,,,,"PRECIP","260",,"PLASTIC","42.6918","-73.83109","NWS ALBANY, NY",,,,,,,,,,,,,,,,,,,,,,,,,,,,"49","62",,,"-0.05","1","62","30.09","57","29.78","9.94","55","020",,"9",,,,,,,,,,,,,,,,,,,,,,,,,,,,,,,,,,,,,"SYN08072518 32766 60208 10167 20094 30086 40190 51017 91151 333 10278 20133 555 91012=","FM-12","4",,,,,,,,,,,,,,,,,,,,,,,,,,,,"2006-09-08"
"72518014735","2021-06-10T07:51:00","FM-15","7",,,,,"PRECIP","260",,"PLASTIC","42.6918","-73.83109","NWS ALBANY, NY",,,,,,,,,,,,,,,,,,,,,,,,,,,"30.10","46","64","0.00",,,,"52","30.10","BKN:07 250","29.78","10.00","54","360",,"13",,,,,,,,,,,,,,,,,,,,,,,,,,,,,,,,,,,,,"MET09806/10/21 07:51:02 METAR KALB 101251Z 36011KT 10SM BKN250 18/08 A3010 RMK AO2 SLP193 T01780078 (JB)","FM-15","7",,,,,,,,,,,,,,,,,,,,,,,,,,,,"2006-09-08"
"72518014735","2021-06-10T08:51:00","FM-15","7",,,,,"PRECIP","260",,"PLASTIC","42.6918","-73.83109","NWS ALBANY, NY",,,,,,,,,,,,,,,,,,,,,,,,,,,"30.11","44","66","0.00",,,,"45","30.11","BKN:07 250","29.79","10.00","54","340",,"14",,,,,,,,,,,,,,,,,,,,,,,,,,,,,,,,,,,,,"MET09806/10/21 08:51:02 METAR KALB 101351Z 34012KT 10SM BKN250 19/07 A3011 RMK AO2 SLP195 T01890067 (JB)","FM-15","7",,,,,,,,,,,,,,,,,,,,,,,,,,,,"2006-09-08"
"72518014735","2021-06-10T09:51:00","FM-15","7",,,,,"PRECIP","260",,"PLASTIC","42.6918","-73.83109","NWS ALBANY, NY",,,,,,,,,,,,,,,,,,,,,,,,,,,"30.11","47","68","0.00",,"-0.01","0","47","30.10","BKN:07 250","29.79","10.00","57","360",,"8",,,,,,,,,,,,,,,,,,,,,,,,,,,,,,,,,,,,,"MET10406/10/21 09:51:02 METAR KALB 101451Z 36007KT 10SM BKN250 20/08 A3011 RMK AO2 SLP194 T02000083 50004 (JB)","FM-15","7",,,,,,,,,,,,,,,,,,,,,,,,,,,,"2006-09-08"
"72518014735","2021-06-10T10:00:00","FM-12","4",,,,,"PRECIP","260",,"PLASTIC","42.6918","-73.83109","NWS ALBANY, NY",,,,,,,,,,,,,,,,,,,,,,,,,,,,"47","68",,,"0.01","9","47","30.10",,"29.79","9.94","57","360",,"8",,,,,,,,,,,,,,,,,,,,,,,,,,,,,,,,,,,,,"SYN06472518 32966 63607 10200 20083 30089 40194 50004 91451 555 91015=","FM-12","4",,,,,,,,,,,,,,,,,,,,,,,,,,,,"2006-09-08"
"72518014735","2021-06-10T10:51:00","FM-15","7",,,,,"PRECIP","260",,"PLASTIC","42.6918","-73.83109","NWS ALBANY, NY",,,,,,,,,,,,,,,,,,,,,,,,,,,"30.10","50","70","0.00",,,,"49","30.10","FEW:02 65 BKN:07 250","29.78","10.00","59","330",,"8",,,,,,,,,,,,,,,,,,,,,,,,,,,,,,,,,,,,,"MET10506/10/21 10:51:02 METAR KALB 101551Z 33007KT 10SM FEW065 BKN250 21/10 A3010 RMK AO2 SLP192 T02110100 (JB)","FM-15","7",,,,,,,,,,,,,,,,,,,,,,,,,,,,"2006-09-08"
"72518014735","2021-06-10T11:51:00","FM-15","7",,,,,"PRECIP","260",,"PLASTIC","42.6918","-73.83109","NWS ALBANY, NY",,,,,,,,,,,,,,,,,,,,,,,,,,,"30.09","48","71","0.00",,,,"44","30.09","FEW:02 65 BKN:07 250","29.78","10.00","58","040",,"8",,,,,,,,,,,,,,,,,,,,,,,,,,,,,,,,,,,,,"MET10506/10/21 11:51:02 METAR KALB 101651Z 04007KT 10SM FEW065 BKN250 22/09 A3009 RMK AO2 SLP189 T02170089 (JB)","FM-15","7",,,,,,,,,,,,,,,,,,,,,,,,,,,,"2006-09-08"
"72518014735","2021-06-10T12:51:00","FM-15","7",,,,,"PRECIP","260",,"PLASTIC","42.6918","-73.83109","NWS ALBANY, NY",,,,,,,,,,,,,,,,,,,,,,,,,,,"30.08","49","73","0.00",,"+0.03","8","43","30.08","FEW:02 60 BKN:07 250","29.76","10.00","60","VRB",,"6",,,,,,,,,,,,,,,,,,,,,,,,,,,,,,,,,,,,,"MET12306/10/21 12:51:02 METAR KALB 101751Z VRB05KT 10SM FEW060 BKN250 23/09 A3008 RMK AO2 SLP185 T02280094 10228 20167 58009 (JB)","FM-15","7",,,,,,,,,,,,,,,,,,,,,,,,,,,,"2006-09-08"
"72518014735","2021-06-10T13:00:00","FM-12","4",,,,,"PRECIP","260",,"PLASTIC","42.6918","-73.83109","NWS ALBANY, NY",,,,,,,,,,,,,,,,,,,,,,,,,,,,"49","73",,,"+0.03","8","43","30.08","57","29.76","9.94","60",,,"6",,,,,,,,,,,,,,,,,,,,,,,,,,,,,,,,,,,,,"SYN08072518 32766 6//05 10228 20094 30079 40185 58009 91751 333 10228 20167 555 91018=","FM-12","4",,,,,,,,,,,,,,,,,,,,,,,,,,,,"2006-09-08"
"72518014735","2021-06-10T13:51:00","FM-15","7",,,,,"PRECIP","260",,"PLASTIC","42.6918","-73.83109","NWS ALBANY, NY",,,,,,,,,,,,,,,,,,,,,,,,,,,"30.06","48","74","0.00",,,,"40","30.06","FEW:02 65 SCT:04 250","29.75","10.00","59","010",,"8",,,,,,,,,,,,,,,,,,,,,,,,,,,,,,,,,,,,,"MET10506/10/21 13:51:02 METAR KALB 101851Z 01007KT 10SM FEW065 SCT250 23/09 A3006 RMK AO2 SLP178 T02330089 (JB)","FM-15","7",,,,,,,,,,,,,,,,,,,,,,,,,,,,"2006-09-08"
"72518014735","2021-06-10T14:51:00","FM-15","7",,,,,"PRECIP","260",,"PLASTIC","42.6918","-73.83109","NWS ALBANY, NY",,,,,,,,,,,,,,,,,,,,,,,,,,,"30.04","49","75","0.00",,,,"40","30.04","FEW:02 65 SCT:04 250","29.72","10.00","60","010",,"9",,,,,,,,,,,,,,,,,,,,,,,,,,,,,,,,,,,,,"MET10506/10/21 14:51:02 METAR KALB 101951Z 01008KT 10SM FEW065 SCT250 24/09 A3004 RMK AO2 SLP173 T02390094 (JF)","FM-15","7",,,,,,,,,,,,,,,,,,,,,,,,,,,,"2006-09-08"
"72518014735","2021-06-10T15:51:00","FM-15","7",,,,,"PRECIP","260",,"PLASTIC","42.6918","-73.83109","NWS ALBANY, NY",,,,,,,,,,,,,,,,,,,,,,,,,,,"30.03","43","74","0.00",,"+0.05","6","33","30.03","FEW:02 65 FEW:02 250","29.71","10.00","57","020",,"7",,,,,,,,,,,,,,,,,,,,,,,,,,,,,,,,,,,,,"MET11106/10/21 15:51:02 METAR KALB 102051Z 02006KT 10SM FEW065 FEW250 23/06 A3003 RMK AO2 SLP168 T02330061 56017 (JF)","FM-15","7",,,,,,,,,,,,,,,,,,,,,,,,,,,,"2006-09-08"
"72518014735","2021-06-10T16:51:00","FM-15","7",,,,,"PRECIP","260",,"PLASTIC","42.6918","-73.83109","NWS ALBANY, NY",,,,,,,,,,,,,,,,,,,,,,,,,,,"30.03","42","74","0.00",,,,"32","30.02","FEW:02 65 FEW:02 250","29.71","10.00","57","020",,"6",,,,,,,,,,,,,,,,,,,,,,,,,,,,,,,,,,,,,"MET10506/10/21 16:51:02 METAR KALB 102151Z 02005KT 10SM FEW065 FEW250 23/06 A3003 RMK AO2 SLP167 T02330056 (JF)","FM-15","7",,,,,,,,,,,,,,,,,,,,,,,,,,,,"2006-09-08"
"72518014735","2021-06-10T17:51:00","FM-15","7",,,,,"PRECIP","260",,"PLASTIC","42.6918","-73.83109","NWS ALBANY, NY",,,,,,,,,,,,,,,,,,,,,,,,,,,"30.02","42","73","0.00",,,,"33","30.02","FEW:02 250","29.70","10.00","57","010",,"7",,,,,,,,,,,,,,,,,,,,,,,,,,,,,,,,,,,,,"MET09806/10/21 17:51:02 METAR KALB 102251Z 01006KT 10SM FEW250 23/06 A3002 RMK AO2 SLP165 T02280056 (JF)","FM-15","7",,,,,,,,,,,,,,,,,,,,,,,,,,,,"2006-09-08"
"72518014735","2021-06-10T18:51:00","FM-15","7",,,,,"PRECIP","260",,"PLASTIC","42.6918","-73.83109","NWS ALBANY, NY",,,,,,,,,,,,,,,,,,,,,,,,,,,"30.02","41","70","0.00",,"+0.01","5","35","30.02","SCT:04 250","29.70","10.00","55","360",,"5",,,,,,,,,,,,,,,,,,,,,,,,,,,,,,,,,,,,,"MET11606/10/21 18:51:02 METAR KALB 102351Z 36004KT 10SM SCT250 21/05 A3002 RMK AO2 SLP165 T02110050 10239 20211 55003 (JF)","FM-15","7",,,,,,,,,,,,,,,,,,,,,,,,,,,,"2006-09-08"
"72518014735","2021-06-10T19:00:00","FM-12","4",,,,,"PRECIP","260",,"PLASTIC","42.6918","-73.83109","NWS ALBANY, NY",,,,,,,,,,,,,,,,,,,,,,,,,,,,"41","70",,,"+0.01","5","35","30.02",,"29.70","9.94","55","360",,"5",,,,,,,,,,,,,,,,,,,,,,,,,,,,,,,,,,,,,"SYN08072518 32966 43604 10211 20050 30059 40165 55003 92351 333 10239 20133 555 91100=","FM-12","4",,,,,,,,,,,,,,,,,,,,,,,,,,,,"2006-09-08"
"72518014735","2021-06-10T19:51:00","FM-15","7",,,,,"PRECIP","260",,"PLASTIC","42.6918","-73.83109","NWS ALBANY, NY",,,,,,,,,,,,,,,,,,,,,,,,,,,"30.02","42","66","0.00",,,,"42","30.02","SCT:04 250","29.70","10.00","54","340",,"3",,,,,,,,,,,,,,,,,,,,,,,,,,,,,,,,,,,,,"MET09306/10/21 19:51:01 METAR KALB 110051Z 34003KT 10SM SCT250 19/06 A3002 RMK AO2 SLP165 T01890056","FM-15","7",,,,,,,,,,,,,,,,,,,,,,,,,,,,"2006-09-08"
"72518014735","2021-06-10T20:51:00","FM-15","7",,,,,"PRECIP","260",,"PLASTIC","42.6918","-73.83109","NWS ALBANY, NY",,,,,,,,,,,,,,,,,,,,,,,,,,,"30.03","46","61","0.00",,,,"58","30.03","FEW:02 65 FEW:02 250","29.71","10.00","53","000",,"0",,,,,,,,,,,,,,,,,,,,,,,,,,,,,,,,,,,,,"MET10006/10/21 20:51:01 METAR KALB 110151Z 00000KT 10SM FEW065 FEW250 16/08 A3003 RMK AO2 SLP169 T01610078","FM-15","7",,,,,,,,,,,,,,,,,,,,,,,,,,,,"2006-09-08"
"72518014735","2021-06-10T21:51:00","FM-15","7",,,,,"PRECIP","260",,"PLASTIC","42.6918","-73.83109","NWS ALBANY, NY",,,,,,,,,,,,,,,,,,,,,,,,,,,"30.03","46","59","0.00",,"-0.01","0","62","30.03","FEW:02 65 FEW:02 250","29.71","10.00","52","330",,"3",,,,,,,,,,,,,,,,,,,,,,,,,,,,,,,,,,,,,"MET10606/10/21 21:51:02 METAR KALB 110251Z 33003KT 10SM FEW065 FEW250 15/08 A3003 RMK AO2 SLP168 T01500078 50002","FM-15","7",,,,,,,,,,,,,,,,,,,,,,,,,,,,"2006-09-08"
"72518014735","2021-06-10T22:00:00","FM-12","4",,,,,"PRECIP","260",,"PLASTIC","42.6918","-73.83109","NWS ALBANY, NY",,,,,,,,,,,,,,,,,,,,,,,,,,,,"46","59",,,"0.01","9","62","30.03","57","29.71","9.94","52","330",,"3",,,,,,,,,,,,,,,,,,,,,,,,,,,,,,,,,,,,,"SYN06472518 32766 23303 10150 20078 30062 40168 50002 90251 555 91103=","FM-12","4",,,,,,,,,,,,,,,,,,,,,,,,,,,,"2006-09-08"
"72518014735","2021-06-10T22:51:00","FM-15","7",,,,,"PRECIP","260",,"PLASTIC","42.6918","-73.83109","NWS ALBANY, NY",,,,,,,,,,,,,,,,,,,,,,,,,,,"30.05","47","59","0.00",,,,"64","30.04","FEW:02 250","29.73","10.00","53","030",,"3",,,,,,,,,,,,,,,,,,,,,,,,,,,,,,,,,,,,,"MET09306/10/21 22:51:02 METAR KALB 110351Z 03003KT 10SM FEW250 15/08 A3005 RMK AO2 SLP174 T01500083","FM-15","7",,,,,,,,,,,,,,,,,,,,,,,,,,,,"2006-09-08"
"72518014735","2021-06-10T23:51:00","FM-15","7",,,,,"PRECIP","260",,"PLASTIC","42.6918","-73.83109","NWS ALBANY, NY",,,,,,,,,,,,,,,,,,,,,,,,,,,"30.04","49","59","0.00",,,,"69","30.04","FEW:02 250","29.72","10.00","54","130",,"3",,,,,,,,,,,,,,,,,,,,,,,,,,,,,,,,,,,,,"MET10306/10/21 23:51:02 METAR KALB 110451Z 13003KT 10SM FEW250 15/09 A3004 RMK AO2 SLP173 T01500094 402390133","FM-15","7",,,,,,,,,,,,,,,,,,,,,,,,,,,,"2006-09-08"
"72518014735","2021-06-10T23:59:00","SOD  ","6",,,,,"PRECIP","260",,"PLASTIC","42.6918","-73.83109","NWS ALBANY, NY",,,,,"66",,,"29.74",,"6.1","1","0.5","0","75","56","020","21","0.00",,"0.0","350","16",,,,,,,,,,,,,,,,,,,,,,,,,,,,,,,,,,,,,,,,,,,,,,,,,,,,,,,,,"SOD71824 HR PRECIPITATION (IN): 0.00  24 HR SNOWFALL (IN):0.0  24 HR MAX TEMP (F): 7524 HR MIN TEMP (F): 56AVERAGE STATION PRESSURE:29.740 MINIMUM SEA LEVEL PRESSURE:30.01 TIME OF OCCURRENCE:1832 PEAK WIND SPEED (MPH): 21 PEAK WIND DIR (DEG): 20 PEAK WIND TIME (LST):      FASTEST 2MIN SPEED (MPH): 16FASTEST 2MIN DIR (DEG):350 FASTEST 2MIN TIME (LST):     AVERAGE WIND SPEED (MPH): 6.1 24 HR AVG TEMP (F): 66DEPART FROM NORMAL: -1  HEATING DEGREE DAYS:  0 COOLING DEGREE DAYS:  1 LATEST DAY MAX TEMP (0700-1900 LST):75  LATEST NIGHT MIN TEMP(1900-0800 LST):56 HOURLY INCREMENTAL PRECIPITATION VALUES (IN):.00 0.00 0.00 0.00 0.00 0.00 0.00 0.00 0.00 0.00 0.00 0.00 0.00 0.00 0.00 0.00 0.00 0.00 0.00 0.00 0.00 0.00 0.00 0.00","SOD  ","6",,,,,,,,,,,,,,,,,,,,,,,,,"0417","1933",,"2006-09-08"
"72518014735","2021-06-11T00:51:00","FM-15","7",,,,,"PRECIP","260",,"PLASTIC","42.6918","-73.83109","NWS ALBANY, NY",,,,,,,,,,,,,,,,,,,,,,,,,,,"30.04","48","57","0.00",,"-0.01","1","72","30.04","SCT:04 70","29.72","10.00","52","180",,"5",,,,,,,,,,,,,,,,,,,,,,,,,,,,,,,,,,,,,"MET11606/11/21 00:51:02 METAR KALB 110551Z 18004KT 10SM SCT070 14/09 A3004 RMK AO2 SLP173 T01390089 10211 20133 51005 (BA)","FM-15","7",,,,,,,,,,,,,,,,,,,,,,,,,,,,"2006-09-08"
"72518014735","2021-06-11T01:00:00","FM-12","4",,,,,"PRECIP","260",,"PLASTIC","42.6918","-73.83109","NWS ALBANY, NY",,,,,,,,,,,,,,,,,,,,,,,,,,,,"48","57",,,"-0.01","1","72","30.04","74","29.72","9.94","52","180",,"5",,,,,,,,,,,,,,,,,,,,,,,,,,,,,,,,,,,,,"SYN08072518 32866 41804 10139 20089 30065 40173 51005 90551 333 10211 20133 555 91106=","FM-12","4",,,,,,,,,,,,,,,,,,,,,,,,,,,,"2006-09-08"
"72518014735","2021-06-11T01:51:00","FM-15","7",,,,,"PRECIP","260",,"PLASTIC","42.6918","-73.83109","NWS ALBANY, NY",,,,,,,,,,,,,,,,,,,,,,,,,,,"30.04","51","59","0.00",,,,"75","30.03","SCT:04 70","29.72","10.00","55","140",,"7",,,,,,,,,,,,,,,,,,,,,,,,,,,,,,,,,,,,,"MET09806/11/21 01:51:02 METAR KALB 110651Z 14006KT 10SM SCT070 15/11 A3004 RMK AO2 SLP171 T01500106 (BA)","FM-15","7",,,,,,,,,,,,,,,,,,,,,,,,,,,,"2006-09-08"
"72518014735","2021-06-11T02:51:00","FM-15","7",,,,,"PRECIP","260",,"PLASTIC","42.6918","-73.83109","NWS ALBANY, NY",,,,,,,,,,,,,,,,,,,,,,,,,,,"30.04","48","59","0.00",,,,"67","30.04","FEW:02 65 BKN:07 80","29.72","10.00","53","160",,"9",,,,,,,,,,,,,,,,,,,,,,,,,,,,,,,,,,,,,"MET10506/11/21 02:51:02 METAR KALB 110751Z 16008KT 10SM FEW065 BKN080 15/09 A3004 RMK AO2 SLP172 T01500089 (BA)","FM-15","7",,,,,,,,,,,,,,,,,,,,,,,,,,,,"2006-09-08"
"72518014735","2021-06-11T03:51:00","FM-15","7",,,,,"PRECIP","260",,"PLASTIC","42.6918","-73.83109","NWS ALBANY, NY",,,,,,,,,,,,,,,,,,,,,,,,,,,"30.05","46","57","0.00",,"-0.01","3","67","30.05","BKN:07 75","29.73","10.00","51","150",,"9",,,,,,,,,,,,,,,,,,,,,,,,,,,,,,,,,,,,,"MET10406/11/21 03:51:02 METAR KALB 110851Z 15008KT 10SM BKN075 14/08 A3005 RMK AO2 SLP175 T01390078 53003 (BA)","FM-15","7",,,,,,,,,,,,,,,,,,,,,,,,,,,,"2006-09-08"
"72518014735","2021-06-11T04:00:00","FM-12","4",,,,,"PRECIP","260",,"PLASTIC","42.6918","-73.83109","NWS ALBANY, NY",,,,,,,,,,,,,,,,,,,,,,,,,,,,"46","57",,,"-0.01","3","67","30.05","74","29.73","9.94","51","150",,"9",,,,,,,,,,,,,,,,,,,,,,,,,,,,,,,,,,,,,"SYN06472518 32866 61508 10139 20078 30069 40175 53003 90851 555 91109=","FM-12","4",,,,,,,,,,,,,,,,,,,,,,,,,,,,"2006-09-08"
"72518014735","2021-06-11T04:51:00","FM-15","7",,,,,"PRECIP","260",,"PLASTIC","42.6918","-73.83109","NWS ALBANY, NY",,,,,,,,,,,,,,,,,,,,,,,,,,,"30.05","44","57","0.00",,,,"62","30.05","SCT:04 60 BKN:07 80","29.73","10.00","50","150",,"10",,,,,,,,,,,,,,,,,,,,,,,,,,,,,,,,,,,,,"MET10506/11/21 04:51:02 METAR KALB 110951Z 15009KT 10SM SCT060 BKN080 14/07 A3005 RMK AO2 SLP176 T01390067 (BA)","FM-15","7",,,,,,,,,,,,,,,,,,,,,,,,,,,,"2006-09-08"
"72518014735","2021-06-11T05:51:00","FM-15","7",,,,,"PRECIP","260",,"PLASTIC","42.6918","-73.83109","NWS ALBANY, NY",,,,,,,,,,,,,,,,,,,,,,,,,,,"30.04","42","56","0.00",,,,"60","30.04","BKN:07 60 BKN:07 85","29.72","10.00","49","150",,"9",,,,,,,,,,,,,,,,,,,,,,,,,,,,,,,,,,,,,"MET10506/11/21 05:51:02 METAR KALB 111051Z 15008KT 10SM BKN060 BKN085 13/06 A3004 RMK AO2 SLP173 T01330056 (BA)","FM-15","7",,,,,,,,,,,,,,,,,,,,,,,,,,,,"2006-09-08"
"72518014735","2021-06-11T06:51:00","FM-15","7",,,,,"PRECIP","260",,"PLASTIC","42.6918","-73.83109","NWS ALBANY, NY",,,,,,,,,,,,,,,,,,,,,,,,,,,"30.03","43","57","0.00",,"+0.02","8","60","30.03","FEW:02 60 BKN:07 80 BKN:07 250","29.71","10.00","50","130",,"9",,,,,,,,,,,,,,,,,,,,,,,,,,,,,,,,,,,,,"MET13006/11/21 06:51:02 METAR KALB 111151Z 13008KT 10SM FEW060 BKN080 BKN250 14/06 A3003 RMK AO2 SLP170 T01390061 10156 20133 58006 (BA)","FM-15","7",,,,,,,,,,,,,,,,,,,,,,,,,,,,"2006-09-08"
"72518014735","2021-06-11T07:00:00","FM-12","4",,,,,"PRECIP","260",,"PLASTIC","42.6918","-73.83109","NWS ALBANY, NY",,,,,,,,,,,,,,,,,,,,,,,,,,,,"43","57",,,"+0.02","8","60","30.03","57","29.71","9.94","50","130",,"9",,,,,,,,,,,,,,,,,,,,,,,,,,,,,,,,,,,,,"SYN08072518 32766 61308 10139 20061 30062 40170 58006 91151 333 10239 20133 555 91112=","FM-12","4",,,,,,,,,,,,,,,,,,,,,,,,,,,,"2006-09-08"
"72518014735","2021-06-11T07:51:00","FM-15","7",,,,,"PRECIP","260",,"PLASTIC","42.6918","-73.83109","NWS ALBANY, NY",,,,,,,,,,,,,,,,,,,,,,,,,,,"30.02","43","61","0.00",,,,"52","30.02","SCT:04 60 BKN:07 80 BKN:07 250","29.70","10.00","52","170",,"10",,,,,,,,,,,,,,,,,,,,,,,,,,,,,,,,,,,,,"MET11206/11/21 07:51:02 METAR KALB 111251Z 17009KT 10SM SCT060 BKN080 BKN250 16/06 A3002 RMK AO2 SLP166 T01610061 (JB)","FM-15","7",,,,,,,,,,,,,,,,,,,,,,,,,,,,"2006-09-08"
"72518014735","2021-06-11T08:51:00","FM-15","7",,,,,"PRECIP","260",,"PLASTIC","42.6918","-73.83109","NWS ALBANY, NY",,,,,,,,,,,,,,,,,,,,,,,,,,,"30.01","43","62","0.00",,,,"50","30.01","BKN:07 60 BKN:07 80 BKN:07 250","29.70","10.00","52","170",,"13",,,,,,,,,,,,,,,,,,,,,,,,,,,,,,,,,,,,,"MET11206/11/21 08:51:02 METAR KALB 111351Z 17011KT 10SM BKN060 BKN080 BKN250 17/06 A3001 RMK AO2 SLP163 T01670061 (JB)","FM-15","7",,,,,,,,,,,,,,,,,,,,,,,,,,,,"2006-09-08"
"72518014735","2021-06-11T09:51:00","FM-15","7",,,,,"PRECIP","260",,"PLASTIC","42.6918","-73.83109","NWS ALBANY, NY",,,,,,,,,,,,,,,,,,,,,,,,,,,"30.00","44","65","0.00",,"+0.03","6","47","30.00","BKN:07 65 BKN:07 80 BKN:07 250","29.68","10.00","54","170",,"13",,,,,,,,,,,,,,,,,,,,,,,,,,,,,,,,,,,,,"MET11806/11/21 09:51:02 METAR KALB 111451Z 17011KT 10SM BKN065 BKN080 BKN250 18/07 A3000 RMK AO2 SLP160 T01830067 56009 (JB)","FM-15","7",,,,,,,,,,,,,,,,,,,,,,,,,,,,"2006-09-08"
"72518014735","2021-06-11T10:00:00","FM-12","4",,,,,"PRECIP","260",,"PLASTIC","42.6918","-73.83109","NWS ALBANY, NY",,,,,,,,,,,,,,,,,,,,,,,,,,,,"44","65",,,"+0.03","6","47","30.00","57","29.68","9.94","54","170",,"13",,,,,,,,,,,,,,,,,,,,,,,,,,,,,,,,,,,,,"SYN06472518 32766 61711 10183 20067 30052 40160 56009 91451 555 91115=","FM-12","4",,,,,,,,,,,,,,,,,,,,,,,,,,,,"2006-09-08"
"72518014735","2021-06-11T10:51:00","FM-15","7",,,,,"PRECIP","260",,"PLASTIC","42.6918","-73.83109","NWS ALBANY, NY",,,,,,,,,,,,,,,,,,,,,,,,,,,"29.99","44","65","T",,,,"47","29.99","BKN:07 70 OVC:08 85","29.67","10.00","54","160",,"9",,,,,,,,,,,,,,,,,,,,,,,,,,,,,,,,,,,,,"MET12006/11/21 10:51:02 METAR KALB 111551Z 16008KT 10SM BKN070 OVC085 18/07 A2999 RMK AO2 RAB13E25 SLP155 P0000 T01830067 (JB)","FM-15","7",,,,,,,,,,,,,,,,,,,,,,,,,,,,"2006-09-08"
"72518014735","2021-06-11T11:51:00","FM-15","7",,,,,"PRECIP","260",,"PLASTIC","42.6918","-73.83109","NWS ALBANY, NY",,,,,,,,,,,,,,,,,,,,,,,,,,,"29.97","44","66","0.00",,,,"45","29.97","BKN:07 70 OVC:08 90","29.65","10.00","54","160",,"8",,,,,,,,,,,,,,,,,,,,,,,,,,,,,,,,,,,,,"MET10506/11/21 11:51:02 METAR KALB 111651Z 16007KT 10SM BKN070 OVC090 19/07 A2997 RMK AO2 SLP148 T01890067 (JB)","FM-15","7",,,,,,,,,,,,,,,,,,,,,,,,,,,,"2006-09-08"
"72518014735","2021-06-11T12:51:00","FM-15","7",,,,,"PRECIP","260",,"PLASTIC","42.6918","-73.83109","NWS ALBANY, NY",,,,,,,,,,,,,,,,,,,,,,,,,,,"29.94","46","67","0.00",,"+0.06","8","47","29.93","FEW:02 75 OVC:08 85","29.62","10.00","56","170",,"8",,,,,,,,,,,,,,,,,,,,,,,,,,,,,,,,,,,,,"MET12906/11/21 12:51:02 METAR KALB 111751Z 17007KT 10SM FEW075 OVC085 19/08 A2994 RMK AO2 SLP137 60000 T01940078 10200 20139 58022 (JB)","FM-15","7",,,,,,,,,,,,,,,,,,,,,,,,,,,,"2006-09-08"
"72518014735","2021-06-11T13:00:00","FM-12","4",,,,,"PRECIP","260",,"PLASTIC","42.6918","-73.83109","NWS ALBANY, NY",,,,,,,,,,,,,,,,,,,,,,,,,,,,"46","67",,,"+0.06","8","47","29.93","74","29.62","9.94","56","170",,"8",,,,,,,,,,,,,,,,,,,,,,,,,,,,,,,,,,,,,"SYN08672518 12866 81707 10194 20078 30032 40137 58022 69901 91751 333 10200 20139 555 91118=","FM-12","4",,,,,,,,,,,,,,,,,,,,,,,,,,,,"2006-09-08"
"72518014735","2021-06-11T13:51:00","FM-15","7",,,,,"PRECIP","260",,"PLASTIC","42.6918","-73.83109","NWS ALBANY, NY",,,,,,,,,,,,,,,,,,,,,,,,,,,"29.93","48","68","0.00",,,,"49","29.93","BKN:07 75 OVC:08 85","29.62","10.00","57","160",,"8",,,,,,,,,,,,,,,,,,,,,,,,,,,,,,,,,,,,,"MET10506/11/21 13:51:02 METAR KALB 111851Z 16007KT 10SM BKN075 OVC085 20/09 A2993 RMK AO2 SLP135 T02000089 (JB)","FM-15","7",,,,,,,,,,,,,,,,,,,,,,,,,,,,"2006-09-08"
"72518014735","2021-06-11T14:51:00","FM-15","7",,,,,"PRECIP","260",,"PLASTIC","42.6918","-73.83109","NWS ALBANY, NY",,,,,,,,,,,,,,,,,,,,,,,,,,,"29.92","50","68","0.00",,,,"53","29.92","OVC:08 70","29.61","10.00","58","120",,"5",,,,,,,,,,,,,,,,,,,,,,,,,,,,,,,,,,,,,"MET09906/11/21 14:51:02 METAR KALB 111951Z 12004KT 10SM OVC070 20/10 A2992 RMK AO2 SLP131 T02000100 (MAK)","FM-15","7",,,,,,,,,,,,,,,,,,,,,,,,,,,,"2006-09-08"
"72518014735","2021-06-11T15:51:00","FM-15","7",,,,,"PRECIP","260",,"PLASTIC","42.6918","-73.83109","NWS ALBANY, NY",,,,,,,,,,,,,,,,,,,,,,,,,,,"29.90","53","68","0.00",,"+0.04","8","59","29.90","OVC:08 70","29.59","10.00","59","000",,"0",,,,,,,,,,,,,,,,,,,,,,,,,,,,,,,,,,,,,"MET10506/11/21 15:51:02 METAR KALB 112051Z 00000KT 10SM OVC070 20/12 A2990 RMK AO2 SLP125 T02000117 58013 (MAK)","FM-15","7",,,,,,,,,,,,,,,,,,,,,,,,,,,,"2006-09-08"
"72518014735","2021-06-11T16:00:00","FM-12","4",,,,,"PRECIP","260",,"PLASTIC","42.6918","-73.83109","NWS ALBANY, NY",,,,,,,,,,,,,,,,,,,,,,,,,,,,"53","68",,,"+0.04","8","59","29.90","74","29.58","9.94","59","000",,"0",,,,,,,,,,,,,,,,,,,,,,,,,,,,,,,,,,,,,"SYN06472518 32866 80000 10200 20117 30018 40125 58013 92051 555 91121=","FM-12","4",,,,,,,,,,,,,,,,,,,,,,,,,,,,"2006-09-08"
"72518014735","2021-06-11T16:51:00","FM-15","7",,,,,"PRECIP","260",,"PLASTIC","42.6918","-73.83109","NWS ALBANY, NY",,,,,,,,,,,,,,,,,,,,,,,,,,,"29.89","54","65","0.00",,,,"68","29.88","OVC:08 70","29.57","10.00","59","020",,"5",,,,,,,,,,,,,,,,,,,,,,,,,,,,,,,,,,,,,"MET09906/11/21 16:51:02 METAR KALB 112151Z 02004KT 10SM OVC070 18/12 A2989 RMK AO2 SLP120 T01830122 (MAK)","FM-15","7",,,,,,,,,,,,,,,,,,,,,,,,,,,,"2006-09-08"
"72518014735","2021-06-11T17:51:00","FM-15","7",,,,,"PRECIP","260",,"PLASTIC","42.6918","-73.83109","NWS ALBANY, NY",,,,,,,,,,,,,,,,,,,,,,,,,,,"29.88","55","64","0.00",,,,"73","29.88","OVC:08 80","29.57","10.00","59","000",,"0",,,,,,,,,,,,,,,,,,,,,,,,,,,,,,,,,,,,,"MET09906/11/21 17:51:02 METAR KALB 112251Z 00000KT 10SM OVC080 18/13 A2988 RMK AO2 SLP117 T01780128 (MAK)","FM-15","7",,,,,,,,,,,,,,,,,,,,,,,,,,,,"2006-09-08"
"72518014735","2021-06-11T18:51:00","FM-15","7",,,,,"PRECIP","260",,"PLASTIC","42.6918","-73.83109","NWS ALBANY, NY",,,,,,,,,,,,,,,,,,,,,,,,,,,"29.88","56","63","0.00",,"+0.02","5","78","29.88","BKN:07 70 OVC:08 90","29.57","10.00","59","330",,"5",,,,,,,,,,,,,,,,,,,,,,,,,,,,,,,,,,,,,"MET12406/11/21 18:51:02 METAR KALB 112351Z 33004KT 10SM BKN070 OVC090 17/13 A2988 RMK AO2 SLP118 T01720133 10206 20172 55007 (MAK)","FM-15","7",,,,,,,,,,,,,,,,,,,,,,,,,,,,"2006-09-08"
"72518014735","2021-06-11T19:00:00","FM-12","4",,,,,"PRECIP","260",,"PLASTIC","42.6918","-73.83109","NWS ALBANY, NY",,,,,,,,,,,,,,,,,,,,,,,,,,,,"56","63",,,"+0.02","5","78","29.88","74","29.57","9.94","59","330",,"5",,,,,,,,,,,,,,,,,,,,,,,,,,,,,,,,,,,,,"SYN08072518 32866 83304 10172 20133 30012 40118 55007 92351 333 10206 20133 555 91200=","FM-12","4",,,,,,,,,,,,,,,,,,,,,,,,,,,,"2006-09-08"
"72518014735","2021-06-11T19:51:00","FM-15","7",,,,,"PRECIP","260",,"PLASTIC","42.6918","-73.83109","NWS ALBANY, NY",,,,,,,,,,,,,,,,,,,,,,,,,,,"29.87","54","62","T","-RA:02 |RA |RA",,,"75","29.87","BKN:07 70 OVC:08 90","29.56","10.00","57","350",,"5",,,,,,,,,,,,,,,,,,,,,,,,,,,,,,,,,,,,,"MET11606/11/21 19:51:01 METAR KALB 120051Z 35004KT 10SM -RA BKN070 OVC090 17/12 A2987 RMK AO2 RAB49 SLP115 P0000 T01670122","FM-15","7",,,,,,,,,,,,,,,,,,,,,,,,,,,,"2006-09-08"
"72518014735","2021-06-11T20:51:00","FM-15","7",,,,,"PRECIP","260",,"PLASTIC","42.6918","-73.83109","NWS ALBANY, NY",,,,,,,,,,,,,,,,,,,,,,,,,,,"29.89","54","61","T",,,,"78","29.88","BKN:07 70 OVC:08 85","29.57","10.00","57","010",,"5",,,,,,,,,,,,,,,,,,,,,,,,,,,,,,,,,,,,,"MET11206/11/21 20:51:01 METAR KALB 120151Z 01004KT 10SM BKN070 OVC085 16/12 A2989 RMK AO2 RAE50 SLP119 P0000 T01610122","FM-15","7",,,,,,,,,,,,,,,,,,,,,,,,,,,,"2006-09-08"
"72518014735","2021-06-11T21:51:00","FM-15","7",,,,,"PRECIP","260",,"PLASTIC","42.6918","-73.83109","NWS ALBANY, NY",,,,,,,,,,,,,,,,,,,,,,,,,,,"29.88","56","58","T",,"-0.00","0","93","29.88","FEW:02 55 BKN:07 90 OVC:08 110","29.57","10.00","57","330",,"3",,,,,,,,,,,,,,,,,,,,,,,,,,,,,,,,,,,,,"MET13406/11/21 21:51:02 METAR KALB 120251Z 33003KT 10SM FEW055 BKN090 OVC110 14/13 A2988 RMK AO2 RAB21E46 SLP117 P0000 60000 T01440133 50000","FM-15","7",,,,,,,,,,,,,,,,,,,,,,,,,,,,"2006-09-08"
"72518014735","2021-06-11T22:00:00","FM-12","4",,,,,"PRECIP","260",,"PLASTIC","42.6918","-73.83109","NWS ALBANY, NY",,,,,,,,,,,,,,,,,,,,,,,,,,,,"56","58",,,"0.00","9","93","29.88","57","29.57","9.94","57","330",,"3",,,,,,,,,,,,,,,,,,,,,,,,,,,,,,,,,,,,,"SYN07072518 12766 83303 10144 20133 30012 40117 50000 69907 90251 555 91203=","FM-12","4",,,,,,,,,,,,,,,,,,,,,,,,,,,,"2006-09-08"
"72518014735","2021-06-11T22:51:00","FM-15","7",,,,,"PRECIP","260",,"PLASTIC","42.6918","-73.83109","NWS ALBANY, NY",,,,,,,,,,,,,,,,,,,,,,,,,,,"29.88","56","56","T","-RA:02 |RA |RA",,,"100","29.88","BKN:07 80","29.57","10.00","56","320",,"6",,,,,,,,,,,,,,,,,,,,,,,,,,,,,,,,,,,,,"MET11106/11/21 22:51:02 METAR KALB 120351Z 32005KT 10SM -RA BKN080 13/13 A2988 RMK AO2 RAB0259 SLP117 P0000 T01330133","FM-15","7",,,,,,,,,,,,,,,,,,,,,,,,,,,,"2006-09-08"
"72518014735","2021-06-11T23:51:00","FM-15","7",,,,,"PRECIP","260",,"PLASTIC","42.6918","-73.83109","NWS ALBANY, NY",,,,,,,,,,,,,,,,,,,,,,,,,,,"29.88","56","56","T",,,,"100","29.88","OVC:08 75","29.57","10.00","56","000",,"0",,,,,,,,,,,,,,,,,,,,,,,,,,,,,,,,,,,,,"MET11506/11/21 23:51:02 METAR KALB 120451Z 00000KT 10SM OVC075 13/13 A2988 RMK AO2 RAE49 SLP117 P0000 T01330133 402060133","FM-15","7",,,,,,,,,,,,,,,,,,,,,,,,,,,,"2006-09-08"
"72518014735","2021-06-11T23:59:00","SOD  ","6",,,,,"PRECIP","260",,"PLASTIC","42.6918","-73.83109","NWS ALBANY, NY",,,,,"63",,,"29.65",,"6.7","0","-2.8","2","69","56","150","20","T","0","0.0","160","15","RA",,,,,,,,,,,,,,,,,,,,,,,,,,,,,,,,,,,,,,,,,,,,,,,,,,,,,,,,"SOD73624 HR PRECIPITATION (IN):    T SNOW DEPTH (IN):0     24 HR SNOWFALL (IN):0.0  24 HR MAX TEMP (F): 6924 HR MIN TEMP (F): 56AVERAGE STATION PRESSURE:29.655 MINIMUM SEA LEVEL PRESSURE:29.87 TIME OF OCCURRENCE:2359 PEAK WIND SPEED (MPH): 20 PEAK WIND DIR (DEG):150 PEAK WIND TIME (LST):      FASTEST 2MIN SPEED (MPH): 15FASTEST 2MIN DIR (DEG):160 FASTEST 2MIN TIME (LST):     AVERAGE WIND SPEED (MPH): 6.7 24 HR AVG TEMP (F): 63DEPART FROM NORMAL: -4  HEATING DEGREE DAYS:  2 COOLING DEGREE DAYS:  0 LATEST DAY MAX TEMP (0700-1900 LST):69  LATEST NIGHT MIN TEMP(1900-0800 LST):56 HOURLY INCREMENTAL PRECIPITATION VALUES (IN):.00 0.00 0.00 0.00 0.00 0.00 0.00 0.00 0.00 0.00 T    0.00 0.00 0.00 0.00 0.00 0.00 0.00 0.00 T    T    T    T    T","SOD  ","6",,,,,,,,,,,,,,,,,,,,,,,,,"0417","1933",,"2006-09-08"
"72518014735","2021-06-12T00:51:00","FM-15","7",,,,,"PRECIP","260",,"PLASTIC","42.6918","-73.83109","NWS ALBANY, NY",,,,,,,,,,,,,,,,,,,,,,,,,,,"29.87","56","56","0.00",,"+0.01","8","100","29.87","SCT:04 30 SCT:04 47 OVC:08 75","29.56","10.00","56","310",,"3",,,,,,,,,,,,,,,,,,,,,,,,,,,,,,,,,,,,,"MET13606/12/21 00:51:02 METAR KALB 120551Z 31003KT 10SM SCT030 SCT047 OVC075 13/13 A2987 RMK AO2 SLP115 60000 T01330133 10172 20128 58002 (CL)","FM-15","7",,,,,,,,,,,,,,,,,,,,,,,,,,,,"2006-09-08"
"72518014735","2021-06-12T01:00:00","FM-12","4",,,,,"PRECIP","260",,"PLASTIC","42.6918","-73.83109","NWS ALBANY, NY",,,,,,,,,,,,,,,,,,,,,,,,,,,,"56","56",,,"+0.01","8","100","29.87","26","29.55","9.94","56","310",,"3",,,,,,,,,,,,,,,,,,,,,,,,,,,,,,,,,,,,,"SYN08672518 12566 83103 10133 20133 30008 40115 58002 69901 90551 333 10172 20128 555 91206=","FM-12","4",,,,,,,,,,,,,,,,,,,,,,,,,,,,"2006-09-08"
"72518014735","2021-06-12T01:25:00","FM-16","7",,,,,"PRECIP","260",,"PLASTIC","42.6918","-73.83109","NWS ALBANY, NY",,,,,,,,,,,,,,,,,,,,,,,,,,,"29.87","56","56","T","-RA:02 |RA |RA",,,"100",,"SCT:04 7 BKN:07 46 OVC:08 60","29.56","10.00","56","320",,"6",,,,,,,,,,,,,,,,,,,,,,,,,,,,,,,,,,,,,"MET12106/12/21 01:25:02 SPECI KALB 120625Z 32005KT 10SM -RA SCT007 BKN046 OVC060 13/13 A2987 RMK AO2 RAB17 P0000 T01330133 (CL)","FM-16","7",,,,,,,,,,,,,,,,,,,,,,,,,,,,"2006-09-08"
"72518014735","2021-06-12T01:51:00","FM-15","7",,,,,"PRECIP","260",,"PLASTIC","42.6918","-73.83109","NWS ALBANY, NY",,,,,,,,,,,,,,,,,,,,,,,,,,,"29.86","56","56","T","-RA:02 |RA |RA",,,"100","29.86","FEW:02 6 SCT:04 43 OVC:08 60","29.54","10.00","56","000",,"0",,,,,,,,,,,,,,,,,,,,,,,,,,,,,,,,,,,,,"MET12806/12/21 01:51:02 METAR KALB 120651Z 00000KT 10SM -RA FEW006 SCT043 OVC060 13/13 A2986 RMK AO2 RAB17 SLP111 P0000 T01330133 (CL)","FM-15","7",,,,,,,,,,,,,,,,,,,,,,,,,,,,"2006-09-08"
"72518014735","2021-06-12T02:51:00","FM-15","7",,,,,"PRECIP","260",,"PLASTIC","42.6918","-73.83109","NWS ALBANY, NY",,,,,,,,,,,,,,,,,,,,,,,,,,,"29.86","56","56","0.01","-RA:02 |RA |RA",,,"100","29.85","FEW:02 6 OVC:08 55","29.54","10.00","56","020",,"3",,,,,,,,,,,,,,,,,,,,,,,,,,,,,,,,,,,,,"MET11506/12/21 02:51:02 METAR KALB 120751Z 02003KT 10SM -RA FEW006 OVC055 13/13 A2986 RMK AO2 SLP110 P0000 T01330133 (CL)","FM-15","7",,,,,,,,,,,,,,,,,,,,,,,,,,,,"2006-09-08"
"72518014735","2021-06-12T03:51:00","FM-15","7",,,,,"PRECIP","260",,"PLASTIC","42.6918","-73.83109","NWS ALBANY, NY",,,,,,,,,,,,,,,,,,,,,,,,,,,"29.86","56","56","0.08","-RA:02 BR:1 |RA |RA","+0.02","6","100","29.85","FEW:02 22 BKN:07 32 OVC:08 45","29.54","6.00","56","000",,"0",,,,,,,,,,,,,,,,,,,,,,,,,,,,,,,,,,,,,"MET13606/12/21 03:51:02 METAR KALB 120851Z 00000KT 6SM -RA BR FEW022 BKN032 OVC045 13/13 A2986 RMK AO2 SLP109 P0009 60009 T01330133 56006 (CL)","FM-15","7",,,,,,,,,,,,,,,,,,,,,,,,,,,,"2006-09-08"
"72518014735","2021-06-12T04:00:00","FM-12","4",,,,,"PRECIP","260",,"PLASTIC","42.6918","-73.83109","NWS ALBANY, NY",,,,,,,,,,,,,,,,,,,,,,,,,,,,"56","56",,"||RA","+0.02","6","100","29.85","26","29.54","5.59","56","000",,"0",,,,,,,,,,,,,,,,,,,,,,,,,,,,,,,,,,,,,"SYN08672518 11559 80000 10133 20133 30005 40109 56006 60027 761// 90851 333 96010 555 91209=","FM-12","4",,,,,,,,,,,,,,,,,,,,,,,,,,,,"2006-09-08"
"72518014735","2021-06-12T04:12:00","FM-16","7",,,,,"PRECIP","260",,"PLASTIC","42.6918","-73.83109","NWS ALBANY, NY",,,,,,,,,,,,,,,,,,,,,,,,,,,"29.86","56","56","T",,,,"100",,"SCT:04 6 OVC:08 47","29.54","10.00","56","350",,"3",,,,,,,,,,,,,,,,,,,,,,,,,,,,,,,,,,,,,"MET11006/12/21 04:12:02 SPECI KALB 120912Z 35003KT 10SM SCT006 OVC047 13/13 A2986 RMK AO2 RAE08 P0000 T01330133 (CL)","FM-16","7",,,,,,,,,,,,,,,,,,,,,,,,,,,,"2006-09-08"
"72518014735","2021-06-12T04:26:00","FM-16","7",,,,,"PRECIP","260",,"PLASTIC","42.6918","-73.83109","NWS ALBANY, NY",,,,,,,,,,,,,,,,,,,,,,,,,,,"29.86","56","56","T","-RA:02 |RA |RA",,,"100",,"BKN:07 6 BKN:07 25 OVC:08 49","29.54","10.00","56","350",,"5",,,,,,,,,,,,,,,,,,,,,,,,,,,,,,,,,,,,,"MET12406/12/21 04:26:02 SPECI KALB 120926Z 35004KT 10SM -RA BKN006 BKN025 OVC049 13/13 A2986 RMK AO2 RAE08B22 P0000 T01330133 (CL)","FM-16","7",,,,,,,,,,,,,,,,,,,,,,,,,,,,"2006-09-08"
"72518014735","2021-06-12T04:51:00","FM-15","7",,,,,"PRECIP","260",,"PLASTIC","42.6918","-73.83109","NWS ALBANY, NY",,,,,,,,,,,,,,,,,,,,,,,,,,,"29.86","56","56","0.01","-RA:02 BR:1 |RA |RA",,,"100","29.85","BKN:07 5 OVC:08 23","29.54","6.00","56","030",,"7",,,,,,,,,,,,,,,,,,,,,,,,,,,,,,,,,,,,,"MET12606/12/21 04:51:02 METAR KALB 120951Z 03006KT 6SM -RA BR BKN005 OVC023 13/13 A2986 RMK AO2 RAE08B22 SLP110 P0001 T01330133 (CL)","FM-15","7",,,,,,,,,,,,,,,,,,,,,,,,,,,,"2006-09-08"
"72518014735","2021-06-12T05:01:00","FM-16","7",,,,,"PRECIP","260",,"PLASTIC","42.6918","-73.83109","NWS ALBANY, NY",,,,,,,,,,,,,,,,,,,,,,,,,,,"29.85","56","56","T","-RA:02 BR:1 |RA |RA",,,"100",,"SCT:04 5 BKN:07 23 OVC:08 70","29.54","6.00","56","050",,"3",,,,,,,,,,,,,,,,,,,,,,,,,,,,,,,,,,,,,"MET11706/12/21 05:01:02 SPECI KALB 121001Z 05003KT 6SM -RA BR SCT005 BKN023 OVC070 13/13 A2985 RMK AO2 P0000 T01330133 (CL)","FM-16","7",,,,,,,,,,,,,,,,,,,,,,,,,,,,"2006-09-08"
"72518014735","2021-06-12T05:28:00","FM-16","7",,,,,"PRECIP","260",,"PLASTIC","42.6918","-73.83109","NWS ALBANY, NY",,,,,,,,,,,,,,,,,,,,,,,,,,,"29.86","56","56","T",,,,"100",,"FEW:02 5 OVC:08 70","29.54","10.00","56","000",,"0",,,,,,,,,,,,,,,,,,,,,,,,,,,,,,,,,,,,,"MET11006/12/21 05:28:02 SPECI KALB 121028Z 00000KT 10SM FEW005 OVC070 13/13 A2986 RMK AO2 RAE21 P0000 T01330133 (CL)","FM-16","7",,,,,,,,,,,,,,,,,,,,,,,,,,,,"2006-09-08"
"72518014735","2021-06-12T05:51:00","FM-15","7",,,,,"PRECIP","260",,"PLASTIC","42.6918","-73.83109","NWS ALBANY, NY",,,,,,,,,,,,,,,,,,,,,,,,,,,"29.86","57","57","0.01","-RA:02 |RA |RA",,,"100","29.86","SCT:04 5 BKN:07 70 OVC:08 85","29.54","8.00","57","000",,"0",,,,,,,,,,,,,,,,,,,,,,,,,,,,,,,,,,,,,"MET14206/12/21 05:51:02 METAR KALB 121051Z 00000KT 8SM -RA SCT005 BKN070 OVC085 14/14 A2986 RMK AO2 RAE21B35 SLP111 OCNL BINOVC P0001 T01390139 (CL)","FM-15","7",,,,,,,,,,,,,,,,,,,,,,,,,,,,"2006-09-08"
"72518014735","2021-06-12T06:03:00","FM-16","7",,,,,"PRECIP","260",,"PLASTIC","42.6918","-73.83109","NWS ALBANY, NY",,,,,,,,,,,,,,,,,,,,,,,,,,,"29.86","57","57","T","-RA:02 |RA |RA",,,"100",,"SCT:04 5 BKN:07 25 OVC:08 80","29.54","10.00","57","000",,"0",,,,,,,,,,,,,,,,,,,,,,,,,,,,,,,,,,,,,"MET11506/12/21 06:03:02 SPECI KALB 121103Z 00000KT 10SM -RA SCT005 BKN025 OVC080 14/14 A2986 RMK AO2 P0000 T01390139 (CL)","FM-16","7",,,,,,,,,,,,,,,,,,,,,,,,,,,,"2006-09-08"
"72518014735","2021-06-12T06:19:00","FM-16","7",,,,,"PRECIP","260",,"PLASTIC","42.6918","-73.83109","NWS ALBANY, NY",,,,,,,,,,,,,,,,,,,,,,,,,,,"29.88","57","57","T","-RA:02 |RA |RA",,,"100",,"BKN:07 5 BKN:07 17 OVC:08 80","29.57","10.00","57","320",,"5",,,,,,,,,,,,,,,,,,,,,,,,,,,,,,,,,,,,,"MET11506/12/21 06:19:02 SPECI KALB 121119Z 32004KT 10SM -RA BKN005 BKN017 OVC080 14/14 A2988 RMK AO2 P0000 T01390139 (JF)","FM-16","7",,,,,,,,,,,,,,,,,,,,,,,,,,,,"2006-09-08"
"72518014735","2021-06-12T06:42:00","FM-16","7",,,,,"PRECIP","260",,"PLASTIC","42.6918","-73.83109","NWS ALBANY, NY",,,,,,,,,,,,,,,,,,,,,,,,,,,"29.88","57","57","T",,,,"100",,"SCT:04 7 OVC:08 17","29.57","10.00","57","000",,"0",,,,,,,,,,,,,,,,,,,,,,,,,,,,,,,,,,,,,"MET11006/12/21 06:42:02 SPECI KALB 121142Z 00000KT 10SM SCT007 OVC017 14/14 A2988 RMK AO2 RAE25 P0000 T01390139 (JF)","FM-16","7",,,,,,,,,,,,,,,,,,,,,,,,,,,,"2006-09-08"
"72518014735","2021-06-12T06:51:00","FM-15","7",,,,,"PRECIP","260",,"PLASTIC","42.6918","-73.83109","NWS ALBANY, NY",,,,,,,,,,,,,,,,,,,,,,,,,,,"29.88","58","58","T",,"-0.02","3","100","29.88","SCT:04 7 BKN:07 17 OVC:08 23","29.57","10.00","58","310",,"3",,,,,,,,,,,,,,,,,,,,,,,,,,,,,,,,,,,,,"MET17606/12/21 06:51:02 METAR KALB 121151Z 31003KT 10SM SCT007 BKN017 OVC023 14/14 A2988 RMK AO2 RAE25B44E48 SLP117 PRESENT WX VCSH P0000 60011 70011 T01440144 10144 20133 53008 (JF)","FM-15","7",,,,,,,,,,,,,,,,,,,,,,,,,,,,"2006-09-08"
"72518014735","2021-06-12T07:00:00","FM-12","4",,,,,"PRECIP","260",,"PLASTIC","42.6918","-73.83109","NWS ALBANY, NY",,,,,,,,,,,,,,,,,,,,,,,,,,,,"58","58",,,"-0.02","3","100","29.88","8","29.57","9.94","58","310",,"3",,,,,,,,,,,,,,,,,,,,,,,,,,,,,,,,,,,,,"SYN09272518 12366 83103 10144 20144 30012 40117 53008 60031 91151 333 10206 20128 70028 555 91212=","FM-12","4",,,,,,,,,,,,,,,,,,,,,,,,,,,,"2006-09-08"
"72518014735","2021-06-12T07:15:00","FM-16","7",,,,,"PRECIP","260",,"PLASTIC","42.6918","-73.83109","NWS ALBANY, NY",,,,,,,,,,,,,,,,,,,,,,,,,,,"29.88","58","58",,,,,"100",,"BKN:07 6 OVC:08 23","29.57","10.00","58","000",,"0",,,,,,,,,,,,,,,,,,,,,,,,,,,,,,,,,,,,,"MET10806/12/21 07:15:02 SPECI KALB 121215Z 00000KT 10SM BKN006 OVC023 14/14 A2988 RMK AO2 BKN V SCT T01440144 (JF)","FM-16","7",,,,,,,,,,,,,,,,,,,,,,,,,,,,"2006-09-08"
"72518014735","2021-06-12T07:51:00","FM-15","7",,,,,"PRECIP","260",,"PLASTIC","42.6918","-73.83109","NWS ALBANY, NY",,,,,,,,,,,,,,,,,,,,,,,,,,,"29.88","59","59","0.00",,,,"100","29.88","BKN:07 7 BKN:07 12 OVC:08 34","29.57","10.00","59","350",,"3",,,,,,,,,,,,,,,,,,,,,,,,,,,,,,,,,,,,,"MET13206/12/21 07:51:02 METAR KALB 121251Z 35003KT 10SM BKN007 BKN012 OVC034 15/15 A2988 RMK AO2 SLP118 BKN007 V SCT BINOVC T01500150 (JF)","FM-15","7",,,,,,,,,,,,,,,,,,,,,,,,,,,,"2006-09-08"
"72518014735","2021-06-12T07:58:00","FM-16","7",,,,,"PRECIP","260",,"PLASTIC","42.6918","-73.83109","NWS ALBANY, NY",,,,,,,,,,,,,,,,,,,,,,,,,,,"29.88","59","60",,,,,"96",,"SCT:04 7 BKN:07 14 BKN:07 34","29.57","10.00","59","340",,"3",,,,,,,,,,,,,,,,,,,,,,,,,,,,,,,,,,,,,"MET11806/12/21 07:58:02 SPECI KALB 121258Z 34003KT 10SM SCT007 BKN014 BKN034 16/15 A2988 RMK AO2 BKN014 V SCT T01560150 (JF)","FM-16","7",,,,,,,,,,,,,,,,,,,,,,,,,,,,"2006-09-08"
"72518014735","2021-06-12T08:10:00","FM-16","7",,,,,"PRECIP","260",,"PLASTIC","42.6918","-73.83109","NWS ALBANY, NY",,,,,,,,,,,,,,,,,,,,,,,,,,,"29.88","59","60",,,,,"96",,"SCT:04 8 BKN:07 16 OVC:08 32","29.57","10.00","59","360",,"5",,,,,,,,,,,,,,,,,,,,,,,,,,,,,,,,,,,,,"MET11506/12/21 08:10:02 SPECI KALB 121310Z 36004KT 10SM SCT008 BKN016 OVC032 16/15 A2988 RMK AO2 BKN V SCT T01560150 (JF)","FM-16","7",,,,,,,,,,,,,,,,,,,,,,,,,,,,"2006-09-08"
"72518014735","2021-06-12T08:38:00","FM-16","7",,,,,"PRECIP","260",,"PLASTIC","42.6918","-73.83109","NWS ALBANY, NY",,,,,,,,,,,,,,,,,,,,,,,,,,,"29.88","59","61",,,,,"93",,"FEW:02 8 BKN:07 14 OVC:08 32","29.57","10.00","60","360",,"5",,,,,,,,,,,,,,,,,,,,,,,,,,,,,,,,,,,,,"MET11506/12/21 08:38:02 SPECI KALB 121338Z 36004KT 10SM FEW008 BKN014 OVC032 16/15 A2988 RMK AO2 BKN V SCT T01610150 (JF)","FM-16","7",,,,,,,,,,,,,,,,,,,,,,,,,,,,"2006-09-08"
"72518014735","2021-06-12T08:51:00","FM-15","7",,,,,"PRECIP","260",,"PLASTIC","42.6918","-73.83109","NWS ALBANY, NY",,,,,,,,,,,,,,,,,,,,,,,,,,,"29.88","59","62","0.00",,,,"90","29.88","FEW:02 8 BKN:07 14 BKN:07 32","29.57","10.00","60","360",,"6",,,,,,,,,,,,,,,,,,,,,,,,,,,,,,,,,,,,,"MET12506/12/21 08:51:02 METAR KALB 121351Z 36005KT 10SM FEW008 BKN014 BKN032 17/15 A2988 RMK AO2 SLP118 BKN014 V SCT T01670150 (JF)","FM-15","7",,,,,,,,,,,,,,,,,,,,,,,,,,,,"2006-09-08"
"72518014735","2021-06-12T09:05:00","FM-16","7",,,,,"PRECIP","260",,"PLASTIC","42.6918","-73.83109","NWS ALBANY, NY",,,,,,,,,,,,,,,,,,,,,,,,,,,"29.89","59","63",,,,,"87",,"FEW:02 9 BKN:07 21 BKN:07 29","29.57","10.00","61","VRB",,"3",,,,,,,,,,,,,,,,,,,,,,,,,,,,,,,,,,,,,"MET11806/12/21 09:05:02 SPECI KALB 121405Z VRB03KT 10SM FEW009 BKN021 BKN029 17/15 A2989 RMK AO2 BKN021 V SCT T01720150 (JF)","FM-16","7",,,,,,,,,,,,,,,,,,,,,,,,,,,,"2006-09-08"
"72518014735","2021-06-12T09:51:00","FM-15","7",,,,,"PRECIP","260",,"PLASTIC","42.6918","-73.83109","NWS ALBANY, NY",,,,,,,,,,,,,,,,,,,,,,,,,,,"29.89","58","64","0.00",,"-0.01","3","81","29.89","BKN:07 16 BKN:07 21 BKN:07 33","29.57","10.00","60","010",,"6",,,,,,,,,,,,,,,,,,,,,,,,,,,,,,,,,,,,,"MET13106/12/21 09:51:02 METAR KALB 121451Z 01005KT 10SM BKN016 BKN021 BKN033 18/14 A2989 RMK AO2 SLP121 BKN016 V SCT T01780144 53003 (JF)","FM-15","7",,,,,,,,,,,,,,,,,,,,,,,,,,,,"2006-09-08"
"72518014735","2021-06-12T10:00:00","FM-12","4",,,,,"PRECIP","260",,"PLASTIC","42.6918","-73.83109","NWS ALBANY, NY",,,,,,,,,,,,,,,,,,,,,,,,,,,,"58","64",,,"-0.01","3","81","29.89","15","29.57","9.94","60","010",,"6",,,,,,,,,,,,,,,,,,,,,,,,,,,,,,,,,,,,,"SYN06472518 32466 60105 10178 20144 30015 40121 53003 91451 555 91215=","FM-12","4",,,,,,,,,,,,,,,,,,,,,,,,,,,,"2006-09-08"
"72518014735","2021-06-12T10:51:00","FM-15","7",,,,,"PRECIP","260",,"PLASTIC","42.6918","-73.83109","NWS ALBANY, NY",,,,,,,,,,,,,,,,,,,,,,,,,,,"29.88","58","66","0.00",,,,"75","29.88","BKN:07 24 BKN:07 36 BKN:07 260","29.57","10.00","61","000",,"0",,,,,,,,,,,,,,,,,,,,,,,,,,,,,,,,,,,,,"MET12506/12/21 10:51:02 METAR KALB 121551Z 00000KT 10SM BKN024 BKN036 BKN260 19/14 A2988 RMK AO2 SLP118 BKN024 V SCT T01890144 (JF)","FM-15","7",,,,,,,,,,,,,,,,,,,,,,,,,,,,"2006-09-08"
"72518014735","2021-06-12T11:41:00","FM-16","7",,,,,"PRECIP","260",,"PLASTIC","42.6918","-73.83109","NWS ALBANY, NY",,,,,,,,,,,,,,,,,,,,,,,,,,,"29.88","57","68",,,,,"68",,"SCT:04 24 BKN:07 36 BKN:07 260","29.57","10.00","62","290",,"5",,,,,,,,,,,,,,,,,,,,,,,,,,,,,,,,,,,,,"MET11806/12/21 11:41:02 SPECI KALB 121641Z 29004KT 10SM SCT024 BKN036 BKN260 20/14 A2988 RMK AO2 BKN036 V SCT T02000139 (JF)","FM-16","7",,,,,,,,,,,,,,,,,,,,,,,,,,,,"2006-09-08"
"72518014735","2021-06-12T11:51:00","FM-15","7",,,,,"PRECIP","260",,"PLASTIC","42.6918","-73.83109","NWS ALBANY, NY",,,,,,,,,,,,,,,,,,,,,,,,,,,"29.88","56","69","0.00",,,,"63","29.88","FEW:02 24 SCT:04 36 BKN:07 260","29.57","10.00","61","VRB",,"5",,,,,,,,,,,,,,,,,,,,,,,,,,,,,,,,,,,,,"MET11206/12/21 11:51:02 METAR KALB 121651Z VRB04KT 10SM FEW024 SCT036 BKN260 21/13 A2988 RMK AO2 SLP118 T02060133 (JF)","FM-15","7",,,,,,,,,,,,,,,,,,,,,,,,,,,,"2006-09-08"
"72518014735","2021-06-12T12:51:00","FM-15","7",,,,,"PRECIP","260",,"PLASTIC","42.6918","-73.83109","NWS ALBANY, NY",,,,,,,,,,,,,,,,,,,,,,,,,,,"29.86","55","71","0.00",,"+0.03","8","57","29.85","SCT:04 41 BKN:07 260","29.54","10.00","62","000",,"0",,,,,,,,,,,,,,,,,,,,,,,,,,,,,,,,,,,,,"MET12306/12/21 12:51:02 METAR KALB 121751Z 00000KT 10SM SCT041 BKN260 22/13 A2986 RMK AO2 SLP110 T02170128 10217 20144 58010 (JF)","FM-15","7",,,,,,,,,,,,,,,,,,,,,,,,,,,,"2006-09-08"
"72518014735","2021-06-12T13:00:00","FM-12","4",,,,,"PRECIP","260",,"PLASTIC","42.6918","-73.83109","NWS ALBANY, NY",,,,,,,,,,,,,,,,,,,,,,,,,,,,"55","71",,,"+0.03","8","57","29.85","41","29.54","9.94","62","000",,"0",,,,,,,,,,,,,,,,,,,,,,,,,,,,,,,,,,,,,"SYN08072518 32666 60000 10217 20128 30005 40110 58010 91751 333 10217 20144 555 91218=","FM-12","4",,,,,,,,,,,,,,,,,,,,,,,,,,,,"2006-09-08"
"72518014735","2021-06-12T13:51:00","FM-15","7",,,,,"PRECIP","260",,"PLASTIC","42.6918","-73.83109","NWS ALBANY, NY",,,,,,,,,,,,,,,,,,,,,,,,,,,"29.85","55","73","0.00",,,,"53","29.85","SCT:04 48 SCT:04 60 BKN:07 260","29.54","10.00","62","VRB",,"5",,,,,,,,,,,,,,,,,,,,,,,,,,,,,,,,,,,,,"MET11206/12/21 13:51:02 METAR KALB 121851Z VRB04KT 10SM SCT048 SCT060 BKN260 23/13 A2985 RMK AO2 SLP108 T02280128 (JF)","FM-15","7",,,,,,,,,,,,,,,,,,,,,,,,,,,,"2006-09-08"
"72518014735","2021-06-12T14:51:00","FM-15","7",,,,,"PRECIP","260",,"PLASTIC","42.6918","-73.83109","NWS ALBANY, NY",,,,,,,,,,,,,,,,,,,,,,,,,,,"29.84","54","72","0.00",,,,"53","29.84","SCT:04 49 BKN:07 65 BKN:07 260","29.53","10.00","61","170",,"6",,,,,,,,,,,,,,,,,,,,,,,,,,,,,,,,,,,,,"MET11306/12/21 14:51:02 METAR KALB 121951Z 17005KT 10SM SCT049 BKN065 BKN260 22/12 A2984 RMK AO2 SLP105 T02220122 (MAK)","FM-15","7",,,,,,,,,,,,,,,,,,,,,,,,,,,,"2006-09-08"
"72518014735","2021-06-12T15:51:00","FM-15","7",,,,,"PRECIP","260",,"PLASTIC","42.6918","-73.83109","NWS ALBANY, NY",,,,,,,,,,,,,,,,,,,,,,,,,,,"29.83","53","75","0.00",,"+0.03","8","46","29.83","SCT:04 60 BKN:07 260","29.52","10.00","62","280",,"6",,,,,,,,,,,,,,,,,,,,,,,,,,,,,,,,,,,,,"MET12206/12/21 15:51:02 METAR KALB 122051Z 28005KT 10SM SCT060 BKN260 24/12 A2983 RMK AO2 SLP101 SCT V BKN T02390117 58009 (MAK)","FM-15","7",,,,,,,,,,,,,,,,,,,,,,,,,,,,"2006-09-08"
"72518014735","2021-06-12T16:00:00","FM-12","4",,,,,"PRECIP","260",,"PLASTIC","42.6918","-73.83109","NWS ALBANY, NY",,,,,,,,,,,,,,,,,,,,,,,,,,,,"53","75",,,"+0.03","8","46","29.83","57","29.52","9.94","62","280",,"6",,,,,,,,,,,,,,,,,,,,,,,,,,,,,,,,,,,,,"SYN06472518 32766 62805 10239 20117 39995 40101 58009 92051 555 91221=","FM-12","4",,,,,,,,,,,,,,,,,,,,,,,,,,,,"2006-09-08"
"72518014735","2021-06-12T16:51:00","FM-15","7",,,,,"PRECIP","260",,"PLASTIC","42.6918","-73.83109","NWS ALBANY, NY",,,,,,,,,,,,,,,,,,,,,,,,,,,"29.83","54","72","0.00",,,,"53","29.83","SCT:04 55 SCT:04 260","29.52","10.00","61","000",,"0",,,,,,,,,,,,,,,,,,,,,,,,,,,,,,,,,,,,,"MET10606/12/21 16:51:02 METAR KALB 122151Z 00000KT 10SM SCT055 SCT260 22/12 A2983 RMK AO2 SLP101 T02220122 (MAK)","FM-15","7",,,,,,,,,,,,,,,,,,,,,,,,,,,,"2006-09-08"
"72518014735","2021-06-12T17:51:00","FM-15","7",,,,,"PRECIP","260",,"PLASTIC","42.6918","-73.83109","NWS ALBANY, NY",,,,,,,,,,,,,,,,,,,,,,,,,,,"29.83","52","74","0.00",,,,"46","29.83","FEW:02 60 SCT:04 260","29.52","10.00","61","300",,"8",,,,,,,,,,,,,,,,,,,,,,,,,,,,,,,,,,,,,"MET10606/12/21 17:51:02 METAR KALB 122251Z 30007KT 10SM FEW060 SCT260 23/11 A2983 RMK AO2 SLP101 T02330111 (MAK)","FM-15","7",,,,,,,,,,,,,,,,,,,,,,,,,,,,"2006-09-08"
"72518014735","2021-06-12T18:51:00","FM-15","7",,,,,"PRECIP","260",,"PLASTIC","42.6918","-73.83109","NWS ALBANY, NY",,,,,,,,,,,,,,,,,,,,,,,,,,,"29.83","52","71","0.00",,"+0.00","8","51","29.83","FEW:02 60 FEW:02 200 SCT:04 260","29.52","10.00","60","220",,"6",,,,,,,,,,,,,,,,,,,,,,,,,,,,,,,,,,,,,"MET13106/12/21 18:51:02 METAR KALB 122351Z 22005KT 10SM FEW060 FEW200 SCT260 22/11 A2983 RMK AO2 SLP100 T02170111 10239 20211 58001 (MAK)","FM-15","7",,,,,,,,,,,,,,,,,,,,,,,,,,,,"2006-09-08"
"72518014735","2021-06-12T19:00:00","FM-12","4",,,,,"PRECIP","260",,"PLASTIC","42.6918","-73.83109","NWS ALBANY, NY",,,,,,,,,,,,,,,,,,,,,,,,,,,,"52","71",,,"+0.00","8","51","29.83","57","29.52","9.94","60","220",,"6",,,,,,,,,,,,,,,,,,,,,,,,,,,,,,,,,,,,,"SYN08072518 32766 42205 10217 20111 39995 40100 58001 92351 333 10239 20133 555 91300=","FM-12","4",,,,,,,,,,,,,,,,,,,,,,,,,,,,"2006-09-08"
"72518014735","2021-06-12T19:51:00","FM-15","7",,,,,"PRECIP","260",,"PLASTIC","42.6918","-73.83109","NWS ALBANY, NY",,,,,,,,,,,,,,,,,,,,,,,,,,,"29.83","54","65","0.00",,,,"68","29.83","FEW:02 60 FEW:02 200 FEW:02 260","29.52","10.00","59","180",,"3",,,,,,,,,,,,,,,,,,,,,,,,,,,,,,,,,,,,,"MET10706/12/21 19:51:01 METAR KALB 130051Z 18003KT 10SM FEW060 FEW200 FEW260 18/12 A2983 RMK AO2 SLP101 T01830122","FM-15","7",,,,,,,,,,,,,,,,,,,,,,,,,,,,"2006-09-08"
"72518014735","2021-06-12T20:51:00","FM-15","7",,,,,"PRECIP","260",,"PLASTIC","42.6918","-73.83109","NWS ALBANY, NY",,,,,,,,,,,,,,,,,,,,,,,,,,,"29.86","57","65","0.00",,,,"76","29.85","FEW:02 200 FEW:02 260","29.54","10.00","60","160",,"7",,,,,,,,,,,,,,,,,,,,,,,,,,,,,,,,,,,,,"MET10006/12/21 20:51:01 METAR KALB 130151Z 16006KT 10SM FEW200 FEW260 18/14 A2986 RMK AO2 SLP110 T01830139","FM-15","7",,,,,,,,,,,,,,,,,,,,,,,,,,,,"2006-09-08"
"72518014735","2021-06-12T21:51:00","FM-15","7",,,,,"PRECIP","260",,"PLASTIC","42.6918","-73.83109","NWS ALBANY, NY",,,,,,,,,,,,,,,,,,,,,,,,,,,"29.87","57","63","0.00",,"-0.04","3","81","29.87","BKN:07 220","29.56","10.00","60","170",,"6",,,,,,,,,,,,,,,,,,,,,,,,,,,,,,,,,,,,,"MET09906/12/21 21:51:01 METAR KALB 130251Z 17005KT 10SM BKN220 17/14 A2987 RMK AO2 SLP114 T01720139 53013","FM-15","7",,,,,,,,,,,,,,,,,,,,,,,,,,,,"2006-09-08"
"72518014735","2021-06-12T22:00:00","FM-12","4",,,,,"PRECIP","260",,"PLASTIC","42.6918","-73.83109","NWS ALBANY, NY",,,,,,,,,,,,,,,,,,,,,,,,,,,,"57","63",,,"-0.04","3","81","29.87",,"29.55","9.94","60","170",,"6",,,,,,,,,,,,,,,,,,,,,,,,,,,,,,,,,,,,,"SYN06472518 32966 61705 10172 20139 30008 40114 53013 90251 555 91303=","FM-12","4",,,,,,,,,,,,,,,,,,,,,,,,,,,,"2006-09-08"
"72518014735","2021-06-12T22:51:00","FM-15","7",,,,,"PRECIP","260",,"PLASTIC","42.6918","-73.83109","NWS ALBANY, NY",,,,,,,,,,,,,,,,,,,,,,,,,,,"29.87","58","62","0.00",,,,"86","29.87","FEW:02 120 SCT:04 220","29.56","10.00","60","150",,"9",,,,,,,,,,,,,,,,,,,,,,,,,,,,,,,,,,,,,"MET10006/12/21 22:51:02 METAR KALB 130351Z 15008KT 10SM FEW120 SCT220 17/14 A2987 RMK AO2 SLP114 T01670144","FM-15","7",,,,,,,,,,,,,,,,,,,,,,,,,,,,"2006-09-08"
"72518014735","2021-06-12T23:51:00","FM-15","7",,,,,"PRECIP","260",,"PLASTIC","42.6918","-73.83109","NWS ALBANY, NY",,,,,,,,,,,,,,,,,,,,,,,,,,,"29.88","59","61","0.00",,,,"93","29.88","SCT:04 120 SCT:04 250","29.57","10.00","60","150",,"6",,,,,,,,,,,,,,,,,,,,,,,,,,,,,,,,,,,,,"MET11006/12/21 23:51:02 METAR KALB 130451Z 15005KT 10SM SCT120 SCT250 16/15 A2988 RMK AO2 SLP118 T01610150 402390128","FM-15","7",,,,,,,,,,,,,,,,,,,,,,,,,,,,"2006-09-08"
"72518014735","2021-06-12T23:59:00","SOD  ","6",,,,,"PRECIP","260",,"PLASTIC","42.6918","-73.83109","NWS ALBANY, NY",,,,,"65",,,"29.54",,"4.1","0","-1.1","0","75","55","160","13","0.11","0","0.0","160","10","RA BR",,,,,,,,,,,,,,,,,,,,,,,,,,,,,,,,,,,,,,,,,,,,,,,,,,,,,,,,"SOD75624 HR PRECIPITATION (IN): 0.11 SNOW DEPTH (IN):0     24 HR SNOWFALL (IN):0.0  WEATHER(CODE):1  24 HR MAX TEMP (F): 7524 HR MIN TEMP (F): 55AVERAGE STATION PRESSURE:29.540 MINIMUM SEA LEVEL PRESSURE:29.82 TIME OF OCCURRENCE:1940 PEAK WIND SPEED (MPH): 13 PEAK WIND DIR (DEG):160 PEAK WIND TIME (LST):      FASTEST 2MIN SPEED (MPH): 10FASTEST 2MIN DIR (DEG):160 FASTEST 2MIN TIME (LST):     AVERAGE WIND SPEED (MPH): 4.1 24 HR AVG TEMP (F): 65DEPART FROM NORMAL: -3  HEATING DEGREE DAYS:  0 COOLING DEGREE DAYS:  0 LATEST DAY MAX TEMP (0700-1900 LST):75  LATEST NIGHT MIN TEMP(1900-0800 LST):55 HOURLY INCREMENTAL PRECIPITATION VALUES (IN):.00 T    0.01 0.08 0.01 0.01 T    0.00 0.00 0.00 0.00 0.00 0.00 0.00 0.00 0.00 0.00 0.00 0.00 0.00 0.00 0.00 0.00 0.00","SOD  ","6",,,,,,,,,,,,,,,,,,,,,,,,,"0416","1934",,"2006-09-08"
"72518014735","2021-06-13T00:51:00","FM-15","7",,,,,"PRECIP","260",,"PLASTIC","42.6918","-73.83109","NWS ALBANY, NY",,,,,,,,,,,,,,,,,,,,,,,,,,,"29.88","59","59","0.00","BC:3 FG:2 |FG |","-0.01","0","100","29.88","FEW:02 120 SCT:04 250","29.57","10.00","59","160",,"5",,,,,,,,,,,,,,,,,,,,,,,,,,,,,,,,,,,,,"MET13806/13/21 00:51:02 METAR KALB 130551Z 16004KT 10SM BCFG FEW120 SCT250 15/15 A2988 RMK AO2 SLP117 BCFG S-SW T01500150 10211 20150 50003 (CL)","FM-15","7",,,,,,,,,,,,,,,,,,,,,,,,,,,,"2006-09-08"
"72518014735","2021-06-13T01:00:00","FM-12","4",,,,,"PRECIP","260",,"PLASTIC","42.6918","-73.83109","NWS ALBANY, NY",,,,,,,,,,,,,,,,,,,,,,,,,,,,"59","59",,,"0.01","9","100","29.88",,"29.57","9.94","59","160",,"5",,,,,,,,,,,,,,,,,,,,,,,,,,,,,,,,,,,,,"SYN08072518 31966 41604 10150 20150 30012 40117 50003 90551 333 10211 20133 555 91306=","FM-12","4",,,,,,,,,,,,,,,,,,,,,,,,,,,,"2006-09-08"
"72518014735","2021-06-13T01:20:00","FM-16","7",,,,,"PRECIP","260",,"PLASTIC","42.6918","-73.83109","NWS ALBANY, NY",,,,,,,,,,,,,,,,,,,,,,,,,,,"29.87","58","58",,"BC:3 FG:2 |FG |",,,"100",,"FEW:02 7 SCT:04 250","29.56","10.00","58","170",,"7",,,,,,,,,,,,,,,,,,,,,,,,,,,,,,,,,,,,,"MET11306/13/21 01:20:02 SPECI KALB 130620Z 17006KT 10SM BCFG FEW007 SCT250 14/14 A2987 RMK AO2 BCFG S-SW T01440144 (CL)","FM-16","7",,,,,,,,,,,,,,,,,,,,,,,,,,,,"2006-09-08"
"72518014735","2021-06-13T01:49:00","FM-16","6",,,,,"PRECIP","260",,"PLASTIC","42.6918","-73.83109","NWS ALBANY, NY",,,,,,,,,,,,,,,,,,,,,,,,,,,"29.88","57","57",,,,,"100",,"OVC:08 7","29.57","10.00","57","170",,"9",,,,,,,,,,,,,,,,,,,,,,,,,,,,,,,,,,,,,"MET08606/13/21 01:49:02 SPECI KALB 130649Z 17008KT 10SM OVC007 14/14 A2988 RMK AO2 FIBI (CL)","FM-16","6",,,,,,,,,,,,,,,,,,,,,,,,,,,,"2006-09-08"
"72518014735","2021-06-13T01:51:00","FM-15","7",,,,,"PRECIP","260",,"PLASTIC","42.6918","-73.83109","NWS ALBANY, NY",,,,,,,,,,,,,,,,,,,,,,,,,,,"29.88","58","58","0.00",,,,"100","29.88","OVC:08 7","29.57","10.00","58","160",,"9",,,,,,,,,,,,,,,,,,,,,,,,,,,,,,,,,,,,,"MET09806/13/21 01:51:02 METAR KALB 130651Z 16008KT 10SM OVC007 14/14 A2988 RMK AO2 SLP117 T01440144 (CL)","FM-15","7",,,,,,,,,,,,,,,,,,,,,,,,,,,,"2006-09-08"
"72518014735","2021-06-13T02:51:00","FM-15","7",,,,,"PRECIP","260",,"PLASTIC","42.6918","-73.83109","NWS ALBANY, NY",,,,,,,,,,,,,,,,,,,,,,,,,,,"29.88","58","58","0.00",,,,"100","29.88","OVC:08 6","29.57","10.00","58","150",,"6",,,,,,,,,,,,,,,,,,,,,,,,,,,,,,,,,,,,,"MET09806/13/21 02:51:02 METAR KALB 130751Z 15005KT 10SM OVC006 14/14 A2988 RMK AO2 SLP119 T01440144 (CL)","FM-15","7",,,,,,,,,,,,,,,,,,,,,,,,,,,,"2006-09-08"
"72518014735","2021-06-13T03:51:00","FM-15","7",,,,,"PRECIP","260",,"PLASTIC","42.6918","-73.83109","NWS ALBANY, NY",,,,,,,,,,,,,,,,,,,,,,,,,,,"29.89","58","58","0.00",,"-0.01","3","100","29.89","OVC:08 7","29.57","10.00","58","180",,"5",,,,,,,,,,,,,,,,,,,,,,,,,,,,,,,,,,,,,"MET10406/13/21 03:51:02 METAR KALB 130851Z 18004KT 10SM OVC007 14/14 A2989 RMK AO2 SLP121 T01440144 53005 (CL)","FM-15","7",,,,,,,,,,,,,,,,,,,,,,,,,,,,"2006-09-08"
"72518014735","2021-06-13T04:00:00","FM-12","4",,,,,"PRECIP","260",,"PLASTIC","42.6918","-73.83109","NWS ALBANY, NY",,,,,,,,,,,,,,,,,,,,,,,,,,,,"58","58",,,"-0.01","3","100","29.89","8","29.57","9.94","58","180",,"5",,,,,,,,,,,,,,,,,,,,,,,,,,,,,,,,,,,,,"SYN06472518 32366 81804 10144 20144 30015 40121 53005 90851 555 91309=","FM-12","4",,,,,,,,,,,,,,,,,,,,,,,,,,,,"2006-09-08"
"72518014735","2021-06-13T04:51:00","FM-15","7",,,,,"PRECIP","260",,"PLASTIC","42.6918","-73.83109","NWS ALBANY, NY",,,,,,,,,,,,,,,,,,,,,,,,,,,"29.90","58","58","0.00",,,,"100","29.89","OVC:08 8","29.59","10.00","58","150",,"5",,,,,,,,,,,,,,,,,,,,,,,,,,,,,,,,,,,,,"MET09806/13/21 04:51:02 METAR KALB 130951Z 15004KT 10SM OVC008 14/14 A2990 RMK AO2 SLP123 T01440144 (CL)","FM-15","7",,,,,,,,,,,,,,,,,,,,,,,,,,,,"2006-09-08"
"72518014735","2021-06-13T05:51:00","FM-15","7",,,,,"PRECIP","260",,"PLASTIC","42.6918","-73.83109","NWS ALBANY, NY",,,,,,,,,,,,,,,,,,,,,,,,,,,"29.91","59","59","0.00",,,,"100","29.91","OVC:08 8","29.59","10.00","59","140",,"5",,,,,,,,,,,,,,,,,,,,,,,,,,,,,,,,,,,,,"MET09806/13/21 05:51:02 METAR KALB 131051Z 14004KT 10SM OVC008 15/15 A2991 RMK AO2 SLP127 T01500150 (CL)","FM-15","7",,,,,,,,,,,,,,,,,,,,,,,,,,,,"2006-09-08"
"72518014735","2021-06-13T06:51:00","FM-15","7",,,,,"PRECIP","260",,"PLASTIC","42.6918","-73.83109","NWS ALBANY, NY",,,,,,,,,,,,,,,,,,,,,,,,,,,"29.91","58","59","0.00",,"-0.02","3","96","29.91","OVC:08 8","29.59","10.00","58","000",,"0",,,,,,,,,,,,,,,,,,,,,,,,,,,,,,,,,,,,,"MET11706/13/21 06:51:02 METAR KALB 131151Z 00000KT 10SM OVC008 15/14 A2991 RMK AO2 SLP129 T01500144 10156 20144 53007 (JDO)","FM-15","7",,,,,,,,,,,,,,,,,,,,,,,,,,,,"2006-09-08"
"72518014735","2021-06-13T07:00:00","FM-12","4",,,,,"PRECIP","260",,"PLASTIC","42.6918","-73.83109","NWS ALBANY, NY",,,,,,,,,,,,,,,,,,,,,,,,,,,,"58","59",,,"-0.02","3","96","29.91","8","29.59","9.94","58","000",,"0",,,,,,,,,,,,,,,,,,,,,,,,,,,,,,,,,,,,,"SYN08072518 32366 80000 10150 20144 30022 40129 53007 91151 333 10239 20144 555 91312=","FM-12","4",,,,,,,,,,,,,,,,,,,,,,,,,,,,"2006-09-08"
"72518014735","2021-06-13T07:29:00","FM-16","7",,,,,"PRECIP","260",,"PLASTIC","42.6918","-73.83109","NWS ALBANY, NY",,,,,,,,,,,,,,,,,,,,,,,,,,,"29.92","59","61",,,,,"93",,"OVC:08 10","29.61","10.00","60","000",,"0",,,,,,,,,,,,,,,,,,,,,,,,,,,,,,,,,,,,,"MET09206/13/21 07:29:02 SPECI KALB 131229Z 00000KT 10SM OVC010 16/15 A2992 RMK AO2 T01610150 (JDO)","FM-16","7",,,,,,,,,,,,,,,,,,,,,,,,,,,,"2006-09-08"
"72518014735","2021-06-13T07:49:00","FM-16","6",,,,,"PRECIP","260",,"PLASTIC","42.6918","-73.83109","NWS ALBANY, NY",,,,,,,,,,,,,,,,,,,,,,,,,,,"29.92","57","61",,,,,"88",,"SCT:04 12 BKN:07 80 BKN:07 250","29.61","10.00","59","180",,"3",,,,,,,,,,,,,,,,,,,,,,,,,,,,,,,,,,,,,"MET11106/13/21 07:49:02 SPECI KALB 131249Z 18003KT 10SM SCT012 BKN080 BKN250 16/14 A2992 RMK AO2 SCT V BKN FIBI (JDO)","FM-16","6",,,,,,,,,,,,,,,,,,,,,,,,,,,,"2006-09-08"
"72518014735","2021-06-13T07:51:00","FM-15","7",,,,,"PRECIP","260",,"PLASTIC","42.6918","-73.83109","NWS ALBANY, NY",,,,,,,,,,,,,,,,,,,,,,,,,,,"29.91","59","61","0.00",,,,"93","29.91","SCT:04 12 BKN:07 80 BKN:07 250","29.59","10.00","60","170",,"3",,,,,,,,,,,,,,,,,,,,,,,,,,,,,,,,,,,,,"MET12306/13/21 07:51:02 METAR KALB 131251Z 17003KT 10SM SCT012 BKN080 BKN250 16/15 A2991 RMK AO2 SLP129 SCT V BKN T01610150 (JDO)","FM-15","7",,,,,,,,,,,,,,,,,,,,,,,,,,,,"2006-09-08"
"72518014735","2021-06-13T08:51:00","FM-15","7",,,,,"PRECIP","260",,"PLASTIC","42.6918","-73.83109","NWS ALBANY, NY",,,,,,,,,,,,,,,,,,,,,,,,,,,"29.90","59","64","0.00",,,,"84","29.90","FEW:02 60 FEW:02 250","29.59","10.00","61","180",,"8",,,,,,,,,,,,,,,,,,,,,,,,,,,,,,,,,,,,,"MET10606/13/21 08:51:02 METAR KALB 131351Z 18007KT 10SM FEW060 FEW250 18/15 A2990 RMK AO2 SLP125 T01780150 (JDO)","FM-15","7",,,,,,,,,,,,,,,,,,,,,,,,,,,,"2006-09-08"
"72518014735","2021-06-13T09:51:00","FM-15","7",,,,,"PRECIP","260",,"PLASTIC","42.6918","-73.83109","NWS ALBANY, NY",,,,,,,,,,,,,,,,,,,,,,,,,,,"29.90","60","69","0.00",,"+0.01","5","73","29.90","FEW:02 60","29.59","10.00","64","VRB",,"3",,,,,,,,,,,,,,,,,,,,,,,,,,,,,,,,,,,,,"MET10506/13/21 09:51:02 METAR KALB 131451Z VRB03KT 10SM FEW060 21/16 A2990 RMK AO2 SLP126 T02060156 55003 (JDO)","FM-15","7",,,,,,,,,,,,,,,,,,,,,,,,,,,,"2006-09-08"
"72518014735","2021-06-13T10:00:00","FM-12","4",,,,,"PRECIP","260",,"PLASTIC","42.6918","-73.83109","NWS ALBANY, NY",,,,,,,,,,,,,,,,,,,,,,,,,,,,"60","69",,,"+0.01","5","73","29.90","57","29.58","9.94","64",,,"3",,,,,,,,,,,,,,,,,,,,,,,,,,,,,,,,,,,,,"SYN06472518 32766 2//03 10206 20156 30018 40126 55003 91451 555 91315=","FM-12","4",,,,,,,,,,,,,,,,,,,,,,,,,,,,"2006-09-08"
"72518014735","2021-06-13T10:51:00","FM-15","7",,,,,"PRECIP","260",,"PLASTIC","42.6918","-73.83109","NWS ALBANY, NY",,,,,,,,,,,,,,,,,,,,,,,,,,,"29.89","59","72","0.00",,,,"64","29.89","FEW:02 60","29.57","10.00","64","190",,"3",,,,,,,,,,,,,,,,,,,,,,,,,,,,,,,,,,,,,"MET09906/13/21 10:51:02 METAR KALB 131551Z 19003KT 10SM FEW060 22/15 A2989 RMK AO2 SLP122 T02220150 (JDO)","FM-15","7",,,,,,,,,,,,,,,,,,,,,,,,,,,,"2006-09-08"
"72518014735","2021-06-13T11:51:00","FM-15","7",,,,,"PRECIP","260",,"PLASTIC","42.6918","-73.83109","NWS ALBANY, NY",,,,,,,,,,,,,,,,,,,,,,,,,,,"29.88","54","75","0.00",,,,"48","29.88","FEW:02 50 SCT:04 80","29.57","10.00","63","VRB",,"5",,,,,,,,,,,,,,,,,,,,,,,,,,,,,,,,,,,,,"MET10606/13/21 11:51:02 METAR KALB 131651Z VRB04KT 10SM FEW050 SCT080 24/12 A2988 RMK AO2 SLP117 T02390122 (JDO)","FM-15","7",,,,,,,,,,,,,,,,,,,,,,,,,,,,"2006-09-08"
"72518014735","2021-06-13T12:51:00","FM-15","7",,,,,"PRECIP","260",,"PLASTIC","42.6918","-73.83109","NWS ALBANY, NY",,,,,,,,,,,,,,,,,,,,,,,,,,,"29.86","56","77","0.00",,"+0.04","8","48","29.86","SCT:04 50","29.54","10.00","64","180",,"9",,,,,,,,,,,,,,,,,,,,,,,,,,,,,,,,,,,,,"MET11706/13/21 12:51:02 METAR KALB 131751Z 18008KT 10SM SCT050 25/13 A2986 RMK AO2 SLP112 T02500133 10256 20150 58014 (JDO)","FM-15","7",,,,,,,,,,,,,,,,,,,,,,,,,,,,"2006-09-08"
"72518014735","2021-06-13T13:00:00","FM-12","4",,,,,"PRECIP","260",,"PLASTIC","42.6918","-73.83109","NWS ALBANY, NY",,,,,,,,,,,,,,,,,,,,,,,,,,,,"56","77",,,"+0.04","8","48","29.86","57","29.54","9.94","64","180",,"9",,,,,,,,,,,,,,,,,,,,,,,,,,,,,,,,,,,,,"SYN08072518 32766 41808 10250 20133 30005 40112 58014 91751 333 10256 20150 555 91318=","FM-12","4",,,,,,,,,,,,,,,,,,,,,,,,,,,,"2006-09-08"
"72518014735","2021-06-13T13:51:00","FM-15","7",,,,,"PRECIP","260",,"PLASTIC","42.6918","-73.83109","NWS ALBANY, NY",,,,,,,,,,,,,,,,,,,,,,,,,,,"29.86","54","79","0.00",,,,"42","29.85","BKN:07 65","29.54","10.00","64","130",,"7",,,,,,,,,,,,,,,,,,,,,,,,,,,,,,,,,,,,,"MET10906/13/21 13:51:02 METAR KALB 131851Z 13006KT 10SM BKN065 26/12 A2986 RMK AO2 SLP108 BKN V SCT T02610122 (JDO)","FM-15","7",,,,,,,,,,,,,,,,,,,,,,,,,,,,"2006-09-08"
"72518014735","2021-06-13T14:51:00","FM-15","7",,,,,"PRECIP","260",,"PLASTIC","42.6918","-73.83109","NWS ALBANY, NY",,,,,,,,,,,,,,,,,,,,,,,,,,,"29.85","54","78","0.00",,,,"43","29.85","SCT:04 65","29.54","10.00","64","VRB",,"7",,,,,,,,,,,,,,,,,,,,,,,,,,,,,,,,,,,,,"MET09906/13/21 14:51:02 METAR KALB 131951Z VRB06KT 10SM SCT065 26/12 A2985 RMK AO2 SLP108 T02560122 (MAK)","FM-15","7",,,,,,,,,,,,,,,,,,,,,,,,,,,,"2006-09-08"
"72518014735","2021-06-13T15:51:00","FM-15","7",,,,,"PRECIP","260",,"PLASTIC","42.6918","-73.83109","NWS ALBANY, NY",,,,,,,,,,,,,,,,,,,,,,,,,,,"29.84","54","77","0.00",,"+0.02","7","45","29.84","FEW:02 65 SCT:04 250","29.53","10.00","63","180",,"11",,,,,,,,,,,,,,,,,,,,,,,,,,,,,,,,,,,,,"MET11206/13/21 15:51:02 METAR KALB 132051Z 18010KT 10SM FEW065 SCT250 25/12 A2984 RMK AO2 SLP105 T02500122 57006 (MAK)","FM-15","7",,,,,,,,,,,,,,,,,,,,,,,,,,,,"2006-09-08"
"72518014735","2021-06-13T16:00:00","FM-12","4",,,,,"PRECIP","260",,"PLASTIC","42.6918","-73.83109","NWS ALBANY, NY",,,,,,,,,,,,,,,,,,,,,,,,,,,,"54","77",,,"+0.02","7","45","29.84","57","29.52","9.94","63","180",,"11",,,,,,,,,,,,,,,,,,,,,,,,,,,,,,,,,,,,,"SYN06472518 32766 41810 10250 20122 39998 40105 57006 92051 555 91321=","FM-12","4",,,,,,,,,,,,,,,,,,,,,,,,,,,,"2006-09-08"
"72518014735","2021-06-13T16:51:00","FM-15","7",,,,,"PRECIP","260",,"PLASTIC","42.6918","-73.83109","NWS ALBANY, NY",,,,,,,,,,,,,,,,,,,,,,,,,,,"29.83","56","76","0.00",,,,"50","29.83","FEW:02 65 FEW:02 190 SCT:04 250","29.52","10.00","64","180","20","13",,,,,,,,,,,,,,,,,,,,,,,,,,,,,,,,,,,,,"MET11606/13/21 16:51:02 METAR KALB 132151Z 18011G17KT 10SM FEW065 FEW190 SCT250 24/13 A2983 RMK AO2 SLP100 T02440133 (MAK)","FM-15","7",,,,,,,,,,,,,,,,,,,,,,,,,,,,"2006-09-08"
"72518014735","2021-06-13T17:51:00","FM-15","7",,,,,"PRECIP","260",,"PLASTIC","42.6918","-73.83109","NWS ALBANY, NY",,,,,,,,,,,,,,,,,,,,,,,,,,,"29.82","58","75","0.00",,,,"55","29.82","FEW:02 65 FEW:02 190 SCT:04 250","29.51","10.00","65","150",,"13",,,,,,,,,,,,,,,,,,,,,,,,,,,,,,,,,,,,,"MET11306/13/21 17:51:02 METAR KALB 132251Z 15011KT 10SM FEW065 FEW190 SCT250 24/14 A2982 RMK AO2 SLP097 T02390144 (MAK)","FM-15","7",,,,,,,,,,,,,,,,,,,,,,,,,,,,"2006-09-08"
"72518014735","2021-06-13T18:51:00","FM-15","7",,,,,"PRECIP","260",,"PLASTIC","42.6918","-73.83109","NWS ALBANY, NY",,,,,,,,,,,,,,,,,,,,,,,,,,,"29.82","59","73","0.00",,"+0.03","6","62","29.82","FEW:02 70 FEW:02 200 FEW:02 250","29.51","10.00","64","160",,"11",,,,,,,,,,,,,,,,,,,,,,,,,,,,,,,,,,,,,"MET13106/13/21 18:51:02 METAR KALB 132351Z 16010KT 10SM FEW070 FEW200 FEW250 23/15 A2982 RMK AO2 SLP097 T02280150 10261 20228 56009 (MAK)","FM-15","7",,,,,,,,,,,,,,,,,,,,,,,,,,,,"2006-09-08"
"72518014735","2021-06-13T19:00:00","FM-12","4",,,,,"PRECIP","260",,"PLASTIC","42.6918","-73.83109","NWS ALBANY, NY",,,,,,,,,,,,,,,,,,,,,,,,,,,,"59","73",,,"+0.03","6","62","29.82","74","29.51","9.94","64","160",,"11",,,,,,,,,,,,,,,,,,,,,,,,,,,,,,,,,,,,,"SYN08072518 32866 21610 10228 20150 39992 40097 56009 92351 333 10261 20144 555 91400=","FM-12","4",,,,,,,,,,,,,,,,,,,,,,,,,,,,"2006-09-08"
"72518014735","2021-06-13T19:51:00","FM-15","7",,,,,"PRECIP","260",,"PLASTIC","42.6918","-73.83109","NWS ALBANY, NY",,,,,,,,,,,,,,,,,,,,,,,,,,,"29.83","61","70","0.00",,,,"73","29.82","FEW:02 70 FEW:02 200 FEW:02 250","29.52","10.00","64","160",,"10",,,,,,,,,,,,,,,,,,,,,,,,,,,,,,,,,,,,,"MET10706/13/21 19:51:01 METAR KALB 140051Z 16009KT 10SM FEW070 FEW200 FEW250 21/16 A2983 RMK AO2 SLP099 T02110161","FM-15","7",,,,,,,,,,,,,,,,,,,,,,,,,,,,"2006-09-08"
"72518014735","2021-06-13T20:51:00","FM-15","7",,,,,"PRECIP","260",,"PLASTIC","42.6918","-73.83109","NWS ALBANY, NY",,,,,,,,,,,,,,,,,,,,,,,,,,,"29.84","61","68","0.00",,,,"78","29.84","FEW:02 140 FEW:02 200","29.53","10.00","64","160",,"9",,,,,,,,,,,,,,,,,,,,,,,,,,,,,,,,,,,,,"MET10006/13/21 20:51:01 METAR KALB 140151Z 16008KT 10SM FEW140 FEW200 20/16 A2984 RMK AO2 SLP104 T02000161","FM-15","7",,,,,,,,,,,,,,,,,,,,,,,,,,,,"2006-09-08"
"72518014735","2021-06-13T21:51:00","FM-15","7",,,,,"PRECIP","260",,"PLASTIC","42.6918","-73.83109","NWS ALBANY, NY",,,,,,,,,,,,,,,,,,,,,,,,,,,"29.85","61","67","0.00",,"-0.03","3","81","29.84","FEW:02 120","29.54","10.00","63","160",,"13",,,,,,,,,,,,,,,,,,,,,,,,,,,,,,,,,,,,,"MET09906/13/21 21:51:01 METAR KALB 140251Z 16011KT 10SM FEW120 19/16 A2985 RMK AO2 SLP106 T01940161 53010","FM-15","7",,,,,,,,,,,,,,,,,,,,,,,,,,,,"2006-09-08"
"72518014735","2021-06-13T22:00:00","FM-12","4",,,,,"PRECIP","260",,"PLASTIC","42.6918","-73.83109","NWS ALBANY, NY",,,,,,,,,,,,,,,,,,,,,,,,,,,,"61","67",,,"-0.03","3","81","29.84",,"29.54","9.94","63","160",,"13",,,,,,,,,,,,,,,,,,,,,,,,,,,,,,,,,,,,,"SYN06472518 32966 21611 10194 20161 30002 40106 53010 90251 555 91403=","FM-12","4",,,,,,,,,,,,,,,,,,,,,,,,,,,,"2006-09-08"
"72518014735","2021-06-13T22:51:00","FM-15","7",,,,,"PRECIP","260",,"PLASTIC","42.6918","-73.83109","NWS ALBANY, NY",,,,,,,,,,,,,,,,,,,,,,,,,,,"29.83","62","66","0.00",,,,"87","29.83","BKN:07 250","29.52","10.00","64","150","23","10",,,,,,,,,,,,,,,,,,,,,,,,,,,,,,,,,,,,,"MET09606/13/21 22:51:02 METAR KALB 140351Z 15009G20KT 10SM BKN250 19/17 A2983 RMK AO2 SLP100 T01890167","FM-15","7",,,,,,,,,,,,,,,,,,,,,,,,,,,,"2006-09-08"
"72518014735","2021-06-13T23:51:00","FM-15","7",,,,,"PRECIP","260",,"PLASTIC","42.6918","-73.83109","NWS ALBANY, NY",,,,,,,,,,,,,,,,,,,,,,,,,,,"29.82","62","64","0.00",,,,"93","29.82","BKN:07 250","29.51","10.00","63","160",,"11",,,,,,,,,,,,,,,,,,,,,,,,,,,,,,,,,,,,,"MET10306/13/21 23:51:02 METAR KALB 140451Z 16010KT 10SM BKN250 18/17 A2982 RMK AO2 SLP097 T01780167 402610144","FM-15","7",,,,,,,,,,,,,,,,,,,,,,,,,,,,"2006-09-08"
"72518014735","2021-06-13T23:59:00","SOD  ","6",,,,,"PRECIP","260",,"PLASTIC","42.6918","-73.83109","NWS ALBANY, NY",,,,,"69",,,"29.55",,"7.6","4","2.6","0","79","58","150","23","0.00","0","0.0","150","16","FG",,,,,,,,,,,,,,,,,,,,,,,,,,,,,,,,,,,,,,,,,,,,,,,,,,,,,,,,"SOD75624 HR PRECIPITATION (IN): 0.00 SNOW DEPTH (IN):0     24 HR SNOWFALL (IN):0.0  WEATHER(CODE):1  24 HR MAX TEMP (F): 7924 HR MIN TEMP (F): 58AVERAGE STATION PRESSURE:29.550 MINIMUM SEA LEVEL PRESSURE:29.81 TIME OF OCCURRENCE:2338 PEAK WIND SPEED (MPH): 23 PEAK WIND DIR (DEG):150 PEAK WIND TIME (LST):      FASTEST 2MIN SPEED (MPH): 16FASTEST 2MIN DIR (DEG):150 FASTEST 2MIN TIME (LST):     AVERAGE WIND SPEED (MPH): 7.6 24 HR AVG TEMP (F): 69DEPART FROM NORMAL:  1  HEATING DEGREE DAYS:  0 COOLING DEGREE DAYS:  4 LATEST DAY MAX TEMP (0700-1900 LST):79  LATEST NIGHT MIN TEMP(1900-0800 LST):58 HOURLY INCREMENTAL PRECIPITATION VALUES (IN):.00 0.00 0.00 0.00 0.00 0.00 0.00 0.00 0.00 0.00 0.00 0.00 0.00 0.00 0.00 0.00 0.00 0.00 0.00 0.00 0.00 0.00 0.00 0.00","SOD  ","6",,,,,,,,,,,,,,,,,,,,,,,,,"0416","1934",,"2006-09-08"
"72518014735","2021-06-14T00:51:00","FM-15","7",,,,,"PRECIP","260",,"PLASTIC","42.6918","-73.83109","NWS ALBANY, NY",,,,,,,,,,,,,,,,,,,,,,,,,,,"29.82","61","64","0.00",,"+0.02","5","90","29.82","SCT:04 15 BKN:07 250","29.51","10.00","62","170",,"11",,,,,,,,,,,,,,,,,,,,,,,,,,,,,,,,,,,,,"MET12306/14/21 00:51:02 METAR KALB 140551Z 17010KT 10SM SCT015 BKN250 18/16 A2982 RMK AO2 SLP097 T01780161 10222 20178 55008 (BA)","FM-15","7",,,,,,,,,,,,,,,,,,,,,,,,,,,,"2006-09-08"
"72518014735","2021-06-14T01:00:00","FM-12","4",,,,,"PRECIP","260",,"PLASTIC","42.6918","-73.83109","NWS ALBANY, NY",,,,,,,,,,,,,,,,,,,,,,,,,,,,"61","64",,,"+0.02","5","90","29.82","15","29.51","9.94","62","170",,"11",,,,,,,,,,,,,,,,,,,,,,,,,,,,,,,,,,,,,"SYN08072518 32466 61710 10178 20161 39992 40097 55008 90551 333 10222 20144 555 91406=","FM-12","4",,,,,,,,,,,,,,,,,,,,,,,,,,,,"2006-09-08"
"72518014735","2021-06-14T01:04:00","FM-16","7",,,,,"PRECIP","260",,"PLASTIC","42.6918","-73.83109","NWS ALBANY, NY",,,,,,,,,,,,,,,,,,,,,,,,,,,"29.82","60","64",,,,,"87",,"BKN:07 16 OVC:08 250","29.51","10.00","62","160",,"11",,,,,,,,,,,,,,,,,,,,,,,,,,,,,,,,,,,,,"MET09806/14/21 01:04:02 SPECI KALB 140604Z 16010KT 10SM BKN016 OVC250 18/16 A2982 RMK AO2 T01780156 (BA)","FM-16","7",,,,,,,,,,,,,,,,,,,,,,,,,,,,"2006-09-08"
"72518014735","2021-06-14T01:37:00","FM-16","7",,,,,"PRECIP","260",,"PLASTIC","42.6918","-73.83109","NWS ALBANY, NY",,,,,,,,,,,,,,,,,,,,,,,,,,,"29.83","60","63",,,,,"90",,"SCT:04 16 OVC:08 250","29.52","10.00","61","150",,"11",,,,,,,,,,,,,,,,,,,,,,,,,,,,,,,,,,,,,"MET09806/14/21 01:37:02 SPECI KALB 140637Z 15010KT 10SM SCT016 OVC250 17/16 A2983 RMK AO2 T01720156 (BA)","FM-16","7",,,,,,,,,,,,,,,,,,,,,,,,,,,,"2006-09-08"
"72518014735","2021-06-14T01:51:00","FM-15","7",,,,,"PRECIP","260",,"PLASTIC","42.6918","-73.83109","NWS ALBANY, NY",,,,,,,,,,,,,,,,,,,,,,,,,,,"29.82","59","63","0.00",,,,"87","29.81","SCT:04 16 BKN:07 130 OVC:08 250","29.51","10.00","61","150",,"13",,,,,,,,,,,,,,,,,,,,,,,,,,,,,,,,,,,,,"MET14306/14/21 01:51:02 METAR KALB 140651Z 15011KT 10SM SCT016 BKN130 OVC250 17/15 A2982 RMK AO2 LTG DSNT W SLP095 CB DSNT W-NW MOV NE T01720150 (BA)","FM-15","7",,,,,,,,,,,,,,,,,,,,,,,,,,,,"2006-09-08"
"72518014735","2021-06-14T02:48:00","FM-16","7",,,,,"PRECIP","260",,"PLASTIC","42.6918","-73.83109","NWS ALBANY, NY",,,,,,,,,,,,,,,,,,,,,,,,,,,"29.82","57","63",,"|TS |",,,"83",,"FEW:02 16 FEW:02 35 BKN:07 110","29.51","10.00","60","150",,"9",,,,,,,,,,,,,,,,,,,,,,,,,,,,,,,,,,,,,"MET16406/14/21 02:48:02 SPECI KALB 140748Z 15008KT 10SM TS FEW016 FEW035 BKN110 17/14 A2982 RMK AO2 LTG DSNT W AND NW TSB48 FRQ LTGICCG DSNT W-NW TS DSNT W-NW MOV NE (BA)","FM-16","7",,,,,,,,,,,,,,,,,,,,,,,,,,,,"2006-09-08"
"72518014735","2021-06-14T02:51:00","FM-15","7",,,,,"PRECIP","260",,"PLASTIC","42.6918","-73.83109","NWS ALBANY, NY",,,,,,,,,,,,,,,,,,,,,,,,,,,"29.82","58","63","0.00","|TS |",,,"84","29.81","FEW:02 16 FEW:02 35 BKN:07 110","29.51","10.00","60","150",,"8",,,,,,,,,,,,,,,,,,,,,,,,,,,,,,,,,,,,,"MET18106/14/21 02:51:02 METAR KALB 140751Z 15007KT 10SM TS FEW016 FEW035 BKN110 17/14 A2982 RMK AO2 LTG DSNT W AND NW TSB48 SLP095 FRQ LTGICCG DSNT W-NW TS DSNT W-NW MOV NE T01720144 (BA)","FM-15","7",,,,,,,,,,,,,,,,,,,,,,,,,,,,"2006-09-08"
"72518014735","2021-06-14T03:51:00","FM-15","7",,,,,"PRECIP","260",,"PLASTIC","42.6918","-73.83109","NWS ALBANY, NY",,,,,,,,,,,,,,,,,,,,,,,,,,,"29.83","60","61","0.08s","TS:7 RA:02 BR:1 |RA TS |RA","-0.01","3","97","29.82","SCT:04 37 BKN:07 65 OVC:08 100","29.52","5.00","60","160",,"6",,,,,,,,,,,,,,,,,,,,,,,,,,,,,,,,,,,,,"MET19906/14/21 03:51:02 METAR KALB 140851Z 16005KT 5SM TSRA BR SCT037CB BKN065 OVC100 16/16 A2983 RMK AO2 LTG DSNT ALQDS RAB12 SLP099 OCNL LTGICCG VC SW-N TS VC SW-N MOV NE P0001 60001 T01610156 53002 (BA)","FM-15","7",,,,,,,,,,,,,,,,,,,,,,,,,,,,"2006-09-08"
"72518014735","2021-06-14T04:00:00","FM-12","4",,,,,"PRECIP","260",,"PLASTIC","42.6918","-73.83109","NWS ALBANY, NY",,,,,,,,,,,,,,,,,,,,,,,,,,,,"60","61",,"||TS","-0.01","3","97","29.82","41","29.52","4.97","60","160",,"6",,,,,,,,,,,,,,,,,,,,,,,,,,,,,,,,,,,,,"SYN08672518 11658 81605 10161 20156 39995 40099 53002 69937 795// 90851 333 96010 555 91409=","FM-12","4",,,,,,,,,,,,,,,,,,,,,,,,,,,,"2006-09-08"
"72518014735","2021-06-14T04:36:00","FM-16","7",,,,,"PRECIP","260",,"PLASTIC","42.6918","-73.83109","NWS ALBANY, NY",,,,,,,,,,,,,,,,,,,,,,,,,,,"29.82","60","60","0.15","TS:7 -RA:02 |RA TS TS |RA",,,"100",,"BKN:07 15 BKN:07 35 OVC:08 90","29.51","10.00","60","330",,"10",,,,,,,,,,,,,,,,,,,,,,,,,,,,,,,,,,,,,"MET19506/14/21 04:36:02 SPECI KALB 140936Z 33009KT 10SM -TSRA BKN015 BKN035CB OVC090 16/16 A2982 RMK AO2 LTG DSNT ALQDS OCNL LTGICCG VC N-NE TS VC N-NE MOV E CB E-SE AND NW-N MOV E P0015 T01560156 (BA)","FM-16","7",,,,,,,,,,,,,,,,,,,,,,,,,,,,"2006-09-08"
"72518014735","2021-06-14T04:41:00","FM-16","7",,,,,"PRECIP","260",,"PLASTIC","42.6918","-73.83109","NWS ALBANY, NY",,,,,,,,,,,,,,,,,,,,,,,,,,,"29.82","60","60","0.15","-RA:02 |RA |RA",,,"100",,"BKN:07 11 BKN:07 40 OVC:08 70","29.51","10.00","60","340",,"10",,,,,,,,,,,,,,,,,,,,,,,,,,,,,,,,,,,,,"MET18506/14/21 04:41:02 SPECI KALB 140941Z 34009KT 10SM -RA BKN011 BKN040CB OVC070 16/16 A2982 RMK AO2 LTG DSNT ALQDS TSE41 OCNL LTGICCG DSNT NE CB NW-N AND DSNT NE MOV E P0015 T01560156 (BA)","FM-16","7",,,,,,,,,,,,,,,,,,,,,,,,,,,,"2006-09-08"
"72518014735","2021-06-14T04:51:00","FM-15","7",,,,,"PRECIP","260",,"PLASTIC","42.6918","-73.83109","NWS ALBANY, NY",,,,,,,,,,,,,,,,,,,,,,,,,,,"29.81","60","60","0.08","-RA:02 |RA |RA",,,"100","29.81","BKN:07 11 BKN:07 40 OVC:08 50","29.50","10.00","60","110",,"8",,,,,,,,,,,,,,,,,,,,,,,,,,,,,,,,,,,,,"MET19206/14/21 04:51:02 METAR KALB 140951Z 11007KT 10SM -RA BKN011 BKN040 OVC050 16/16 A2981 RMK AO2 LTG DSNT ALQDS TSE41 SLP094 OCNL LTG DSNT NE AND SW CB DSNT NE AND SW MOV NE P0015 T01560156 (BA)","FM-15","7",,,,,,,,,,,,,,,,,,,,,,,,,,,,"2006-09-08"
"72518014735","2021-06-14T05:46:00","FM-16","7",,,,,"PRECIP","260",,"PLASTIC","42.6918","-73.83109","NWS ALBANY, NY",,,,,,,,,,,,,,,,,,,,,,,,,,,"29.83","61","61","T","TS:7 -RA:02 |RA TS TS |RA",,,"100",,"OVC:08 14","29.52","7.00","61","130",,"6",,,,,,,,,,,,,,,,,,,,,,,,,,,,,,,,,,,,,"MET17306/14/21 05:46:02 SPECI KALB 141046Z 13005KT 7SM -TSRA OVC014CB 16/16 A2983 RMK AO2 LTG DSNT SE AND W RAE0953B32 TSB46 OCNL LTGICCG SE TS SE MOV NE CB W-NW MOV NE P0000 (BA)","FM-16","7",,,,,,,,,,,,,,,,,,,,,,,,,,,,"2006-09-08"
"72518014735","2021-06-14T05:49:00","FM-16","6",,,,,"PRECIP","260",,"PLASTIC","42.6918","-73.83109","NWS ALBANY, NY",,,,,,,,,,,,,,,,,,,,,,,,,,,"29.83","61","61",,"TS:7 -RA:02 |RA TS |RA",,,"100",,"OVC:08 16","29.52","7.00","61","130",,"6",,,,,,,,,,,,,,,,,,,,,,,,,,,,,,,,,,,,,"MET16206/14/21 05:49:02 SPECI KALB 141049Z 13005KT 7SM -TSRA OVC016CB 16/16 A2983 RMK AO2 LTG DSNT W RAE0953B32 TSB46 OCNL LTGICCG SE-SW TS SE-SW MOV NE P0000 FIBI (BA)","FM-16","6",,,,,,,,,,,,,,,,,,,,,,,,,,,,"2006-09-08"
"72518014735","2021-06-14T05:51:00","FM-15","7",,,,,"PRECIP","260",,"PLASTIC","42.6918","-73.83109","NWS ALBANY, NY",,,,,,,,,,,,,,,,,,,,,,,,,,,"29.83","60","60","T","TS:7 -RA:02 |RA TS TS |RA",,,"100","29.82","OVC:08 16","29.52","8.00","60","130",,"6",,,,,,,,,,,,,,,,,,,,,,,,,,,,,,,,,,,,,"MET16306/14/21 05:51:02 METAR KALB 141051Z 13005KT 8SM -TSRA OVC016CB 16/16 A2983 RMK AO2 RAE0953B32 TSB46 SLP099 OCNL LTGICCG SE-SW TS SE-SW MOV NE P0000 T01560156 (BA)","FM-15","7",,,,,,,,,,,,,,,,,,,,,,,,,,,,"2006-09-08"
"72518014735","2021-06-14T06:25:00","FM-16","7",,,,,"PRECIP","260",,"PLASTIC","42.6918","-73.83109","NWS ALBANY, NY",,,,,,,,,,,,,,,,,,,,,,,,,,,"29.82","59","59","0.12","TS:7 -RA:02 |RA TS TS |RA",,,"100",,"BKN:07 13 BKN:07 30 OVC:08 55","29.51","9.00","59","150",,"10",,,,,,,,,,,,,,,,,,,,,,,,,,,,,,,,,,,,,"MET17306/14/21 06:25:02 SPECI KALB 141125Z 15009KT 9SM -TSRA BKN013 BKN030CB OVC055 15/15 A2982 RMK AO2 LTG DSNT N AND NW OCNL LTGICCG OHD-SE TS OHD-SE MOV NE P0012 T01500150 (BA)","FM-16","7",,,,,,,,,,,,,,,,,,,,,,,,,,,,"2006-09-08"
"72518014735","2021-06-14T06:33:00","FM-16","7",,,,,"PRECIP","260",,"PLASTIC","42.6918","-73.83109","NWS ALBANY, NY",,,,,,,,,,,,,,,,,,,,,,,,,,,"29.82","60","60","0.12","-RA:02 |RA |RA",,,"100",,"BKN:07 13 BKN:07 30 OVC:08 75","29.51","10.00","60","140",,"8",,,,,,,,,,,,,,,,,,,,,,,,,,,,,,,,,,,,,"MET15806/14/21 06:33:02 SPECI KALB 141133Z 14007KT 10SM -RA BKN013 BKN030CB OVC075 16/16 A2982 RMK AO2 LTG DSNT E TSE32 CB E AND DSNT SW MOV NE P0012 T01560156 (JB)","FM-16","7",,,,,,,,,,,,,,,,,,,,,,,,,,,,"2006-09-08"
"72518014735","2021-06-14T06:51:00","FM-15","7",,,,,"PRECIP","260",,"PLASTIC","42.6918","-73.83109","NWS ALBANY, NY",,,,,,,,,,,,,,,,,,,,,,,,,,,"29.81","60","60","0.12",,"+0.02","6","100","29.81","BKN:07 11 OVC:08 75","29.50","10.00","60","140",,"10",,,,,,,,,,,,,,,,,,,,,,,,,,,,,,,,,,,,,"MET19506/14/21 06:51:02 METAR KALB 141151Z 14009KT 10SM BKN011 OVC075 16/16 A2981 RMK AO2 LTG DSNT E AND SW RAE49 TSE32 SLP094 CB DSNT E AND SW MOV NE P0012 60028 70028 T01560156 10178 20150 56006 (JB)","FM-15","7",,,,,,,,,,,,,,,,,,,,,,,,,,,,"2006-09-08"
"72518014735","2021-06-14T07:00:00","FM-12","4",,,,,"PRECIP","260",,"PLASTIC","42.6918","-73.83109","NWS ALBANY, NY",,,,,,,,,,,,,,,,,,,,,,,,,,,,"60","60",,,"+0.02","6","100","29.81","15","29.49","9.94","60","140",,"10",,,,,,,,,,,,,,,,,,,,,,,,,,,,,,,,,,,,,"SYN09272518 12466 81409 10156 20156 39988 40094 56006 60071 91151 333 10261 20150 70071 555 91412=","FM-12","4",,,,,,,,,,,,,,,,,,,,,,,,,,,,"2006-09-08"
"72518014735","2021-06-14T07:07:00","FM-16","7",,,,,"PRECIP","260",,"PLASTIC","42.6918","-73.83109","NWS ALBANY, NY",,,,,,,,,,,,,,,,,,,,,,,,,,,"29.82","60","60","T","TS:7 -RA:02 |RA TS TS |RA",,,"100",,"BKN:07 11 OVC:08 75","29.51","10.00","60","150",,"11",,,,,,,,,,,,,,,,,,,,,,,,,,,,,,,,,,,,,"MET15706/14/21 07:07:02 SPECI KALB 141207Z 15010KT 10SM -TSRA BKN011CB OVC075 16/16 A2982 RMK AO2 RAB1152 TSB06 OCNL LTGICCG S-W TS S-W MOV NE P0000 T01560156 (JB)","FM-16","7",,,,,,,,,,,,,,,,,,,,,,,,,,,,"2006-09-08"
"72518014735","2021-06-14T07:14:00","FM-16","7",,,,,"PRECIP","260",,"PLASTIC","42.6918","-73.83109","NWS ALBANY, NY",,,,,,,,,,,,,,,,,,,,,,,,,,,"29.83","59","59","0.02","TS:7 +RA:02 BR:1 |RA TS |RA",,,"100",,"BKN:07 11 OVC:08 75","29.52","2.00","59","160","22","16",,,,,,,,,,,,,,,,,,,,,,,,,,,,,,,,,,,,,"MET18806/14/21 07:14:02 SPECI KALB 141214Z 16014G19KT 2SM R01/4500VP6000FT +TSRA BR BKN011CB OVC075 15/15 A2983 RMK AO2 RAB1152 TSB06 FRQ LTGICCG SE-OHD-W TS SE-OHD-W MOV NE P0002 T01500150 (JB)","FM-16","7",,,,,,,,,,,,,,,,,,,,,,,,,,,,"2006-09-08"
"72518014735","2021-06-14T07:18:00","FM-16","7",,,,,"PRECIP","260",,"PLASTIC","42.6918","-73.83109","NWS ALBANY, NY",,,,,,,,,,,,,,,,,,,,,,,,,,,"29.82","59","59","0.12","TS:7 +RA:02 BR:1 |RA TS |RA",,,"100",,"BKN:07 11 OVC:08 42","29.51","1.00","59","140","22","11",,,,,,,,,,,,,,,,,,,,,,,,,,,,,,,,,,,,,"MET18406/14/21 07:18:02 SPECI KALB 141218Z 14010G19KT 1SM R01/4000VP6000FT +TSRA BR BKN011CB OVC042 15/15 A2982 RMK AO2 RAB1152 TSB06 FRQ LTGICCG SE-OHD TS SE-OHD MOV NE P0012 T01500150 (JB)","FM-16","7",,,,,,,,,,,,,,,,,,,,,,,,,,,,"2006-09-08"
"72518014735","2021-06-14T07:30:00","FM-16","7",,,,,"PRECIP","260",,"PLASTIC","42.6918","-73.83109","NWS ALBANY, NY",,,,,,,,,,,,,,,,,,,,,,,,,,,"29.82","59","59","0.18","TS:7 -RA:02 BR:1 |RA TS |RA",,,"100",,"SCT:04 11 BKN:07 36 OVC:08 70","29.51","3.00","59","150","22","16",,,,,,,,,,,,,,,,,,,,,,,,,,,,,,,,,,,,,"MET17306/14/21 07:30:02 SPECI KALB 141230Z 15014G19KT 3SM -TSRA BR SCT011 BKN036CB OVC070 15/15 A2982 RMK AO2 RAB1152 TSB06 OCNL LTGICCG NE-SE TS NE-SE MOV NE P0018 T01500150 (JB)","FM-16","7",,,,,,,,,,,,,,,,,,,,,,,,,,,,"2006-09-08"
"72518014735","2021-06-14T07:41:00","FM-16","7",,,,,"PRECIP","260",,"PLASTIC","42.6918","-73.83109","NWS ALBANY, NY",,,,,,,,,,,,,,,,,,,,,,,,,,,"29.82","59","59","0.19","-RA:02 |RA |RA",,,"100",,"BKN:07 13 BKN:07 33 OVC:08 70","29.51","8.00","59","140",,"8",,,,,,,,,,,,,,,,,,,,,,,,,,,,,,,,,,,,,"MET19706/14/21 07:41:02 SPECI KALB 141241Z 14007KT 8SM -RA BKN013 BKN033CB OVC070 15/15 A2982 RMK AO2 LTG DSNT NE AND E RAB1152 TSB06E40 OCNL LTGICCG NE-SE CB NE-SE AND DSNT W MOV NE P0019 T01500150 (JB)","FM-16","7",,,,,,,,,,,,,,,,,,,,,,,,,,,,"2006-09-08"
"72518014735","2021-06-14T07:51:00","FM-15","7",,,,,"PRECIP","260",,"PLASTIC","42.6918","-73.83109","NWS ALBANY, NY",,,,,,,,,,,,,,,,,,,,,,,,,,,"29.82","60","60","0.19","-RA:02 |RA |RA",,,"100","29.82","BKN:07 13 BKN:07 50 OVC:08 65","29.51","10.00","60","140",,"11",,,,,,,,,,,,,,,,,,,,,,,,,,,,,,,,,,,,,"MET19006/14/21 07:51:02 METAR KALB 141251Z 14010KT 10SM -RA BKN013 BKN050 OVC065 16/16 A2982 RMK AO2 LTG DSNT NE AND E AND W RAB1152 TSB06E40 SLP097 CB DSNT NE-SE AND W MOV NE P0019 T01560156 (JB)","FM-15","7",,,,,,,,,,,,,,,,,,,,,,,,,,,,"2006-09-08"
"72518014735","2021-06-14T08:04:00","FM-16","7",,,,,"PRECIP","260",,"PLASTIC","42.6918","-73.83109","NWS ALBANY, NY",,,,,,,,,,,,,,,,,,,,,,,,,,,"29.82","59","59","0.03","RA:02 s |RA s |RA s",,,"100",,"BKN:07 13 OVC:08 50","29.51","0.50s","59","140",,"13",,,,,,,,,,,,,,,,,,,,,,,,,,,,,,,,,,,,,"MET18206/14/21 08:04:02 SPECI KALB 141304Z 14011KT 1/2SM R01/2800VP6000FT RA BKN013CB OVC050 15/15 A2982 RMK AO2 SFC VIS 2 LTG DSNT E AND W CB OHD-W AND DSNT NE AND SE P0003 T01500150 (JB)","FM-16","7",,,,,,,,,,,,,,,,,,,,,,,,,,,,"2006-09-08"
"72518014735","2021-06-14T08:06:00","FM-16","7",,,,,"PRECIP","260",,"PLASTIC","42.6918","-73.83109","NWS ALBANY, NY",,,,,,,,,,,,,,,,,,,,,,,,,,,"29.82","59","59","0.07","TS:7 +RA:02 FG:2 |FG RA TS |RA",,,"100",,"BKN:07 13 OVC:08 50","29.51","0.50","59","140",,"13",,,,,,,,,,,,,,,,,,,,,,,,,,,,,,,,,,,,,"MET20606/14/21 08:06:02 SPECI KALB 141306Z 14011KT 1/2SM R01/2800VP6000FT +TSRA FG BKN013CB OVC050 15/15 A2982 RMK AO2 LTG DSNT E TSB05 OCNL LTGICCG OHD-W AND DSNT NE-E TS OHD-W AND DSNT NE-E P0007 T01500150 (JB)","FM-16","7",,,,,,,,,,,,,,,,,,,,,,,,,,,,"2006-09-08"
"72518014735","2021-06-14T08:18:00","FM-16","7",,,,,"PRECIP","260",,"PLASTIC","42.6918","-73.83109","NWS ALBANY, NY",,,,,,,,,,,,,,,,,,,,,,,,,,,"29.82","59","59","0.25","TS:7 -RA:02 BR:1 |RA TS |RA",,,"100",,"BKN:07 16 OVC:08 50","29.51","3.00","59","150","20","11",,,,,,,,,,,,,,,,,,,,,,,,,,,,,,,,,,,,,"MET19206/14/21 08:18:02 SPECI KALB 141318Z 15010G17KT 3SM R01/5000VP6000FT -TSRA BR BKN016CB OVC050 15/15 A2982 RMK AO2 LTG DSNT E TSB05 OCNL LTGICCG E-OHD-NW TS E-OHD-NW MOV NE P0025 T01500150 (JB)","FM-16","7",,,,,,,,,,,,,,,,,,,,,,,,,,,,"2006-09-08"
"72518014735","2021-06-14T08:29:00","FM-16","7",,,,,"PRECIP","260",,"PLASTIC","42.6918","-73.83109","NWS ALBANY, NY",,,,,,,,,,,,,,,,,,,,,,,,,,,"29.81","60","60","0.25","-RA:02 BR:1 |RA |RA",,,"100",,"BKN:07 16 OVC:08 50","29.50","6.00","60","150",,"10",,,,,,,,,,,,,,,,,,,,,,,,,,,,,,,,,,,,,"MET14606/14/21 08:29:02 SPECI KALB 141329Z 15009KT 6SM -RA BR BKN016CB OVC050 16/16 A2981 RMK AO2 LTG DSNT E TSB05E28 CB N-E MOV NE P0025 T01560156 (JB)","FM-16","7",,,,,,,,,,,,,,,,,,,,,,,,,,,,"2006-09-08"
"72518014735","2021-06-14T08:51:00","FM-15","7",,,,,"PRECIP","260",,"PLASTIC","42.6918","-73.83109","NWS ALBANY, NY",,,,,,,,,,,,,,,,,,,,,,,,,,,"29.82","61","61","0.25",,,,"100","29.81","BKN:07 16 OVC:08 50","29.51","10.00","61","140","24","14",,,,,,,,,,,,,,,,,,,,,,,,,,,,,,,,,,,,,"MET16506/14/21 08:51:02 METAR KALB 141351Z 14012G21KT 10SM BKN016CB OVC050 16/16 A2982 RMK AO2 LTG DSNT NE AND NW RAE47 TSB05E28 SLP096 CB N-NE MOV NE P0025 T01610161 (JB)","FM-15","7",,,,,,,,,,,,,,,,,,,,,,,,,,,,"2006-09-08"
"72518014735","2021-06-14T09:51:00","FM-15","7",,,,,"PRECIP","260",,"PLASTIC","42.6918","-73.83109","NWS ALBANY, NY",,,,,,,,,,,,,,,,,,,,,,,,,,,"29.81","61","63","0.00",,"+0.01","8","93","29.80","OVC:08 16","29.50","10.00","62","150","20","13",,,,,,,,,,,,,,,,,,,,,,,,,,,,,,,,,,,,,"MET15706/14/21 09:51:02 METAR KALB 141451Z 15011G17KT 10SM OVC016 17/16 A2981 RMK AO2 LTG DSNT W SLP092 PRESENT WX VCSH CB DSNT N MOV NE 60044 T01720161 58002 (JB)","FM-15","7",,,,,,,,,,,,,,,,,,,,,,,,,,,,"2006-09-08"
"72518014735","2021-06-14T10:00:00","FM-12","4",,,,,"PRECIP","260",,"PLASTIC","42.6918","-73.83109","NWS ALBANY, NY",,,,,,,,,,,,,,,,,,,,,,,,,,,,"61","63",,,"+0.01","8","93","29.80","15","29.49","9.94","62","150",,"13",,,,,,,,,,,,,,,,,,,,,,,,,,,,,,,,,,,,,"SYN08072518 12466 81511 10172 20161 39988 40092 58002 60117 91451 333 91017 555 91415=","FM-12","4",,,,,,,,,,,,,,,,,,,,,,,,,,,,"2006-09-08"
"72518014735","2021-06-14T10:51:00","FM-15","7",,,,,"PRECIP","260",,"PLASTIC","42.6918","-73.83109","NWS ALBANY, NY",,,,,,,,,,,,,,,,,,,,,,,,,,,"29.81","60","63","0.00",,,,"90","29.81","OVC:08 16","29.50","10.00","61","150","21","16",,,,,,,,,,,,,,,,,,,,,,,,,,,,,,,,,,,,,"MET16006/14/21 10:51:02 METAR KALB 141551Z 15014G18KT 10SM OVC016 17/16 A2981 RMK AO2 LTG DSNT W SLP095 PRESENT WX VCSH CB DSNT W-NW MOV NE OCNL BINOVC T01720156 (JB)","FM-15","7",,,,,,,,,,,,,,,,,,,,,,,,,,,,"2006-09-08"
"72518014735","2021-06-14T11:49:00","FM-16","7",,,,,"PRECIP","260",,"PLASTIC","42.6918","-73.83109","NWS ALBANY, NY",,,,,,,,,,,,,,,,,,,,,,,,,,,"29.81","61","63",,"TS:7 |TS TS |",,,"94",,"OVC:08 18","29.50","10.00","62","150",,"15",,,,,,,,,,,,,,,,,,,,,,,,,,,,,,,,,,,,,"MET14906/14/21 11:49:02 SPECI KALB 141649Z 15013KT 10SM TS OVC018CB 17/16 A2981 RMK AO2 LTG DSNT SW AND W TSB49 OCNL LTGICCG VC SW-W TS VC SW-W MOV NE (JB)","FM-16","7",,,,,,,,,,,,,,,,,,,,,,,,,,,,"2006-09-08"
"72518014735","2021-06-14T11:51:00","FM-15","6",,,,,"PRECIP","260",,"PLASTIC","42.6918","-73.83109","NWS ALBANY, NY",,,,,,,,,,,,,,,,,,,,,,,,,,,"29.81","60","63","T","TS:7 -RA:02 |RA TS |RA",,,"90","29.81","OVC:08 18","29.50","10.00","61","150","22","16",,,,,,,,,,,,,,,,,,,,,,,,,,,,,,,,,,,,,"MET17206/14/21 11:51:02 METAR KALB 141651Z 15014G19KT 10SM -TSRA OVC018CB 17/16 A2981 RMK AO2 LTG DSNT SW RAB51 TSB49 SLP095 OCNL LTGICCG SW-W TS SW-W MOV NE P0000 T01720156 (JB)","FM-15","6",,,,,,,,,,,,,,,,,,,,,,,,,,,,"2006-09-08"
"72518014735","2021-06-14T12:09:00","FM-16","7",,,,,"PRECIP","260",,"PLASTIC","42.6918","-73.83109","NWS ALBANY, NY",,,,,,,,,,,,,,,,,,,,,,,,,,,"29.81","60","63","T","-RA:02 |RA |RA",,,"90",,"OVC:08 18","29.50","10.00","61","170",,"11",,,,,,,,,,,,,,,,,,,,,,,,,,,,,,,,,,,,,"MET13606/14/21 12:09:02 SPECI KALB 141709Z 17010KT 10SM -RA OVC018CB 17/16 A2981 RMK AO2 LTG DSNT SW TSE08 CB SW-W MOV NE P0000 T01720156 (JB)","FM-16","7",,,,,,,,,,,,,,,,,,,,,,,,,,,,"2006-09-08"
"72518014735","2021-06-14T12:51:00","FM-15","7",,,,,"PRECIP","260",,"PLASTIC","42.6918","-73.83109","NWS ALBANY, NY",,,,,,,,,,,,,,,,,,,,,,,,,,,"29.81","60","62","0.03","-RA:02 |RA |RA","+0.00","6","93","29.81","OVC:08 16","29.50","10.00","61","140","18","8",,,,,,,,,,,,,,,,,,,,,,,,,,,,,,,,,,,,,"MET15906/14/21 12:51:02 METAR KALB 141751Z 14007G16KT 10SM -RA OVC016 17/16 A2981 RMK AO2 TSE08 SLP094 CB DSNT SW MOV NE P0002 60046 T01670156 10183 20150 56001 (JB)","FM-15","7",,,,,,,,,,,,,,,,,,,,,,,,,,,,"2006-09-08"
"72518014735","2021-06-14T13:00:00","FM-12","4",,,,,"PRECIP","260",,"PLASTIC","42.6918","-73.83109","NWS ALBANY, NY",,,,,,,,,,,,,,,,,,,,,,,,,,,,"60","62",,"||RA","+0.00","6","93","29.81","15","29.49","9.94","61","140",,"8",,,,,,,,,,,,,,,,,,,,,,,,,,,,,,,,,,,,,"SYN09872518 11466 81407 10167 20156 39988 40094 56001 60121 761// 91751 333 10183 20150 91016 555 91418=","FM-12","4",,,,,,,,,,,,,,,,,,,,,,,,,,,,"2006-09-08"
"72518014735","2021-06-14T13:25:00","FM-16","7",,,,,"PRECIP","260",,"PLASTIC","42.6918","-73.83109","NWS ALBANY, NY",,,,,,,,,,,,,,,,,,,,,,,,,,,"29.81","60","61","0.03","-RA:02 |RA |RA",,,"97",,"OVC:08 14","29.50","10.00","60","160",,"8",,,,,,,,,,,,,,,,,,,,,,,,,,,,,,,,,,,,,"MET11906/14/21 13:25:02 SPECI KALB 141825Z 16007KT 10SM -RA OVC014 16/16 A2981 RMK AO2 CB DSNT SW MOV NE P0003 T01610156 (JB)","FM-16","7",,,,,,,,,,,,,,,,,,,,,,,,,,,,"2006-09-08"
"72518014735","2021-06-14T13:51:00","FM-15","7",,,,,"PRECIP","260",,"PLASTIC","42.6918","-73.83109","NWS ALBANY, NY",,,,,,,,,,,,,,,,,,,,,,,,,,,"29.80","61","61","0.10","RA:02 BR:1 |RA |RA",,,"100","29.79","BKN:07 14 OVC:08 27","29.49","3.00","61","140",,"11",,,,,,,,,,,,,,,,,,,,,,,,,,,,,,,,,,,,,"MET12406/14/21 13:51:02 METAR KALB 141851Z 14010KT 3SM RA BR BKN014 OVC027 16/16 A2980 RMK AO2 PRESFR SLP089 P0008 T01610161 (MAK)","FM-15","7",,,,,,,,,,,,,,,,,,,,,,,,,,,,"2006-09-08"
"72518014735","2021-06-14T14:51:00","FM-15","7",,,,,"PRECIP","260",,"PLASTIC","42.6918","-73.83109","NWS ALBANY, NY",,,,,,,,,,,,,,,,,,,,,,,,,,,"29.77","62","63","0.01","-RA:02 |RA |RA",,,"97","29.77","BKN:07 14 OVC:08 27","29.46","9.00","62","150",,"11",,,,,,,,,,,,,,,,,,,,,,,,,,,,,,,,,,,,,"MET11506/14/21 14:51:02 METAR KALB 141951Z 15010KT 9SM -RA BKN014 OVC027 17/17 A2977 RMK AO2 SLP080 P0004 T01720167 (MAK)","FM-15","7",,,,,,,,,,,,,,,,,,,,,,,,,,,,"2006-09-08"
"72518014735","2021-06-14T15:39:00","FM-16","7",,,,,"PRECIP","260",,"PLASTIC","42.6918","-73.83109","NWS ALBANY, NY",,,,,,,,,,,,,,,,,,,,,,,,,,,"29.77","61","63","T",,,,"93",,"BKN:07 15 OVC:08 20","29.46","10.00","62","160",,"13",,,,,,,,,,,,,,,,,,,,,,,,,,,,,,,,,,,,,"MET11106/14/21 15:39:02 SPECI KALB 142039Z 16011KT 10SM BKN015 OVC020 17/16 A2977 RMK AO2 RAE18 P0000 T01720161 (MAK)","FM-16","7",,,,,,,,,,,,,,,,,,,,,,,,,,,,"2006-09-08"
"72518014735","2021-06-14T15:51:00","FM-15","7",,,,,"PRECIP","260",,"PLASTIC","42.6918","-73.83109","NWS ALBANY, NY",,,,,,,,,,,,,,,,,,,,,,,,,,,"29.77","60","63","T",,"+0.04","6","90","29.76","BKN:07 15 OVC:08 20","29.46","10.00","61","150","22","15",,,,,,,,,,,,,,,,,,,,,,,,,,,,,,,,,,,,,"MET13306/14/21 15:51:02 METAR KALB 142051Z 15013G19KT 10SM BKN015 OVC020 17/16 A2977 RMK AO2 RAE18 SLP079 P0000 60012 T01720156 56015 (MAK)","FM-15","7",,,,,,,,,,,,,,,,,,,,,,,,,,,,"2006-09-08"
"72518014735","2021-06-14T16:00:00","FM-12","4",,,,,"PRECIP","260",,"PLASTIC","42.6918","-73.83109","NWS ALBANY, NY",,,,,,,,,,,,,,,,,,,,,,,,,,,,"60","63",,,"+0.04","6","90","29.76","15","29.46","9.94","61","150",,"15",,,,,,,,,,,,,,,,,,,,,,,,,,,,,,,,,,,,,"SYN08072518 12466 81513 10172 20156 39975 40079 56015 60037 92051 333 91019 555 91421=","FM-12","4",,,,,,,,,,,,,,,,,,,,,,,,,,,,"2006-09-08"
"72518014735","2021-06-14T16:51:00","FM-15","7",,,,,"PRECIP","260",,"PLASTIC","42.6918","-73.83109","NWS ALBANY, NY",,,,,,,,,,,,,,,,,,,,,,,,,,,"29.77","60","63","0.00",,,,"90","29.77","OVC:08 18","29.46","10.00","61","150",,"9",,,,,,,,,,,,,,,,,,,,,,,,,,,,,,,,,,,,,"MET12606/14/21 16:51:02 METAR KALB 142151Z 15008KT 10SM OVC018 17/16 A2977 RMK AO2 LTG DSNT W SLP080 CB DSNT W MOV E T01720156 (MAK)","FM-15","7",,,,,,,,,,,,,,,,,,,,,,,,,,,,"2006-09-08"
"72518014735","2021-06-14T17:51:00","FM-15","7",,,,,"PRECIP","260",,"PLASTIC","42.6918","-73.83109","NWS ALBANY, NY",,,,,,,,,,,,,,,,,,,,,,,,,,,"29.75","62","62","0.03","-RA:02 |RA |RA",,,"100","29.75","OVC:08 18","29.44","8.00","62","120",,"6",,,,,,,,,,,,,,,,,,,,,,,,,,,,,,,,,,,,,"MET12106/14/21 17:51:02 METAR KALB 142251Z 12005KT 8SM -RA OVC018 17/17 A2975 RMK AO2 RAB12 PRESFR SLP075 P0003 T01670167 (MAK)","FM-15","7",,,,,,,,,,,,,,,,,,,,,,,,,,,,"2006-09-08"
"72518014735","2021-06-14T18:51:00","FM-15","7",,,,,"PRECIP","260",,"PLASTIC","42.6918","-73.83109","NWS ALBANY, NY",,,,,,,,,,,,,,,,,,,,,,,,,,,"29.77","62","62","T",,"-0.00","3","100","29.77","BKN:07 19 OVC:08 110","29.46","10.00","62","180",,"6",,,,,,,,,,,,,,,,,,,,,,,,,,,,,,,,,,,,,"MET14206/14/21 18:51:02 METAR KALB 142351Z 18005KT 10SM BKN019 OVC110 17/17 A2977 RMK AO2 RAE25 SLP081 P0000 60015 T01670167 10178 20161 53001 (MAK)","FM-15","7",,,,,,,,,,,,,,,,,,,,,,,,,,,,"2006-09-08"
"72518014735","2021-06-14T19:00:00","FM-12","4",,,,,"PRECIP","260",,"PLASTIC","42.6918","-73.83109","NWS ALBANY, NY",,,,,,,,,,,,,,,,,,,,,,,,,,,,"62","62",,,"-0.00","3","100","29.77","15","29.46","9.94","62","180",,"6",,,,,,,,,,,,,,,,,,,,,,,,,,,,,,,,,,,,,"SYN08672518 12466 81805 10167 20167 39975 40081 53001 60041 92351 333 10183 20150 555 91500=","FM-12","4",,,,,,,,,,,,,,,,,,,,,,,,,,,,"2006-09-08"
"72518014735","2021-06-14T19:51:00","FM-15","7",,,,,"PRECIP","260",,"PLASTIC","42.6918","-73.83109","NWS ALBANY, NY",,,,,,,,,,,,,,,,,,,,,,,,,,,"29.79","62","62","0.00",,,,"100","29.79","BKN:07 15 OVC:08 20","29.48","10.00","62","150",,"5",,,,,,,,,,,,,,,,,,,,,,,,,,,,,,,,,,,,,"MET10006/14/21 19:51:01 METAR KALB 150051Z 15004KT 10SM BKN015 OVC020 17/17 A2979 RMK AO2 SLP087 T01670167","FM-15","7",,,,,,,,,,,,,,,,,,,,,,,,,,,,"2006-09-08"
"72518014735","2021-06-14T20:51:00","FM-15","7",,,,,"PRECIP","260",,"PLASTIC","42.6918","-73.83109","NWS ALBANY, NY",,,,,,,,,,,,,,,,,,,,,,,,,,,"29.79","62","62","0.00",,,,"100","29.79","OVC:08 22","29.48","10.00","62","110",,"3",,,,,,,,,,,,,,,,,,,,,,,,,,,,,,,,,,,,,"MET09306/14/21 20:51:01 METAR KALB 150151Z 11003KT 10SM OVC022 17/17 A2979 RMK AO2 SLP088 T01670167","FM-15","7",,,,,,,,,,,,,,,,,,,,,,,,,,,,"2006-09-08"
"72518014735","2021-06-14T21:51:00","FM-15","7",,,,,"PRECIP","260",,"PLASTIC","42.6918","-73.83109","NWS ALBANY, NY",,,,,,,,,,,,,,,,,,,,,,,,,,,"29.78","61","61","0.00",,"-0.01","0","100","29.78","BKN:07 22","29.47","10.00","61","110",,"5",,,,,,,,,,,,,,,,,,,,,,,,,,,,,,,,,,,,,"MET09906/14/21 21:51:01 METAR KALB 150251Z 11004KT 10SM BKN022 16/16 A2978 RMK AO2 SLP084 T01610161 50003","FM-15","7",,,,,,,,,,,,,,,,,,,,,,,,,,,,"2006-09-08"
"72518014735","2021-06-14T22:00:00","FM-12","4",,,,,"PRECIP","260",,"PLASTIC","42.6918","-73.83109","NWS ALBANY, NY",,,,,,,,,,,,,,,,,,,,,,,,,,,,"61","61",,,"0.01","9","100","29.78","26","29.47","9.94","61","110",,"5",,,,,,,,,,,,,,,,,,,,,,,,,,,,,,,,,,,,,"SYN06472518 32566 61104 10161 20161 39978 40084 50003 90251 555 91503=","FM-12","4",,,,,,,,,,,,,,,,,,,,,,,,,,,,"2006-09-08"
"72518014735","2021-06-14T22:26:00","FM-16","7",,,,,"PRECIP","260",,"PLASTIC","42.6918","-73.83109","NWS ALBANY, NY",,,,,,,,,,,,,,,,,,,,,,,,,,,"29.78","60","60",,,,,"100",,"FEW:02 22 SCT:04 28 SCT:04 250","29.47","10.00","60","120",,"3",,,,,,,,,,,,,,,,,,,,,,,,,,,,,,,,,,,,,"MET10006/14/21 22:26:02 SPECI KALB 150326Z 12003KT 10SM FEW022 SCT028 SCT250 16/16 A2978 RMK AO2 T01560156","FM-16","7",,,,,,,,,,,,,,,,,,,,,,,,,,,,"2006-09-08"
"72518014735","2021-06-14T22:51:00","FM-15","7",,,,,"PRECIP","260",,"PLASTIC","42.6918","-73.83109","NWS ALBANY, NY",,,,,,,,,,,,,,,,,,,,,,,,,,,"29.78","60","60","0.00",,,,"100","29.77","FEW:02 10 SCT:04 28 SCT:04 250","29.47","10.00","60","130",,"3",,,,,,,,,,,,,,,,,,,,,,,,,,,,,,,,,,,,,"MET10706/14/21 22:51:02 METAR KALB 150351Z 13003KT 10SM FEW010 SCT028 SCT250 16/16 A2978 RMK AO2 SLP082 T01560156","FM-15","7",,,,,,,,,,,,,,,,,,,,,,,,,,,,"2006-09-08"
"72518014735","2021-06-14T23:31:00","FM-16","6",,,,,"PRECIP","260",,"PLASTIC","42.6918","-73.83109","NWS ALBANY, NY",,,,,,,,,,,,,,,,,,,,,,,,,,,"29.78","57","57",,,,,"100",,"SCT:04 15 BKN:07 25 BKN:07 80","29.47","10.00","57","230",,"5",,,,,,,,,,,,,,,,,,,,,,,,,,,,,,,,,,,,,"MET10506/14/21 23:31:03 SPECI KALB 150431Z 23004KT 10SM SCT015 BKN025 BKN080 14/14 A2978 RMK AO2 T01390139 (BA)","FM-16","6",,,,,,,,,,,,,,,,,,,,,,,,,,,,"2006-09-08"
"72518014735","2021-06-14T23:41:00","FM-16","7",,,,,"PRECIP","260",,"PLASTIC","42.6918","-73.83109","NWS ALBANY, NY",,,,,,,,,,,,,,,,,,,,,,,,,,,"29.78","59","59",,,,,"100",,"BKN:07 15 BKN:07 25 BKN:07 80","29.47","10.00","59","210",,"3",,,,,,,,,,,,,,,,,,,,,,,,,,,,,,,,,,,,,"MET10006/14/21 23:41:02 SPECI KALB 150441Z 21003KT 10SM BKN015 BKN025 BKN080 15/15 A2978 RMK AO2 T01500150","FM-16","7",,,,,,,,,,,,,,,,,,,,,,,,,,,,"2006-09-08"
"72518014735","2021-06-14T23:51:00","FM-15","7",,,,,"PRECIP","260",,"PLASTIC","42.6918","-73.83109","NWS ALBANY, NY",,,,,,,,,,,,,,,,,,,,,,,,,,,"29.78","59","59","0.00",,,,"100","29.78","BKN:07 15 OVC:08 28","29.47","10.00","59","170",,"3",,,,,,,,,,,,,,,,,,,,,,,,,,,,,,,,,,,,,"MET11006/14/21 23:51:02 METAR KALB 150451Z 17003KT 10SM BKN015 OVC028 15/15 A2978 RMK AO2 SLP083 T01500150 401830139","FM-15","7",,,,,,,,,,,,,,,,,,,,,,,,,,,,"2006-09-08"
"72518014735","2021-06-14T23:59:00","SOD  ","6",,,,,"PRECIP","260",,"PLASTIC","42.6918","-73.83109","NWS ALBANY, NY",,,,,"61",,,"29.49",,"9.1","0","-5.7","4","65","57","150","27","0.89","0","0.0","160","21","TS RA FG BR",,,,,,,,,,,,,,,,,,,,,,,,,,,,,,,,,,,,,,,,,,,,,,,,,,,,,,,,"SOD75724 HR PRECIPITATION (IN): 0.89 SNOW DEPTH (IN):0     24 HR SNOWFALL (IN):0.0  WEATHER(CODE):13  24 HR MAX TEMP (F): 6524 HR MIN TEMP (F): 57AVERAGE STATION PRESSURE:29.485 MINIMUM SEA LEVEL PRESSURE:29.75 TIME OF OCCURRENCE:1800 PEAK WIND SPEED (MPH): 27 PEAK WIND DIR (DEG):150 PEAK WIND TIME (LST):      FASTEST 2MIN SPEED (MPH): 21FASTEST 2MIN DIR (DEG):160 FASTEST 2MIN TIME (LST):     AVERAGE WIND SPEED (MPH): 9.1 24 HR AVG TEMP (F): 61DEPART FROM NORMAL: -7  HEATING DEGREE DAYS:  4 COOLING DEGREE DAYS:  0 LATEST DAY MAX TEMP (0700-1900 LST):65  LATEST NIGHT MIN TEMP(1900-0800 LST):59 HOURLY INCREMENTAL PRECIPITATION VALUES (IN):.00 0.00 0.00 0.08 0.08 T    0.12 0.19 0.25 0.00 0.00 T    0.03 0.10 0.01 T    0.00 0.03 T    0.00 0.00 0.00 0.00 0.00","SOD  ","6",,,,,,,,,,,,,,,,,,,,,,,,,"0416","1935",,"2006-09-08"
"72518014735","2021-06-15T00:15:00","FM-16","7",,,,,"PRECIP","260",,"PLASTIC","42.6918","-73.83109","NWS ALBANY, NY",,,,,,,,,,,,,,,,,,,,,,,,,,,"29.78","59","59",,"MI:1 FG:2 BR:1 |FG |",,,"100",,"FEW:02 5 BKN:07 15 BKN:07 28","29.47","6.00","59","000",,"0",,,,,,,,,,,,,,,,,,,,,,,,,,,,,,,,,,,,,"MET14006/15/21 00:15:02 SPECI KALB 150515Z 00000KT 6SM R01/6000VP6000FT MIFG BR FEW005 BKN015 BKN028 15/15 A2978 RMK AO2 MIFG S-W T01500150 $ (BA)","FM-16","7",,,,,,,,,,,,,,,,,,,,,,,,,,,,"2006-09-08"
"72518014735","2021-06-15T00:51:00","FM-15","7",,,,,"PRECIP","260",,"PLASTIC","42.6918","-73.83109","NWS ALBANY, NY",,,,,,,,,,,,,,,,,,,,,,,,,,,"29.78","58","58","0.00","BC:3 FG:2 BR:1 |FG |","+0.00","6","100","29.78","FEW:02 4 FEW:02 13 BKN:07 28","29.47","3.00","58","000",,"0",,,,,,,,,,,,,,,,,,,,,,,,,,,,,,,,,,,,,"MET17206/15/21 00:51:02 METAR KALB 150551Z 00000KT 3SM BCFG BR FEW004 FEW013 BKN028 14/14 A2978 RMK AO2 SFC VIS 5 SLP084 BCFG N AND W MIFG S-SW T01440144 10167 20139 56001 $ (BA)","FM-15","7",,,,,,,,,,,,,,,,,,,,,,,,,,,,"2006-09-08"
"72518014735","2021-06-15T01:00:00","FM-12","4",,,,,"PRECIP","260",,"PLASTIC","42.6918","-73.83109","NWS ALBANY, NY",,,,,,,,,,,,,,,,,,,,,,,,,,,,"58","58",,,"+0.00","6","100","29.78","5","29.47","2.98","58","000",,"0",,,,,,,,,,,,,,,,,,,,,,,,,,,,,,,,,,,,,"SYN09272518 31248 60000 10144 20144 39978 40084 56001 710// 90551 333 10178 20139 96010 555 91506=","FM-12","4",,,,,,,,,,,,,,,,,,,,,,,,,,,,"2006-09-08"
"72518014735","2021-06-15T01:05:00","FM-16","7",,,,,"PRECIP","260",,"PLASTIC","42.6918","-73.83109","NWS ALBANY, NY",,,,,,,,,,,,,,,,,,,,,,,,,,,"29.78","57","57",,"BC:3 FG:2 BR:1 |FG |",,,"100",,"SCT:04 4 SCT:04 28","29.47","1.00V","57","170",,"3",,,,,,,,,,,,,,,,,,,,,,,,,,,,,,,,,,,,,"MET15706/15/21 01:05:02 SPECI KALB 150605Z 17003KT 1SM R01/2200VP6000FT BCFG BR SCT004 SCT028 14/14 A2978 RMK AO2 SFC VIS 1 1/2 VIS 1V2 BCFG ALQDS T01390139 $ (BA)","FM-16","7",,,,,,,,,,,,,,,,,,,,,,,,,,,,"2006-09-08"
"72518014735","2021-06-15T01:19:00","FM-16","7",,,,,"PRECIP","260",,"PLASTIC","42.6918","-73.83109","NWS ALBANY, NY",,,,,,,,,,,,,,,,,,,,,,,,,,,"29.77","57","57",,"FG:2 |FG |",,,"100",,"BKN:07 2 BKN:07 75","29.46","0.50","57","000",,"0",,,,,,,,,,,,,,,,,,,,,,,,,,,,,,,,,,,,,"MET12106/15/21 01:19:02 SPECI KALB 150619Z 00000KT 1/2SM R01/1600VP6000FT FG BKN002 BKN075 14/14 A2977 RMK AO2 T01390139 $ (BA)","FM-16","7",,,,,,,,,,,,,,,,,,,,,,,,,,,,"2006-09-08"
"72518014735","2021-06-15T01:30:00","FM-16","7",,,,,"PRECIP","260",,"PLASTIC","42.6918","-73.83109","NWS ALBANY, NY",,,,,,,,,,,,,,,,,,,,,,,,,,,"29.78","55","55",,"FG:2 |FG |",,,"100",,"OVC:08 2","29.47","0.25","55","000",,"0",,,,,,,,,,,,,,,,,,,,,,,,,,,,,,,,,,,,,"MET12506/15/21 01:30:02 SPECI KALB 150630Z 00000KT 1/4SM R01/1400V2000FT FG OVC002 13/13 A2978 RMK AO2 TWR VIS 1/2 T01280128 $ (BA)","FM-16","7",,,,,,,,,,,,,,,,,,,,,,,,,,,,"2006-09-08"
"72518014735","2021-06-15T01:51:00","FM-15","7",,,,,"PRECIP","260",,"PLASTIC","42.6918","-73.83109","NWS ALBANY, NY",,,,,,,,,,,,,,,,,,,,,,,,,,,"29.77","56","57","0.00","FG:2 |FG |",,,"96","29.77","VV:09 2","29.46","0.25","56","000",,"0",,,,,,,,,,,,,,,,,,,,,,,,,,,,,,,,,,,,,"MET11906/15/21 01:51:02 METAR KALB 150651Z 00000KT 1/4SM R01/1200V1800FT FG VV002 14/13 A2977 RMK AO2 SLP080 T01390133 $ (BA)","FM-15","7",,,,,,,,,,,,,,,,,,,,,,,,,,,,"2006-09-08"
"72518014735","2021-06-15T02:11:00","FM-16","7",,,,,"PRECIP","260",,"PLASTIC","42.6918","-73.83109","NWS ALBANY, NY",,,,,,,,,,,,,,,,,,,,,,,,,,,"29.77","57","57",,"FG:2 |FG |",,,"100",,"VV:09 3","29.46","0.25","57","000",,"0",,,,,,,,,,,,,,,,,,,,,,,,,,,,,,,,,,,,,"MET11206/15/21 02:11:02 SPECI KALB 150711Z 00000KT 1/4SM R01/1400V3500FT FG VV003 14/14 A2977 RMK AO2 T01390139 $ (BA)","FM-16","7",,,,,,,,,,,,,,,,,,,,,,,,,,,,"2006-09-08"
"72518014735","2021-06-15T02:25:00","FM-16","7",,,,,"PRECIP","260",,"PLASTIC","42.6918","-73.83109","NWS ALBANY, NY",,,,,,,,,,,,,,,,,,,,,,,,,,,"29.77","58","58",,"FG:2 |FG |",,,"100",,"VV:09 2","29.46","0.25","58","000",,"0",,,,,,,,,,,,,,,,,,,,,,,,,,,,,,,,,,,,,"MET11206/15/21 02:25:02 SPECI KALB 150725Z 00000KT 1/4SM R01/1200V2200FT FG VV002 14/14 A2977 RMK AO2 T01440144 $ (BA)","FM-16","7",,,,,,,,,,,,,,,,,,,,,,,,,,,,"2006-09-08"
"72518014735","2021-06-15T02:49:00","FM-16","6",,,,,"PRECIP","260",,"PLASTIC","42.6918","-73.83109","NWS ALBANY, NY",,,,,,,,,,,,,,,,,,,,,,,,,,,"29.76","57","57",,"FG:2 |FG |",,,"100",,"VV:09 2","29.45","0.12","57","000",,"0",,,,,,,,,,,,,,,,,,,,,,,,,,,,,,,,,,,,,"MET11406/15/21 02:49:02 SPECI KALB 150749Z 00000KT 1/8SM R01/1200FT FG VV002 14/14 A2976 RMK AO2 TWR VIS 1/4 $ FIBI (BA)","FM-16","6",,,,,,,,,,,,,,,,,,,,,,,,,,,,"2006-09-08"
"72518014735","2021-06-15T02:51:00","FM-15","7",,,,,"PRECIP","260",,"PLASTIC","42.6918","-73.83109","NWS ALBANY, NY",,,,,,,,,,,,,,,,,,,,,,,,,,,"29.76","58","58","0.00","FG:2 |FG |",,,"100","29.76","VV:09 2","29.45","0.12","58","000",,"0",,,,,,,,,,,,,,,,,,,,,,,,,,,,,,,,,,,,,"MET12606/15/21 02:51:02 METAR KALB 150751Z 00000KT 1/8SM R01/1200FT FG VV002 14/14 A2976 RMK AO2 TWR VIS 1/4 SLP077 T01440144 $ (BA)","FM-15","7",,,,,,,,,,,,,,,,,,,,,,,,,,,,"2006-09-08"
"72518014735","2021-06-15T03:31:00","FM-16","7",,,,,"PRECIP","260",,"PLASTIC","42.6918","-73.83109","NWS ALBANY, NY",,,,,,,,,,,,,,,,,,,,,,,,,,,"29.76","57","57",,"FG:2 |FG |",,,"100",,"VV:09 2","29.45","0.25","57","000",,"0",,,,,,,,,,,,,,,,,,,,,,,,,,,,,,,,,,,,,"MET11206/15/21 03:31:02 SPECI KALB 150831Z 00000KT 1/4SM R01/1200V1600FT FG VV002 14/14 A2976 RMK AO2 T01390139 $ (BA)","FM-16","7",,,,,,,,,,,,,,,,,,,,,,,,,,,,"2006-09-08"
"72518014735","2021-06-15T03:51:00","FM-15","7",,,,,"PRECIP","260",,"PLASTIC","42.6918","-73.83109","NWS ALBANY, NY",,,,,,,,,,,,,,,,,,,,,,,,,,,"29.76","56","56","0.00","FG:2 |FG |","+0.02","6","100","29.76","VV:09 2","29.45","0.25","56","000",,"0",,,,,,,,,,,,,,,,,,,,,,,,,,,,,,,,,,,,,"MET12506/15/21 03:51:02 METAR KALB 150851Z 00000KT 1/4SM R01/1400V2200FT FG VV002 13/13 A2976 RMK AO2 SLP078 T01330133 56006 $ (BA)","FM-15","7",,,,,,,,,,,,,,,,,,,,,,,,,,,,"2006-09-08"
"72518014735","2021-06-15T03:59:00","FM-16","7",,,,,"PRECIP","260",,"PLASTIC","42.6918","-73.83109","NWS ALBANY, NY",,,,,,,,,,,,,,,,,,,,,,,,,,,"29.76","56","56",,"FG:2 |FG |",,,"100",,"VV:09 2","29.45","0.25","56","000",,"0",,,,,,,,,,,,,,,,,,,,,,,,,,,,,,,,,,,,,"MET11306/15/21 03:59:02 SPECI KALB 150859Z 00000KT 1/4SM R01/1600VP6000FT FG VV002 13/13 A2976 RMK AO2 T01330133 $ (BA)","FM-16","7",,,,,,,,,,,,,,,,,,,,,,,,,,,,"2006-09-08"
"72518014735","2021-06-15T04:00:00","FM-12","4",,,,,"PRECIP","260",,"PLASTIC","42.6918","-73.83109","NWS ALBANY, NY",,,,,,,,,,,,,,,,,,,,,,,,,,,,"56","56",,"||FG","+0.02","6","100","29.76","2","29.44","0.25","56","000",,"0",,,,,,,,,,,,,,,,,,,,,,,,,,,,,,,,,,,,,"SYN07072518 31104 90000 10133 20133 39971 40078 56006 741// 90851 555 91509=","FM-12","4",,,,,,,,,,,,,,,,,,,,,,,,,,,,"2006-09-08"
"72518014735","2021-06-15T04:07:00","FM-16","7",,,,,"PRECIP","260",,"PLASTIC","42.6918","-73.83109","NWS ALBANY, NY",,,,,,,,,,,,,,,,,,,,,,,,,,,"29.76","56","56",,"BC:3 FG:2 BR:1 |FG |",,,"100",,"SCT:04 2","29.45","0.75","56","000",,"0",,,,,,,,,,,,,,,,,,,,,,,,,,,,,,,,,,,,,"MET14206/15/21 04:07:02 SPECI KALB 150907Z 00000KT 3/4SM R01/P6000FT BCFG BR SCT002 13/13 A2976 RMK AO2 VIS NE-E 1/4 W 5 BCFG ALQDS T01330133 $ (BA)","FM-16","7",,,,,,,,,,,,,,,,,,,,,,,,,,,,"2006-09-08"
"72518014735","2021-06-15T04:22:00","FM-16","7",,,,,"PRECIP","260",,"PLASTIC","42.6918","-73.83109","NWS ALBANY, NY",,,,,,,,,,,,,,,,,,,,,,,,,,,"29.76","56","56",,"BC:3 FG:2 BR:1 |FG |",,,"100",,"SCT:04 2","29.45","1.00","56","000",,"0",,,,,,,,,,,,,,,,,,,,,,,,,,,,,,,,,,,,,"MET13806/15/21 04:22:02 SPECI KALB 150922Z 00000KT 1SM R01/2800VP6000FT BCFG BR SCT002 13/13 A2976 RMK AO2 VIS W 5 BCFG NW-E-SW T01330133 $ (BA)","FM-16","7",,,,,,,,,,,,,,,,,,,,,,,,,,,,"2006-09-08"
"72518014735","2021-06-15T04:49:00","FM-16","7",,,,,"PRECIP","260",,"PLASTIC","42.6918","-73.83109","NWS ALBANY, NY",,,,,,,,,,,,,,,,,,,,,,,,,,,"29.76","54","54",,"BC:3 FG:2 BR:1 |FG |",,,"100",,"SCT:04 2 BKN:07 31 BKN:07 250","29.45","2.00V","54","280",,"3",,,,,,,,,,,,,,,,,,,,,,,,,,,,,,,,,,,,,"MET12306/15/21 04:49:02 SPECI KALB 150949Z 28003KT 2SM BCFG BR SCT002 BKN031 BKN250 12/12 A2976 RMK AO2 VIS 1V3 BCFG ALQDS $ (BA)","FM-16","7",,,,,,,,,,,,,,,,,,,,,,,,,,,,"2006-09-08"
"72518014735","2021-06-15T04:51:00","FM-15","7",,,,,"PRECIP","260",,"PLASTIC","42.6918","-73.83109","NWS ALBANY, NY",,,,,,,,,,,,,,,,,,,,,,,,,,,"29.76","54","54","0.00","BC:3 FG:2 BR:1 |FG |",,,"100","29.76","SCT:04 2 BKN:07 31 BKN:07 250","29.45","2.00","54","280",,"3",,,,,,,,,,,,,,,,,,,,,,,,,,,,,,,,,,,,,"MET14606/15/21 04:51:02 METAR KALB 150951Z 28003KT 2SM BCFG BR SCT002 BKN031 BKN250 12/12 A2976 RMK AO2 SLP078 VIS NW-NE 1/2 BCFG ALQDS T01220122 $ (BA)","FM-15","7",,,,,,,,,,,,,,,,,,,,,,,,,,,,"2006-09-08"
"72518014735","2021-06-15T04:59:00","FM-16","7",,,,,"PRECIP","260",,"PLASTIC","42.6918","-73.83109","NWS ALBANY, NY",,,,,,,,,,,,,,,,,,,,,,,,,,,"29.76","54","54",,"BC:3 FG:2 BR:1 |FG |",,,"100",,"SCT:04 2 BKN:07 31 BKN:07 250","29.45","1.00","54","310",,"5",,,,,,,,,,,,,,,,,,,,,,,,,,,,,,,,,,,,,"MET15006/15/21 04:59:02 SPECI KALB 150959Z 31004KT 1SM R01/P6000FT BCFG BR SCT002 BKN031 BKN250 12/12 A2976 RMK AO2 VIS W-NE 1/2 BCFG ALQDS T01220122 $ (BA)","FM-16","7",,,,,,,,,,,,,,,,,,,,,,,,,,,,"2006-09-08"
"72518014735","2021-06-15T05:03:00","FM-16","7",,,,,"PRECIP","260",,"PLASTIC","42.6918","-73.83109","NWS ALBANY, NY",,,,,,,,,,,,,,,,,,,,,,,,,,,"29.76","54","54",,"FG:2 |FG |",,,"100",,"BKN:07 2 BKN:07 31","29.45","0.50V","54","310",,"6",,,,,,,,,,,,,,,,,,,,,,,,,,,,,,,,,,,,,"MET12606/15/21 05:03:02 SPECI KALB 151003Z 31005KT 1/2SM R01/P6000FT FG BKN002 BKN031 12/12 A2976 RMK AO2 VIS 1/4V1 T01220122 $ (BA)","FM-16","7",,,,,,,,,,,,,,,,,,,,,,,,,,,,"2006-09-08"
"72518014735","2021-06-15T05:21:00","FM-16","7",,,,,"PRECIP","260",,"PLASTIC","42.6918","-73.83109","NWS ALBANY, NY",,,,,,,,,,,,,,,,,,,,,,,,,,,"29.76","55","55",,"BC:3 FG:2 BR:1 |FG |",,,"100",,"BKN:07 2 BKN:07 27","29.45","1.00V","55","290",,"3",,,,,,,,,,,,,,,,,,,,,,,,,,,,,,,,,,,,,"MET15806/15/21 05:21:02 SPECI KALB 151021Z 29003KT 1SM R01/P6000FT BCFG BR BKN002 BKN027 13/13 A2976 RMK AO2 TWR VIS 1 1/2 VIS 3/4V1 1/2 BCFG ALQDS T01280128 $ (BA)","FM-16","7",,,,,,,,,,,,,,,,,,,,,,,,,,,,"2006-09-08"
"72518014735","2021-06-15T05:49:00","FM-16","6",,,,,"PRECIP","260",,"PLASTIC","42.6918","-73.83109","NWS ALBANY, NY",,,,,,,,,,,,,,,,,,,,,,,,,,,"29.77","55","55",,"BC:3 FG:2 BR:1 |FG |",,,"100",,"BKN:07 3 BKN:07 27","29.46","1.50V","55","270",,"3",,,,,,,,,,,,,,,,,,,,,,,,,,,,,,,,,,,,,"MET12506/15/21 05:49:02 SPECI KALB 151049Z 27003KT 1 1/2SM BCFG BR BKN003 BKN027 13/13 A2977 RMK AO2 VIS 1V2 BCFG ALQDS $ FIBI (BA)","FM-16","6",,,,,,,,,,,,,,,,,,,,,,,,,,,,"2006-09-08"
"72518014735","2021-06-15T05:51:00","FM-15","7",,,,,"PRECIP","260",,"PLASTIC","42.6918","-73.83109","NWS ALBANY, NY",,,,,,,,,,,,,,,,,,,,,,,,,,,"29.77","56","56","0.00","BC:3 FG:2 BR:1 |FG |",,,"100","29.77","BKN:07 3 BKN:07 27","29.46","1.50V","56","280",,"3",,,,,,,,,,,,,,,,,,,,,,,,,,,,,,,,,,,,,"MET13706/15/21 05:51:02 METAR KALB 151051Z 28003KT 1 1/2SM BCFG BR BKN003 BKN027 13/13 A2977 RMK AO2 SLP081 VIS 1V2 BCFG ALQDS T01330133 $ (BA)","FM-15","7",,,,,,,,,,,,,,,,,,,,,,,,,,,,"2006-09-08"
"72518014735","2021-06-15T06:25:00","FM-16","7",,,,,"PRECIP","260",,"PLASTIC","42.6918","-73.83109","NWS ALBANY, NY",,,,,,,,,,,,,,,,,,,,,,,,,,,"29.77","57","57",,"BC:3 FG:2 |FG |",,,"100",,"SCT:04 3 SCT:04 22","29.46","10.00","57","280",,"3",,,,,,,,,,,,,,,,,,,,,,,,,,,,,,,,,,,,,"MET11206/15/21 06:25:02 SPECI KALB 151125Z 28003KT 10SM BCFG SCT003 SCT022 14/14 A2977 RMK AO2 BCFG E T01390139 $ (BA)","FM-16","7",,,,,,,,,,,,,,,,,,,,,,,,,,,,"2006-09-08"
"72518014735","2021-06-15T06:51:00","FM-15","7",,,,,"PRECIP","260",,"PLASTIC","42.6918","-73.83109","NWS ALBANY, NY",,,,,,,,,,,,,,,,,,,,,,,,,,,"29.77","58","58","0.00","BC:3 FG:2 |FG |","-0.01","2","100","29.77","FEW:02 3 FEW:02 26 FEW:02 90","29.46","10.00","58","280",,"3",,,,,,,,,,,,,,,,,,,,,,,,,,,,,,,,,,,,,"MET15006/15/21 06:51:02 METAR KALB 151151Z 28003KT 10SM BCFG FEW003 FEW026 FEW090 14/14 A2977 RMK AO2 SLP081 BCFG E 70061 T01440144 10144 20122 52003 $ (BA)","FM-15","7",,,,,,,,,,,,,,,,,,,,,,,,,,,,"2006-09-08"
"72518014735","2021-06-15T07:00:00","FM-12","4",,,,,"PRECIP","260",,"PLASTIC","42.6918","-73.83109","NWS ALBANY, NY",,,,,,,,,,,,,,,,,,,,,,,,,,,,"58","58",,,"-0.01","2","100","29.77","2","29.46","9.94","58","280",,"3",,,,,,,,,,,,,,,,,,,,,,,,,,,,,,,,,,,,,"SYN08672518 31166 22803 10144 20144 39975 40081 52003 91151 333 10183 20122 70155 555 91512=","FM-12","4",,,,,,,,,,,,,,,,,,,,,,,,,,,,"2006-09-08"
"72518014735","2021-06-15T07:51:00","FM-15","7",,,,,"PRECIP","260",,"PLASTIC","42.6918","-73.83109","NWS ALBANY, NY",,,,,,,,,,,,,,,,,,,,,,,,,,,"29.77","58","62","0.00",,,,"86","29.77","SCT:04 15 SCT:04 40","29.46","10.00","60","310",,"5",,,,,,,,,,,,,,,,,,,,,,,,,,,,,,,,,,,,,"MET10706/15/21 07:51:02 METAR KALB 151251Z 31004KT 10SM SCT015 SCT040 17/14 A2977 RMK AO2 SLP080 T01670144 $ (JB)","FM-15","7",,,,,,,,,,,,,,,,,,,,,,,,,,,,"2006-09-08"
"72518014735","2021-06-15T08:18:00","FM-16","7",,,,,"PRECIP","260",,"PLASTIC","42.6918","-73.83109","NWS ALBANY, NY",,,,,,,,,,,,,,,,,,,,,,,,,,,"29.77","58","63",,,,,"84",,"BKN:07 22 BKN:07 40","29.46","10.00","60","280",,"5",,,,,,,,,,,,,,,,,,,,,,,,,,,,,,,,,,,,,"MET10006/15/21 08:18:02 SPECI KALB 151318Z 28004KT 10SM BKN022 BKN040 17/14 A2977 RMK AO2 T01720144 $ (JB)","FM-16","7",,,,,,,,,,,,,,,,,,,,,,,,,,,,"2006-09-08"
"72518014735","2021-06-15T08:51:00","FM-15","7",,,,,"PRECIP","260",,"PLASTIC","42.6918","-73.83109","NWS ALBANY, NY",,,,,,,,,,,,,,,,,,,,,,,,,,,"29.77","58","64","0.00",,,,"81","29.77","FEW:02 19 BKN:07 25 BKN:07 43","29.46","10.00","60","300",,"7",,,,,,,,,,,,,,,,,,,,,,,,,,,,,,,,,,,,,"MET11406/15/21 08:51:02 METAR KALB 151351Z 30006KT 10SM FEW019 BKN025 BKN043 18/14 A2977 RMK AO2 SLP080 T01780144 $ (JB)","FM-15","7",,,,,,,,,,,,,,,,,,,,,,,,,,,,"2006-09-08"
"72518014735","2021-06-15T09:30:00","FM-16","7",,,,,"PRECIP","260",,"PLASTIC","42.6918","-73.83109","NWS ALBANY, NY",,,,,,,,,,,,,,,,,,,,,,,,,,,"29.77","59","66",,,,,"78",,"SCT:04 23 SCT:04 43","29.46","10.00","62","280",,"10",,,,,,,,,,,,,,,,,,,,,,,,,,,,,,,,,,,,,"MET09806/15/21 09:30:02 SPECI KALB 151430Z 28009KT 10SM SCT023 SCT043 19/15 A2977 RMK AO2 T01890150 (JB)","FM-16","7",,,,,,,,,,,,,,,,,,,,,,,,,,,,"2006-09-08"
"72518014735","2021-06-15T09:42:00","FM-16","7",,,,,"PRECIP","260",,"PLASTIC","42.6918","-73.83109","NWS ALBANY, NY",,,,,,,,,,,,,,,,,,,,,,,,,,,"29.77","57","65",,,,,"76",,"BKN:07 25 BKN:07 43 BKN:07 90","29.46","10.00","60","280",,"10",,,,,,,,,,,,,,,,,,,,,,,,,,,,,,,,,,,,,"MET10506/15/21 09:42:02 SPECI KALB 151442Z 28009KT 10SM BKN025 BKN043 BKN090 18/14 A2977 RMK AO2 T01830139 (JB)","FM-16","7",,,,,,,,,,,,,,,,,,,,,,,,,,,,"2006-09-08"
"72518014735","2021-06-15T09:51:00","FM-15","7",,,,,"PRECIP","260",,"PLASTIC","42.6918","-73.83109","NWS ALBANY, NY",,,,,,,,,,,,,,,,,,,,,,,,,,,"29.77","58","67","0.00",,"+0.00","7","73","29.77","BKN:07 25 BKN:07 43 BKN:07 90","29.46","10.00","62","290","23","10",,,,,,,,,,,,,,,,,,,,,,,,,,,,,,,,,,,,,"MET12106/15/21 09:51:02 METAR KALB 151451Z 29009G20KT 10SM BKN025 BKN043 BKN090 19/14 A2977 RMK AO2 SLP080 T01940144 57000 (JB)","FM-15","7",,,,,,,,,,,,,,,,,,,,,,,,,,,,"2006-09-08"
"72518014735","2021-06-15T10:00:00","FM-12","4",,,,,"PRECIP","260",,"PLASTIC","42.6918","-73.83109","NWS ALBANY, NY",,,,,,,,,,,,,,,,,,,,,,,,,,,,"58","67",,,"+0.00","7","73","29.77","26","29.46","9.94","62","290",,"10",,,,,,,,,,,,,,,,,,,,,,,,,,,,,,,,,,,,,"SYN07472518 32566 62909 10194 20144 39975 40080 57000 91451 333 91020 555 91515=","FM-12","4",,,,,,,,,,,,,,,,,,,,,,,,,,,,"2006-09-08"
"72518014735","2021-06-15T10:44:00","FM-16","7",,,,,"PRECIP","260",,"PLASTIC","42.6918","-73.83109","NWS ALBANY, NY",,,,,,,,,,,,,,,,,,,,,,,,,,,"29.76","57","68",,,,,"68",,"FEW:02 25 BKN:07 30 BKN:07 100","29.45","10.00","62","270",,"8",,,,,,,,,,,,,,,,,,,,,,,,,,,,,,,,,,,,,"MET10506/15/21 10:44:02 SPECI KALB 151544Z 27007KT 10SM FEW025 BKN030 BKN100 20/14 A2976 RMK AO2 T02000139 (JB)","FM-16","7",,,,,,,,,,,,,,,,,,,,,,,,,,,,"2006-09-08"
"72518014735","2021-06-15T10:51:00","FM-15","7",,,,,"PRECIP","260",,"PLASTIC","42.6918","-73.83109","NWS ALBANY, NY",,,,,,,,,,,,,,,,,,,,,,,,,,,"29.76","57","68","0.00",,,,"68","29.76","FEW:02 25 BKN:07 30 BKN:07 100","29.45","10.00","62","280",,"7",,,,,,,,,,,,,,,,,,,,,,,,,,,,,,,,,,,,,"MET11206/15/21 10:51:02 METAR KALB 151551Z 28006KT 10SM FEW025 BKN030 BKN100 20/14 A2976 RMK AO2 SLP078 T02000139 (JB)","FM-15","7",,,,,,,,,,,,,,,,,,,,,,,,,,,,"2006-09-08"
"72518014735","2021-06-15T11:51:00","FM-15","7",,,,,"PRECIP","260",,"PLASTIC","42.6918","-73.83109","NWS ALBANY, NY",,,,,,,,,,,,,,,,,,,,,,,,,,,"29.75","56","68","0.00",,,,"65","29.75","SCT:04 32 BKN:07 70 BKN:07 170","29.44","10.00","61","320",,"5",,,,,,,,,,,,,,,,,,,,,,,,,,,,,,,,,,,,,"MET11206/15/21 11:51:02 METAR KALB 151651Z 32004KT 10SM SCT032 BKN070 BKN170 20/13 A2975 RMK AO2 SLP075 T02000133 (JB)","FM-15","7",,,,,,,,,,,,,,,,,,,,,,,,,,,,"2006-09-08"
"72518014735","2021-06-15T12:51:00","FM-15","7",,,,,"PRECIP","260",,"PLASTIC","42.6918","-73.83109","NWS ALBANY, NY",,,,,,,,,,,,,,,,,,,,,,,,,,,"29.75","58","70","0.00",,"+0.02","8","66","29.74","FEW:02 35 SCT:04 70 BKN:07 130","29.44","10.00","63","000",,"0",,,,,,,,,,,,,,,,,,,,,,,,,,,,,,,,,,,,,"MET13006/15/21 12:51:02 METAR KALB 151751Z 00000KT 10SM FEW035 SCT070 BKN130 21/14 A2975 RMK AO2 SLP072 T02110144 10211 20150 58008 (JB)","FM-15","7",,,,,,,,,,,,,,,,,,,,,,,,,,,,"2006-09-08"
"72518014735","2021-06-15T13:00:00","FM-12","4",,,,,"PRECIP","260",,"PLASTIC","42.6918","-73.83109","NWS ALBANY, NY",,,,,,,,,,,,,,,,,,,,,,,,,,,,"58","70",,,"+0.02","8","66","29.74","41","29.44","9.94","63","000",,"0",,,,,,,,,,,,,,,,,,,,,,,,,,,,,,,,,,,,,"SYN08072518 32666 60000 10211 20144 39968 40072 58008 91751 333 10211 20150 555 91518=","FM-12","4",,,,,,,,,,,,,,,,,,,,,,,,,,,,"2006-09-08"
"72518014735","2021-06-15T13:51:00","FM-15","7",,,,,"PRECIP","260",,"PLASTIC","42.6918","-73.83109","NWS ALBANY, NY",,,,,,,,,,,,,,,,,,,,,,,,,,,"29.73","58","71","0.00",,,,"63","29.72","BKN:07 38 BKN:07 65 BKN:07 130","29.42","10.00","63","180",,"10",,,,,,,,,,,,,,,,,,,,,,,,,,,,,,,,,,,,,"MET11206/15/21 13:51:02 METAR KALB 151851Z 18009KT 10SM BKN038 BKN065 BKN130 22/14 A2973 RMK AO2 SLP066 T02170144 (JB)","FM-15","7",,,,,,,,,,,,,,,,,,,,,,,,,,,,"2006-09-08"
"72518014735","2021-06-15T14:51:00","FM-15","7",,,,,"PRECIP","260",,"PLASTIC","42.6918","-73.83109","NWS ALBANY, NY",,,,,,,,,,,,,,,,,,,,,,,,,,,"29.72","58","70","0.00",,,,"66","29.72","SCT:04 38 BKN:07 90 BKN:07 160","29.41","10.00","63","280",,"7",,,,,,,,,,,,,,,,,,,,,,,,,,,,,,,,,,,,,"MET11306/15/21 14:51:02 METAR KALB 151951Z 28006KT 10SM SCT038 BKN090 BKN160 21/14 A2972 RMK AO2 SLP063 T02110144 (MAK)","FM-15","7",,,,,,,,,,,,,,,,,,,,,,,,,,,,"2006-09-08"
"72518014735","2021-06-15T15:51:00","FM-15","7",,,,,"PRECIP","260",,"PLASTIC","42.6918","-73.83109","NWS ALBANY, NY",,,,,,,,,,,,,,,,,,,,,,,,,,,"29.72","58","71","0.00",,"+0.03","6","63","29.71","SCT:04 49 BKN:07 100 BKN:07 180","29.41","10.00","63","260","18","14",,,,,,,,,,,,,,,,,,,,,,,,,,,,,,,,,,,,,"MET12206/15/21 15:51:02 METAR KALB 152051Z 26012G16KT 10SM SCT049 BKN100 BKN180 22/14 A2972 RMK AO2 SLP062 T02170144 56010 (MAK)","FM-15","7",,,,,,,,,,,,,,,,,,,,,,,,,,,,"2006-09-08"
"72518014735","2021-06-15T16:00:00","FM-12","4",,,,,"PRECIP","260",,"PLASTIC","42.6918","-73.83109","NWS ALBANY, NY",,,,,,,,,,,,,,,,,,,,,,,,,,,,"58","71",,,"+0.03","6","63","29.71","41","29.41","9.94","63","260",,"14",,,,,,,,,,,,,,,,,,,,,,,,,,,,,,,,,,,,,"SYN07472518 32666 62612 10217 20144 39958 40062 56010 92051 333 91016 555 91521=","FM-12","4",,,,,,,,,,,,,,,,,,,,,,,,,,,,"2006-09-08"
"72518014735","2021-06-15T16:51:00","FM-15","7",,,,,"PRECIP","260",,"PLASTIC","42.6918","-73.83109","NWS ALBANY, NY",,,,,,,,,,,,,,,,,,,,,,,,,,,"29.73","59","68","T",,,,"73","29.73","FEW:02 42 SCT:04 60 BKN:07 100","29.42","10.00","63","260",,"11",,,,,,,,,,,,,,,,,,,,,,,,,,,,,,,,,,,,,"MET13806/15/21 16:51:02 METAR KALB 152151Z 26010KT 10SM FEW042 SCT060 BKN100 20/15 A2973 RMK AO2 RAB16E21 SLP068 VCSH E-SE P0000 T02000150 (MAK)","FM-15","7",,,,,,,,,,,,,,,,,,,,,,,,,,,,"2006-09-08"
"72518014735","2021-06-15T17:51:00","FM-15","7",,,,,"PRECIP","260",,"PLASTIC","42.6918","-73.83109","NWS ALBANY, NY",,,,,,,,,,,,,,,,,,,,,,,,,,,"29.74","58","64","0.00",,,,"81","29.74","FEW:02 23 FEW:02 55 SCT:04 100","29.43","10.00","60","260","26","16",,,,,,,,,,,,,,,,,,,,,,,,,,,,,,,,,,,,,"MET11606/15/21 17:51:02 METAR KALB 152251Z 26014G23KT 10SM FEW023 FEW055 SCT100 18/14 A2974 RMK AO2 SLP072 T01780144 (MAK)","FM-15","7",,,,,,,,,,,,,,,,,,,,,,,,,,,,"2006-09-08"
"72518014735","2021-06-15T18:51:00","FM-15","7",,,,,"PRECIP","260",,"PLASTIC","42.6918","-73.83109","NWS ALBANY, NY",,,,,,,,,,,,,,,,,,,,,,,,,,,"29.76","57","62","0.00",,"-0.04","1","84","29.76","FEW:02 22 BKN:07 100","29.45","10.00","59","270",,"14",,,,,,,,,,,,,,,,,,,,,,,,,,,,,,,,,,,,,"MET13006/15/21 18:51:02 METAR KALB 152351Z 27012KT 10SM FEW022 BKN100 17/14 A2976 RMK AO2 SLP078 60000 T01670139 10228 20167 51015 (MAK)","FM-15","7",,,,,,,,,,,,,,,,,,,,,,,,,,,,"2006-09-08"
"72518014735","2021-06-15T19:00:00","FM-12","4",,,,,"PRECIP","260",,"PLASTIC","42.6918","-73.83109","NWS ALBANY, NY",,,,,,,,,,,,,,,,,,,,,,,,,,,,"57","62",,,"-0.04","1","84","29.76","26","29.44","9.94","59","270",,"14",,,,,,,,,,,,,,,,,,,,,,,,,,,,,,,,,,,,,"SYN08672518 12566 62712 10167 20139 39971 40078 51015 69901 92351 333 10228 20122 555 91600=","FM-12","4",,,,,,,,,,,,,,,,,,,,,,,,,,,,"2006-09-08"
"72518014735","2021-06-15T19:51:00","FM-15","7",,,,,"PRECIP","260",,"PLASTIC","42.6918","-73.83109","NWS ALBANY, NY",,,,,,,,,,,,,,,,,,,,,,,,,,,"29.78","58","60","T","-RA:02 |RA |RA",,,"93","29.78","FEW:02 60 BKN:07 85 BKN:07 110","29.47","10.00","59","280",,"13",,,,,,,,,,,,,,,,,,,,,,,,,,,,,,,,,,,,,"MET12306/15/21 19:51:01 METAR KALB 160051Z 28011KT 10SM -RA FEW060 BKN085 BKN110 16/14 A2978 RMK AO2 RAB48 SLP083 P0000 T01560144","FM-15","7",,,,,,,,,,,,,,,,,,,,,,,,,,,,"2006-09-08"
"72518014735","2021-06-15T20:51:00","FM-15","7",,,,,"PRECIP","260",,"PLASTIC","42.6918","-73.83109","NWS ALBANY, NY",,,,,,,,,,,,,,,,,,,,,,,,,,,"29.80","57","60","T",,,,"90","29.79","FEW:02 44 SCT:04 70 SCT:04 110","29.49","10.00","58","290",,"13",,,,,,,,,,,,,,,,,,,,,,,,,,,,,,,,,,,,,"MET11906/15/21 20:51:01 METAR KALB 160151Z 29011KT 10SM FEW044 SCT070 SCT110 16/14 A2980 RMK AO2 RAE28 SLP089 P0000 T01560139","FM-15","7",,,,,,,,,,,,,,,,,,,,,,,,,,,,"2006-09-08"
"72518014735","2021-06-15T21:51:00","FM-15","7",,,,,"PRECIP","260",,"PLASTIC","42.6918","-73.83109","NWS ALBANY, NY",,,,,,,,,,,,,,,,,,,,,,,,,,,"29.80","54","59","0.00",,"-0.04","1","83","29.80","SCT:04 38 BKN:07 47","29.49","10.00","56","310",,"13",,,,,,,,,,,,,,,,,,,,,,,,,,,,,,,,,,,,,"MET11206/15/21 21:51:01 METAR KALB 160251Z 31011KT 10SM SCT038 BKN047 15/12 A2980 RMK AO2 SLP091 60000 T01500122 51014","FM-15","7",,,,,,,,,,,,,,,,,,,,,,,,,,,,"2006-09-08"
"72518014735","2021-06-15T22:00:00","FM-12","4",,,,,"PRECIP","260",,"PLASTIC","42.6918","-73.83109","NWS ALBANY, NY",,,,,,,,,,,,,,,,,,,,,,,,,,,,"54","59",,,"-0.04","1","83","29.80","41","29.49","9.94","56","310",,"13",,,,,,,,,,,,,,,,,,,,,,,,,,,,,,,,,,,,,"SYN07072518 12666 63111 10150 20122 39985 40091 51014 69907 90251 555 91603=","FM-12","4",,,,,,,,,,,,,,,,,,,,,,,,,,,,"2006-09-08"
"72518014735","2021-06-15T22:51:00","FM-15","7",,,,,"PRECIP","260",,"PLASTIC","42.6918","-73.83109","NWS ALBANY, NY",,,,,,,,,,,,,,,,,,,,,,,,,,,"29.82","52","58","0.00",,,,"81","29.81","FEW:02 38 FEW:02 60","29.51","10.00","55","310",,"7",,,,,,,,,,,,,,,,,,,,,,,,,,,,,,,,,,,,,"MET10006/15/21 22:51:01 METAR KALB 160351Z 31006KT 10SM FEW038 FEW060 14/11 A2982 RMK AO2 SLP096 T01440111","FM-15","7",,,,,,,,,,,,,,,,,,,,,,,,,,,,"2006-09-08"
"72518014735","2021-06-15T23:51:00","FM-15","7",,,,,"PRECIP","260",,"PLASTIC","42.6918","-73.83109","NWS ALBANY, NY",,,,,,,,,,,,,,,,,,,,,,,,,,,"29.82","53","55","0.00",,,,"93","29.82","FEW:02 60","29.51","10.00","54","300",,"3",,,,,,,,,,,,,,,,,,,,,,,,,,,,,,,,,,,,,"MET10306/15/21 23:51:02 METAR KALB 160451Z 30003KT 10SM FEW060 13/12 A2982 RMK AO2 SLP097 T01280117 402280122","FM-15","7",,,,,,,,,,,,,,,,,,,,,,,,,,,,"2006-09-08"
"72518014735","2021-06-15T23:59:00","SOD  ","6",,,,,"PRECIP","260",,"PLASTIC","42.6918","-73.83109","NWS ALBANY, NY",,,,,"64",,,"29.44",,"6.9","0","-3.0","1","73","54","270","27","T","0","0.0","260","22","RA FG MIFG BR",,,,,,,,,,,,,,,,,,,,,,,,,,,,,,,,,,,,,,,,,,,,,,,,,,,,,,,,"SOD75724 HR PRECIPITATION (IN):    T SNOW DEPTH (IN):0     24 HR SNOWFALL (IN):0.0  WEATHER(CODE):12  24 HR MAX TEMP (F): 7324 HR MIN TEMP (F): 54AVERAGE STATION PRESSURE:29.445 MINIMUM SEA LEVEL PRESSURE:29.71 TIME OF OCCURRENCE:1612 PEAK WIND SPEED (MPH): 27 PEAK WIND DIR (DEG):270 PEAK WIND TIME (LST):      FASTEST 2MIN SPEED (MPH): 22FASTEST 2MIN DIR (DEG):260 FASTEST 2MIN TIME (LST):     AVERAGE WIND SPEED (MPH): 6.9 24 HR AVG TEMP (F): 64DEPART FROM NORMAL: -4  HEATING DEGREE DAYS:  1 COOLING DEGREE DAYS:  0 LATEST DAY MAX TEMP (0700-1900 LST):73  LATEST NIGHT MIN TEMP(1900-0800 LST):53 HOURLY INCREMENTAL PRECIPITATION VALUES (IN):.00 0.00 0.00 0.00 0.00 0.00 0.00 0.00 0.00 0.00 0.00 0.00 0.00 0.00 0.00 0.00 T    0.00 0.00 T    T    0.00 0.00 0.00","SOD  ","6",,,,,,,,,,,,,,,,,,,,,,,,,"0416","1935",,"2006-09-08"
"72518014735","2021-06-16T00:51:00","FM-15","7",,,,,"PRECIP","260",,"PLASTIC","42.6918","-73.83109","NWS ALBANY, NY",,,,,,,,,,,,,,,,,,,,,,,,,,,"29.81","52","53","0.00",,"-0.00","0","96","29.80","BKN:07 48","29.50","10.00","52","270",,"6",,,,,,,,,,,,,,,,,,,,,,,,,,,,,,,,,,,,,"MET12206/16/21 00:51:02 METAR KALB 160551Z 27005KT 10SM BKN048 12/11 A2981 RMK AO2 SLP092 60000 T01170111 10167 20117 50001 (BA)","FM-15","7",,,,,,,,,,,,,,,,,,,,,,,,,,,,"2006-09-08"
"72518014735","2021-06-16T01:00:00","FM-12","4",,,,,"PRECIP","260",,"PLASTIC","42.6918","-73.83109","NWS ALBANY, NY",,,,,,,,,,,,,,,,,,,,,,,,,,,,"52","53",,,"0.00","9","96","29.80","41","29.49","9.94","52","270",,"6",,,,,,,,,,,,,,,,,,,,,,,,,,,,,,,,,,,,,"SYN08672518 12666 62705 10117 20111 39988 40092 50001 69901 90551 333 10167 20117 555 91606=","FM-12","4",,,,,,,,,,,,,,,,,,,,,,,,,,,,"2006-09-08"
"72518014735","2021-06-16T01:51:00","FM-15","7",,,,,"PRECIP","260",,"PLASTIC","42.6918","-73.83109","NWS ALBANY, NY",,,,,,,,,,,,,,,,,,,,,,,,,,,"29.80","52","53","0.00",,,,"96","29.80","FEW:02 48","29.49","10.00","52","270",,"3",,,,,,,,,,,,,,,,,,,,,,,,,,,,,,,,,,,,,"MET09806/16/21 01:51:02 METAR KALB 160651Z 27003KT 10SM FEW048 12/11 A2980 RMK AO2 SLP090 T01170111 (BA)","FM-15","7",,,,,,,,,,,,,,,,,,,,,,,,,,,,"2006-09-08"
"72518014735","2021-06-16T02:51:00","FM-15","7",,,,,"PRECIP","260",,"PLASTIC","42.6918","-73.83109","NWS ALBANY, NY",,,,,,,,,,,,,,,,,,,,,,,,,,,"29.80","52","52","0.00",,,,"100","29.80","CLR:00","29.49","10.00","52","000",,"0",,,,,,,,,,,,,,,,,,,,,,,,,,,,,,,,,,,,,"MET09506/16/21 02:51:02 METAR KALB 160751Z 00000KT 10SM CLR 11/11 A2980 RMK AO2 SLP091 T01110111 (BA)","FM-15","7",,,,,,,,,,,,,,,,,,,,,,,,,,,,"2006-09-08"
"72518014735","2021-06-16T03:51:00","FM-15","7",,,,,"PRECIP","260",,"PLASTIC","42.6918","-73.83109","NWS ALBANY, NY",,,,,,,,,,,,,,,,,,,,,,,,,,,"29.81","52","52","0.00",,"-0.01","3","100","29.81","CLR:00","29.50","10.00","52","330",,"5",,,,,,,,,,,,,,,,,,,,,,,,,,,,,,,,,,,,,"MET10106/16/21 03:51:02 METAR KALB 160851Z 33004KT 10SM CLR 11/11 A2981 RMK AO2 SLP094 T01110111 53002 (BA)","FM-15","7",,,,,,,,,,,,,,,,,,,,,,,,,,,,"2006-09-08"
"72518014735","2021-06-16T04:00:00","FM-12","4",,,,,"PRECIP","260",,"PLASTIC","42.6918","-73.83109","NWS ALBANY, NY",,,,,,,,,,,,,,,,,,,,,,,,,,,,"52","52",,,"-0.01","3","100","29.81",,"29.49","9.94","52","330",,"5",,,,,,,,,,,,,,,,,,,,,,,,,,,,,,,,,,,,,"SYN06472518 32966 03304 10111 20111 39988 40094 53002 90851 555 91609=","FM-12","4",,,,,,,,,,,,,,,,,,,,,,,,,,,,"2006-09-08"
"72518014735","2021-06-16T04:51:00","FM-15","7",,,,,"PRECIP","260",,"PLASTIC","42.6918","-73.83109","NWS ALBANY, NY",,,,,,,,,,,,,,,,,,,,,,,,,,,"29.84","52","53","0.00",,,,"96","29.83","FEW:02 250","29.53","10.00","52","300",,"7",,,,,,,,,,,,,,,,,,,,,,,,,,,,,,,,,,,,,"MET09806/16/21 04:51:02 METAR KALB 160951Z 30006KT 10SM FEW250 12/11 A2984 RMK AO2 SLP103 T01170111 (BA)","FM-15","7",,,,,,,,,,,,,,,,,,,,,,,,,,,,"2006-09-08"
"72518014735","2021-06-16T05:51:00","FM-15","7",,,,,"PRECIP","260",,"PLASTIC","42.6918","-73.83109","NWS ALBANY, NY",,,,,,,,,,,,,,,,,,,,,,,,,,,"29.85","51","55","0.00",,,,"87","29.85","FEW:02 250","29.54","10.00","53","320",,"8",,,,,,,,,,,,,,,,,,,,,,,,,,,,,,,,,,,,,"MET09806/16/21 05:51:02 METAR KALB 161051Z 32007KT 10SM FEW250 13/11 A2985 RMK AO2 SLP109 T01280106 (BA)","FM-15","7",,,,,,,,,,,,,,,,,,,,,,,,,,,,"2006-09-08"
"72518014735","2021-06-16T06:51:00","FM-15","7",,,,,"PRECIP","260",,"PLASTIC","42.6918","-73.83109","NWS ALBANY, NY",,,,,,,,,,,,,,,,,,,,,,,,,,,"29.86","50","57","0.00",,"-0.05","1","78","29.86","FEW:02 30","29.54","10.00","53","330",,"8",,,,,,,,,,,,,,,,,,,,,,,,,,,,,,,,,,,,,"MET11606/16/21 06:51:02 METAR KALB 161151Z 33007KT 10SM FEW030 14/10 A2986 RMK AO2 SLP113 T01390100 10139 20106 51018 (JB)","FM-15","7",,,,,,,,,,,,,,,,,,,,,,,,,,,,"2006-09-08"
"72518014735","2021-06-16T07:00:00","FM-12","4",,,,,"PRECIP","260",,"PLASTIC","42.6918","-73.83109","NWS ALBANY, NY",,,,,,,,,,,,,,,,,,,,,,,,,,,,"50","57",,,"-0.05","1","78","29.86","26","29.54","9.94","53","330",,"8",,,,,,,,,,,,,,,,,,,,,,,,,,,,,,,,,,,,,"SYN08072518 32566 23307 10139 20100 30005 40113 51018 91151 333 10228 20106 555 91612=","FM-12","4",,,,,,,,,,,,,,,,,,,,,,,,,,,,"2006-09-08"
"72518014735","2021-06-16T07:51:00","FM-15","7",,,,,"PRECIP","260",,"PLASTIC","42.6918","-73.83109","NWS ALBANY, NY",,,,,,,,,,,,,,,,,,,,,,,,,,,"29.87","47","59","0.00",,,,"64","29.87","FEW:02 30","29.56","10.00","53","350",,"7",,,,,,,,,,,,,,,,,,,,,,,,,,,,,,,,,,,,,"MET09806/16/21 07:51:02 METAR KALB 161251Z 35006KT 10SM FEW030 15/08 A2987 RMK AO2 SLP115 T01500083 (JB)","FM-15","7",,,,,,,,,,,,,,,,,,,,,,,,,,,,"2006-09-08"
"72518014735","2021-06-16T08:51:00","FM-15","7",,,,,"PRECIP","260",,"PLASTIC","42.6918","-73.83109","NWS ALBANY, NY",,,,,,,,,,,,,,,,,,,,,,,,,,,"29.87","48","61","0.00",,,,"63","29.87","FEW:02 35","29.56","10.00","54","VRB",,"7",,,,,,,,,,,,,,,,,,,,,,,,,,,,,,,,,,,,,"MET09806/16/21 08:51:02 METAR KALB 161351Z VRB06KT 10SM FEW035 16/09 A2987 RMK AO2 SLP114 T01610089 (JB)","FM-15","7",,,,,,,,,,,,,,,,,,,,,,,,,,,,"2006-09-08"
"72518014735","2021-06-16T09:51:00","FM-15","7",,,,,"PRECIP","260",,"PLASTIC","42.6918","-73.83109","NWS ALBANY, NY",,,,,,,,,,,,,,,,,,,,,,,,,,,"29.87","45","63","0.00",,"-0.00","0","52","29.86","SCT:04 48","29.56","10.00","54","300",,"14",,,,,,,,,,,,,,,,,,,,,,,,,,,,,,,,,,,,,"MET10406/16/21 09:51:02 METAR KALB 161451Z 30012KT 10SM SCT048 17/07 A2987 RMK AO2 SLP113 T01720072 50001 (JB)","FM-15","7",,,,,,,,,,,,,,,,,,,,,,,,,,,,"2006-09-08"
"72518014735","2021-06-16T10:00:00","FM-12","4",,,,,"PRECIP","260",,"PLASTIC","42.6918","-73.83109","NWS ALBANY, NY",,,,,,,,,,,,,,,,,,,,,,,,,,,,"45","63",,,"0.00","9","52","29.86","41","29.55","9.94","54","300",,"14",,,,,,,,,,,,,,,,,,,,,,,,,,,,,,,,,,,,,"SYN06472518 32666 43012 10172 20072 30008 40113 50001 91451 555 91615=","FM-12","4",,,,,,,,,,,,,,,,,,,,,,,,,,,,"2006-09-08"
"72518014735","2021-06-16T10:51:00","FM-15","7",,,,,"PRECIP","260",,"PLASTIC","42.6918","-73.83109","NWS ALBANY, NY",,,,,,,,,,,,,,,,,,,,,,,,,,,"29.88","45","62","0.00",,,,"54","29.88","FEW:02 50 BKN:07 65","29.57","10.00","53","300","18","11",,,,,,,,,,,,,,,,,,,,,,,,,,,,,,,,,,,,,"MET10806/16/21 10:51:02 METAR KALB 161551Z 30010G16KT 10SM FEW050 BKN065 17/07 A2988 RMK AO2 SLP118 T01670072 (JB)","FM-15","7",,,,,,,,,,,,,,,,,,,,,,,,,,,,"2006-09-08"
"72518014735","2021-06-16T11:51:00","FM-15","7",,,,,"PRECIP","260",,"PLASTIC","42.6918","-73.83109","NWS ALBANY, NY",,,,,,,,,,,,,,,,,,,,,,,,,,,"29.88","45","67","0.00",,,,"45","29.87","BKN:07 60","29.57","10.00","55","270","22","14",,,,,,,,,,,,,,,,,,,,,,,,,,,,,,,,,,,,,"MET10106/16/21 11:51:02 METAR KALB 161651Z 27012G19KT 10SM BKN060 19/07 A2988 RMK AO2 SLP116 T01940072 (JB)","FM-15","7",,,,,,,,,,,,,,,,,,,,,,,,,,,,"2006-09-08"
"72518014735","2021-06-16T12:51:00","FM-15","7",,,,,"PRECIP","260",,"PLASTIC","42.6918","-73.83109","NWS ALBANY, NY",,,,,,,,,,,,,,,,,,,,,,,,,,,"29.87","44","66","0.00",,"-0.01","0","45","29.87","BKN:07 65","29.56","10.00","54","290","23","11",,,,,,,,,,,,,,,,,,,,,,,,,,,,,,,,,,,,,"MET11906/16/21 12:51:02 METAR KALB 161751Z 29010G20KT 10SM BKN065 19/07 A2987 RMK AO2 SLP116 T01890067 10194 20139 50002 (JB)","FM-15","7",,,,,,,,,,,,,,,,,,,,,,,,,,,,"2006-09-08"
"72518014735","2021-06-16T13:00:00","FM-12","4",,,,,"PRECIP","260",,"PLASTIC","42.6918","-73.83109","NWS ALBANY, NY",,,,,,,,,,,,,,,,,,,,,,,,,,,,"44","66",,,"0.01","9","45","29.87","57","29.55","9.94","54","290",,"11",,,,,,,,,,,,,,,,,,,,,,,,,,,,,,,,,,,,,"SYN08672518 32766 62910 10189 20067 30008 40116 50002 91751 333 10194 20139 91020 555 91618=","FM-12","4",,,,,,,,,,,,,,,,,,,,,,,,,,,,"2006-09-08"
"72518014735","2021-06-16T13:51:00","FM-15","7",,,,,"PRECIP","260",,"PLASTIC","42.6918","-73.83109","NWS ALBANY, NY",,,,,,,,,,,,,,,,,,,,,,,,,,,"29.86","45","68","0.00",,,,"44","29.86","BKN:07 65","29.54","10.00","56","280","20","16",,,,,,,,,,,,,,,,,,,,,,,,,,,,,,,,,,,,,"MET10106/16/21 13:51:02 METAR KALB 161851Z 28014G17KT 10SM BKN065 20/07 A2986 RMK AO2 SLP112 T02000072 (JB)","FM-15","7",,,,,,,,,,,,,,,,,,,,,,,,,,,,"2006-09-08"
"72518014735","2021-06-16T14:51:00","FM-15","7",,,,,"PRECIP","260",,"PLASTIC","42.6918","-73.83109","NWS ALBANY, NY",,,,,,,,,,,,,,,,,,,,,,,,,,,"29.86","44","68","0.00",,,,"42","29.86","FEW:02 65 SCT:04 75","29.54","10.00","55","270","22","15",,,,,,,,,,,,,,,,,,,,,,,,,,,,,,,,,,,,,"MET10806/16/21 14:51:02 METAR KALB 161951Z 27013G19KT 10SM FEW065 SCT075 20/07 A2986 RMK AO2 SLP111 T02000067 (JF)","FM-15","7",,,,,,,,,,,,,,,,,,,,,,,,,,,,"2006-09-08"
"72518014735","2021-06-16T15:51:00","FM-15","7",,,,,"PRECIP","260",,"PLASTIC","42.6918","-73.83109","NWS ALBANY, NY",,,,,,,,,,,,,,,,,,,,,,,,,,,"29.86","44","66","0.00",,"+0.01","5","45","29.86","FEW:02 65 SCT:04 80","29.54","10.00","54","250","24","16",,,,,,,,,,,,,,,,,,,,,,,,,,,,,,,,,,,,,"MET11406/16/21 15:51:02 METAR KALB 162051Z 25014G21KT 10SM FEW065 SCT080 19/07 A2986 RMK AO2 SLP111 T01890067 55005 (JF)","FM-15","7",,,,,,,,,,,,,,,,,,,,,,,,,,,,"2006-09-08"
"72518014735","2021-06-16T16:00:00","FM-12","4",,,,,"PRECIP","260",,"PLASTIC","42.6918","-73.83109","NWS ALBANY, NY",,,,,,,,,,,,,,,,,,,,,,,,,,,,"44","66",,,"+0.01","5","45","29.86","57","29.54","9.94","54","250",,"16",,,,,,,,,,,,,,,,,,,,,,,,,,,,,,,,,,,,,"SYN07472518 32766 42514 10189 20067 30005 40111 55005 92051 333 91021 555 91621=","FM-12","4",,,,,,,,,,,,,,,,,,,,,,,,,,,,"2006-09-08"
"72518014735","2021-06-16T16:51:00","FM-15","7",,,,,"PRECIP","260",,"PLASTIC","42.6918","-73.83109","NWS ALBANY, NY",,,,,,,,,,,,,,,,,,,,,,,,,,,"29.86","42","67","0.00",,,,"41","29.85","FEW:02 70","29.54","10.00","54","250",,"20",,,,,,,,,,,,,,,,,,,,,,,,,,,,,,,,,,,,,"MET09806/16/21 16:51:02 METAR KALB 162151Z 25017KT 10SM FEW070 19/06 A2986 RMK AO2 SLP110 T01940056 (JF)","FM-15","7",,,,,,,,,,,,,,,,,,,,,,,,,,,,"2006-09-08"
"72518014735","2021-06-16T17:51:00","FM-15","7",,,,,"PRECIP","260",,"PLASTIC","42.6918","-73.83109","NWS ALBANY, NY",,,,,,,,,,,,,,,,,,,,,,,,,,,"29.87","40","65","0.00",,,,"40","29.87","FEW:02 70 FEW:02 260","29.56","10.00","52","270","25","15",,,,,,,,,,,,,,,,,,,,,,,,,,,,,,,,,,,,,"MET10806/16/21 17:51:02 METAR KALB 162251Z 27013G22KT 10SM FEW070 FEW260 18/04 A2987 RMK AO2 SLP116 T01830044 (JF)","FM-15","7",,,,,,,,,,,,,,,,,,,,,,,,,,,,"2006-09-08"
"72518014735","2021-06-16T18:51:00","FM-15","7",,,,,"PRECIP","260",,"PLASTIC","42.6918","-73.83109","NWS ALBANY, NY",,,,,,,,,,,,,,,,,,,,,,,,,,,"29.88","40","62","0.00",,"-0.02","3","44","29.88","FEW:02 70 FEW:02 260","29.57","10.00","51","260",,"15",,,,,,,,,,,,,,,,,,,,,,,,,,,,,,,,,,,,,"MET12306/16/21 18:51:02 METAR KALB 162351Z 26013KT 10SM FEW070 FEW260 17/04 A2988 RMK AO2 SLP120 T01670044 10206 20167 53008 (JF)","FM-15","7",,,,,,,,,,,,,,,,,,,,,,,,,,,,"2006-09-08"
"72518014735","2021-06-16T19:00:00","FM-12","4",,,,,"PRECIP","260",,"PLASTIC","42.6918","-73.83109","NWS ALBANY, NY",,,,,,,,,,,,,,,,,,,,,,,,,,,,"40","62",,,"-0.02","3","44","29.88","74","29.57","9.94","51","260",,"15",,,,,,,,,,,,,,,,,,,,,,,,,,,,,,,,,,,,,"SYN08072518 32866 22613 10167 20044 30012 40120 53008 92351 333 10206 20106 555 91700=","FM-12","4",,,,,,,,,,,,,,,,,,,,,,,,,,,,"2006-09-08"
"72518014735","2021-06-16T19:51:00","FM-15","7",,,,,"PRECIP","260",,"PLASTIC","42.6918","-73.83109","NWS ALBANY, NY",,,,,,,,,,,,,,,,,,,,,,,,,,,"29.91","40","59","0.00",,,,"49","29.91","FEW:02 70 FEW:02 260","29.59","10.00","50","260",,"11",,,,,,,,,,,,,,,,,,,,,,,,,,,,,,,,,,,,,"MET10006/16/21 19:51:01 METAR KALB 170051Z 26010KT 10SM FEW070 FEW260 15/04 A2991 RMK AO2 SLP127 T01500044","FM-15","7",,,,,,,,,,,,,,,,,,,,,,,,,,,,"2006-09-08"
"72518014735","2021-06-16T20:51:00","FM-15","7",,,,,"PRECIP","260",,"PLASTIC","42.6918","-73.83109","NWS ALBANY, NY",,,,,,,,,,,,,,,,,,,,,,,,,,,"29.93","40","57","0.00",,,,"53","29.93","FEW:02 70 FEW:02 260","29.62","10.00","49","260",,"11",,,,,,,,,,,,,,,,,,,,,,,,,,,,,,,,,,,,,"MET10006/16/21 20:51:01 METAR KALB 170151Z 26010KT 10SM FEW070 FEW260 14/04 A2993 RMK AO2 SLP136 T01390044","FM-15","7",,,,,,,,,,,,,,,,,,,,,,,,,,,,"2006-09-08"
"72518014735","2021-06-16T21:51:00","FM-15","7",,,,,"PRECIP","260",,"PLASTIC","42.6918","-73.83109","NWS ALBANY, NY",,,,,,,,,,,,,,,,,,,,,,,,,,,"29.95","42","54","0.00",,"-0.06","1","64","29.95","FEW:02 260","29.64","10.00","48","260",,"9",,,,,,,,,,,,,,,,,,,,,,,,,,,,,,,,,,,,,"MET09906/16/21 21:51:01 METAR KALB 170251Z 26008KT 10SM FEW260 12/06 A2995 RMK AO2 SLP141 T01220056 51021","FM-15","7",,,,,,,,,,,,,,,,,,,,,,,,,,,,"2006-09-08"
"72518014735","2021-06-16T22:00:00","FM-12","4",,,,,"PRECIP","260",,"PLASTIC","42.6918","-73.83109","NWS ALBANY, NY",,,,,,,,,,,,,,,,,,,,,,,,,,,,"42","54",,,"-0.06","1","64","29.95",,"29.63","9.94","48","260",,"9",,,,,,,,,,,,,,,,,,,,,,,,,,,,,,,,,,,,,"SYN06472518 32966 22608 10122 20056 30035 40141 51021 90251 555 91703=","FM-12","4",,,,,,,,,,,,,,,,,,,,,,,,,,,,"2006-09-08"
"72518014735","2021-06-16T22:51:00","FM-15","7",,,,,"PRECIP","260",,"PLASTIC","42.6918","-73.83109","NWS ALBANY, NY",,,,,,,,,,,,,,,,,,,,,,,,,,,"29.95","42","52","0.00",,,,"69","29.95","FEW:02 250","29.64","10.00","47","270",,"6",,,,,,,,,,,,,,,,,,,,,,,,,,,,,,,,,,,,,"MET09306/16/21 22:51:02 METAR KALB 170351Z 27005KT 10SM FEW250 11/06 A2995 RMK AO2 SLP141 T01110056","FM-15","7",,,,,,,,,,,,,,,,,,,,,,,,,,,,"2006-09-08"
"72518014735","2021-06-16T23:51:00","FM-15","7",,,,,"PRECIP","260",,"PLASTIC","42.6918","-73.83109","NWS ALBANY, NY",,,,,,,,,,,,,,,,,,,,,,,,,,,"29.95","42","51","0.00",,,,"71","29.95","FEW:02 250","29.64","10.00","47","280",,"3",,,,,,,,,,,,,,,,,,,,,,,,,,,,,,,,,,,,,"MET10306/16/21 23:51:02 METAR KALB 170451Z 28003KT 10SM FEW250 11/06 A2995 RMK AO2 SLP142 T01060056 402060100","FM-15","7",,,,,,,,,,,,,,,,,,,,,,,,,,,,"2006-09-08"
"72518014735","2021-06-16T23:59:00","SOD  ","6",,,,,"PRECIP","260",,"PLASTIC","42.6918","-73.83109","NWS ALBANY, NY",,,,,"60",,,"29.54",,"10.0","0","-7.3","5","69","50","270","26","0.00","0","0.0","250","20",,,,,,,,,,,,,,,,,,,,,,,,,,,,,,,,,,,,,,,,,,,,,,,,,,,,,,,,,"SOD73924 HR PRECIPITATION (IN): 0.00 SNOW DEPTH (IN):0     24 HR SNOWFALL (IN):0.0  24 HR MAX TEMP (F): 6924 HR MIN TEMP (F): 50AVERAGE STATION PRESSURE:29.540 MINIMUM SEA LEVEL PRESSURE:29.80 TIME OF OCCURRENCE:0346 PEAK WIND SPEED (MPH): 26 PEAK WIND DIR (DEG):270 PEAK WIND TIME (LST):      FASTEST 2MIN SPEED (MPH): 20FASTEST 2MIN DIR (DEG):250 FASTEST 2MIN TIME (LST):     AVERAGE WIND SPEED (MPH):10.0 24 HR AVG TEMP (F): 60DEPART FROM NORMAL: -9  HEATING DEGREE DAYS:  5 COOLING DEGREE DAYS:  0 LATEST DAY MAX TEMP (0700-1900 LST):69  LATEST NIGHT MIN TEMP(1900-0800 LST):51 HOURLY INCREMENTAL PRECIPITATION VALUES (IN):.00 0.00 0.00 0.00 0.00 0.00 0.00 0.00 0.00 0.00 0.00 0.00 0.00 0.00 0.00 0.00 0.00 0.00 0.00 0.00 0.00 0.00 0.00 0.00","SOD  ","6",,,,,,,,,,,,,,,,,,,,,,,,,"0416","1935",,"2006-09-08"
"72518014735","2021-06-17T00:51:00","FM-15","7",,,,,"PRECIP","260",,"PLASTIC","42.6918","-73.83109","NWS ALBANY, NY",,,,,,,,,,,,,,,,,,,,,,,,,,,"29.94","41","50","0.00",,"+0.00","8","71","29.94","FEW:02 250","29.62","10.00","46","250",,"5",,,,,,,,,,,,,,,,,,,,,,,,,,,,,,,,,,,,,"MET11606/17/21 00:51:02 METAR KALB 170551Z 25004KT 10SM FEW250 10/05 A2994 RMK AO2 SLP140 T01000050 10167 20094 58001 (BA)","FM-15","7",,,,,,,,,,,,,,,,,,,,,,,,,,,,"2006-09-08"
"72518014735","2021-06-17T01:00:00","FM-12","4",,,,,"PRECIP","260",,"PLASTIC","42.6918","-73.83109","NWS ALBANY, NY",,,,,,,,,,,,,,,,,,,,,,,,,,,,"41","50",,,"+0.00","8","71","29.94",,"29.62","9.94","46","250",,"5",,,,,,,,,,,,,,,,,,,,,,,,,,,,,,,,,,,,,"SYN08072518 32966 22504 10100 20050 30032 40140 58001 90551 333 10167 20094 555 91706=","FM-12","4",,,,,,,,,,,,,,,,,,,,,,,,,,,,"2006-09-08"
"72518014735","2021-06-17T01:51:00","FM-15","7",,,,,"PRECIP","260",,"PLASTIC","42.6918","-73.83109","NWS ALBANY, NY",,,,,,,,,,,,,,,,,,,,,,,,,,,"29.94","41","49","0.00",,,,"74","29.94","FEW:02 250","29.62","10.00","45","140",,"3",,,,,,,,,,,,,,,,,,,,,,,,,,,,,,,,,,,,,"MET09806/17/21 01:51:02 METAR KALB 170651Z 14003KT 10SM FEW250 09/05 A2994 RMK AO2 SLP138 T00940050 (BA)","FM-15","7",,,,,,,,,,,,,,,,,,,,,,,,,,,,"2006-09-08"
"72518014735","2021-06-17T02:51:00","FM-15","7",,,,,"PRECIP","260",,"PLASTIC","42.6918","-73.83109","NWS ALBANY, NY",,,,,,,,,,,,,,,,,,,,,,,,,,,"29.93","41","48","0.00",,,,"77","29.93","CLR:00","29.62","10.00","45","130",,"3",,,,,,,,,,,,,,,,,,,,,,,,,,,,,,,,,,,,,"MET09506/17/21 02:51:02 METAR KALB 170751Z 13003KT 10SM CLR 09/05 A2993 RMK AO2 SLP137 T00890050 (BA)","FM-15","7",,,,,,,,,,,,,,,,,,,,,,,,,,,,"2006-09-08"
"72518014735","2021-06-17T03:51:00","FM-15","7",,,,,"PRECIP","260",,"PLASTIC","42.6918","-73.83109","NWS ALBANY, NY",,,,,,,,,,,,,,,,,,,,,,,,,,,"29.94","40","47","0.00",,"+0.00","5","77","29.94","FEW:02 250","29.62","10.00","44","190",,"5",,,,,,,,,,,,,,,,,,,,,,,,,,,,,,,,,,,,,"MET10406/17/21 03:51:02 METAR KALB 170851Z 19004KT 10SM FEW250 08/04 A2994 RMK AO2 SLP139 T00830044 55001 (BA)","FM-15","7",,,,,,,,,,,,,,,,,,,,,,,,,,,,"2006-09-08"
"72518014735","2021-06-17T04:00:00","FM-12","4",,,,,"PRECIP","260",,"PLASTIC","42.6918","-73.83109","NWS ALBANY, NY",,,,,,,,,,,,,,,,,,,,,,,,,,,,"40","47",,,"+0.00","5","77","29.94",,"29.62","9.94","44","190",,"5",,,,,,,,,,,,,,,,,,,,,,,,,,,,,,,,,,,,,"SYN06472518 32966 21904 10083 20044 30032 40139 55001 90851 555 91709=","FM-12","4",,,,,,,,,,,,,,,,,,,,,,,,,,,,"2006-09-08"
"72518014735","2021-06-17T04:51:00","FM-15","7",,,,,"PRECIP","260",,"PLASTIC","42.6918","-73.83109","NWS ALBANY, NY",,,,,,,,,,,,,,,,,,,,,,,,,,,"29.95","41","48","0.00",,,,"77","29.95","FEW:02 250","29.64","10.00","45","170",,"5",,,,,,,,,,,,,,,,,,,,,,,,,,,,,,,,,,,,,"MET09806/17/21 04:51:02 METAR KALB 170951Z 17004KT 10SM FEW250 09/05 A2995 RMK AO2 SLP143 T00890050 (BA)","FM-15","7",,,,,,,,,,,,,,,,,,,,,,,,,,,,"2006-09-08"
"72518014735","2021-06-17T05:51:00","FM-15","7",,,,,"PRECIP","260",,"PLASTIC","42.6918","-73.83109","NWS ALBANY, NY",,,,,,,,,,,,,,,,,,,,,,,,,,,"29.97","44","51","0.00",,,,"77","29.96","FEW:02 250","29.65","10.00","48","180",,"5",,,,,,,,,,,,,,,,,,,,,,,,,,,,,,,,,,,,,"MET09806/17/21 05:51:02 METAR KALB 171051Z 18004KT 10SM FEW250 11/07 A2997 RMK AO2 SLP147 T01060067 (BA)","FM-15","7",,,,,,,,,,,,,,,,,,,,,,,,,,,,"2006-09-08"
"72518014735","2021-06-17T06:51:00","FM-15","7",,,,,"PRECIP","260",,"PLASTIC","42.6918","-73.83109","NWS ALBANY, NY",,,,,,,,,,,,,,,,,,,,,,,,,,,"29.98","45","56","0.00",,"-0.04","3","67","29.98","FEW:02 250","29.67","10.00","50","250",,"3",,,,,,,,,,,,,,,,,,,,,,,,,,,,,,,,,,,,,"MET11606/17/21 06:51:02 METAR KALB 171151Z 25003KT 10SM FEW250 13/07 A2998 RMK AO2 SLP152 T01330072 10133 20078 53014 (JB)","FM-15","7",,,,,,,,,,,,,,,,,,,,,,,,,,,,"2006-09-08"
"72518014735","2021-06-17T07:00:00","FM-12","4",,,,,"PRECIP","260",,"PLASTIC","42.6918","-73.83109","NWS ALBANY, NY",,,,,,,,,,,,,,,,,,,,,,,,,,,,"45","56",,,"-0.04","3","67","29.98",,"29.66","9.94","50","250",,"3",,,,,,,,,,,,,,,,,,,,,,,,,,,,,,,,,,,,,"SYN08072518 32966 22503 10133 20072 30045 40152 53014 91151 333 10206 20078 555 91712=","FM-12","4",,,,,,,,,,,,,,,,,,,,,,,,,,,,"2006-09-08"
"72518014735","2021-06-17T07:51:00","FM-15","7",,,,,"PRECIP","260",,"PLASTIC","42.6918","-73.83109","NWS ALBANY, NY",,,,,,,,,,,,,,,,,,,,,,,,,,,"29.99","46","59","0.00",,,,"62","29.99","FEW:02 250","29.67","10.00","52","VRB",,"3",,,,,,,,,,,,,,,,,,,,,,,,,,,,,,,,,,,,,"MET09806/17/21 07:51:02 METAR KALB 171251Z VRB03KT 10SM FEW250 15/08 A2999 RMK AO2 SLP155 T01500078 (JB)","FM-15","7",,,,,,,,,,,,,,,,,,,,,,,,,,,,"2006-09-08"
"72518014735","2021-06-17T08:51:00","FM-15","7",,,,,"PRECIP","260",,"PLASTIC","42.6918","-73.83109","NWS ALBANY, NY",,,,,,,,,,,,,,,,,,,,,,,,,,,"30.00","47","62","0.00",,,,"58","30.00","FEW:02 35 FEW:02 250","29.68","10.00","54","230",,"6",,,,,,,,,,,,,,,,,,,,,,,,,,,,,,,,,,,,,"MET10506/17/21 08:51:02 METAR KALB 171351Z 23005KT 10SM FEW035 FEW250 17/08 A3000 RMK AO2 SLP158 T01670083 (JB)","FM-15","7",,,,,,,,,,,,,,,,,,,,,,,,,,,,"2006-09-08"
"72518014735","2021-06-17T09:51:00","FM-15","7",,,,,"PRECIP","260",,"PLASTIC","42.6918","-73.83109","NWS ALBANY, NY",,,,,,,,,,,,,,,,,,,,,,,,,,,"29.99","45","66","0.00",,"-0.01","0","47","29.99","FEW:02 45 FEW:02 250","29.67","10.00","55","VRB",,"5",,,,,,,,,,,,,,,,,,,,,,,,,,,,,,,,,,,,,"MET11106/17/21 09:51:02 METAR KALB 171451Z VRB04KT 10SM FEW045 FEW250 19/07 A2999 RMK AO2 SLP156 T01890072 50004 (JB)","FM-15","7",,,,,,,,,,,,,,,,,,,,,,,,,,,,"2006-09-08"
"72518014735","2021-06-17T10:00:00","FM-12","4",,,,,"PRECIP","260",,"PLASTIC","42.6918","-73.83109","NWS ALBANY, NY",,,,,,,,,,,,,,,,,,,,,,,,,,,,"45","66",,,"0.01","9","47","29.99","41","29.67","9.94","55",,,"5",,,,,,,,,,,,,,,,,,,,,,,,,,,,,,,,,,,,,"SYN06472518 32666 2//04 10189 20072 30049 40156 50004 91451 555 91715=","FM-12","4",,,,,,,,,,,,,,,,,,,,,,,,,,,,"2006-09-08"
"72518014735","2021-06-17T10:51:00","FM-15","7",,,,,"PRECIP","260",,"PLASTIC","42.6918","-73.83109","NWS ALBANY, NY",,,,,,,,,,,,,,,,,,,,,,,,,,,"29.99","40","69","0.00",,,,"35","29.98","SCT:04 60","29.67","10.00","54","280","20","10",,,,,,,,,,,,,,,,,,,,,,,,,,,,,,,,,,,,,"MET10106/17/21 10:51:02 METAR KALB 171551Z 28009G17KT 10SM SCT060 21/04 A2999 RMK AO2 SLP154 T02060044 (JB)","FM-15","7",,,,,,,,,,,,,,,,,,,,,,,,,,,,"2006-09-08"
"72518014735","2021-06-17T11:51:00","FM-15","7",,,,,"PRECIP","260",,"PLASTIC","42.6918","-73.83109","NWS ALBANY, NY",,,,,,,,,,,,,,,,,,,,,,,,,,,"29.96","43","69","0.00",,,,"39","29.96","FEW:02 65","29.65","10.00","55","290",,"10",,,,,,,,,,,,,,,,,,,,,,,,,,,,,,,,,,,,,"MET09806/17/21 11:51:02 METAR KALB 171651Z 29009KT 10SM FEW065 21/06 A2996 RMK AO2 SLP147 T02060061 (JB)","FM-15","7",,,,,,,,,,,,,,,,,,,,,,,,,,,,"2006-09-08"
"72518014735","2021-06-17T12:51:00","FM-15","7",,,,,"PRECIP","260",,"PLASTIC","42.6918","-73.83109","NWS ALBANY, NY",,,,,,,,,,,,,,,,,,,,,,,,,,,"29.96","44","72","0.00",,"+0.04","8","37","29.95","FEW:02 70","29.65","10.00","57","300","18","13",,,,,,,,,,,,,,,,,,,,,,,,,,,,,,,,,,,,,"MET11906/17/21 12:51:02 METAR KALB 171751Z 30011G16KT 10SM FEW070 22/07 A2996 RMK AO2 SLP143 T02220067 10222 20133 58012 (JB)","FM-15","7",,,,,,,,,,,,,,,,,,,,,,,,,,,,"2006-09-08"
"72518014735","2021-06-17T13:00:00","FM-12","4",,,,,"PRECIP","260",,"PLASTIC","42.6918","-73.83109","NWS ALBANY, NY",,,,,,,,,,,,,,,,,,,,,,,,,,,,"44","72",,,"+0.04","8","37","29.95","74","29.65","9.94","57","300",,"13",,,,,,,,,,,,,,,,,,,,,,,,,,,,,,,,,,,,,"SYN08672518 32866 23011 10222 20067 30039 40143 58012 91751 333 10222 20133 91016 555 91718=","FM-12","4",,,,,,,,,,,,,,,,,,,,,,,,,,,,"2006-09-08"
"72518014735","2021-06-17T13:51:00","FM-15","7",,,,,"PRECIP","260",,"PLASTIC","42.6918","-73.83109","NWS ALBANY, NY",,,,,,,,,,,,,,,,,,,,,,,,,,,"29.94","44","72","0.00",,,,"37","29.94","FEW:02 75 FEW:02 250","29.62","10.00","57","VRB",,"8",,,,,,,,,,,,,,,,,,,,,,,,,,,,,,,,,,,,,"MET10506/17/21 13:51:02 METAR KALB 171851Z 26007KT 10SM FEW075 FEW250 22/07 A2994 RMK AO2 SLP139 T02220067 (JB)","FM-15","7",,,,,,,,,,,,,,,,,,,,,,,,,,,,"2006-09-08"
"72518014735","2021-06-17T14:51:00","FM-15","7",,,,,"PRECIP","260",,"PLASTIC","42.6918","-73.83109","NWS ALBANY, NY",,,,,,,,,,,,,,,,,,,,,,,,,,,"29.93","45","73","0.00",,,,"37","29.93","FEW:02 75 FEW:02 250","29.62","10.00","58","250",,"13",,,,,,,,,,,,,,,,,,,,,,,,,,,,,,,,,,,,,"MET10506/17/21 14:51:02 METAR KALB 171951Z 25011KT 10SM FEW075 FEW250 23/07 A2993 RMK AO2 SLP135 T02280072 (JF)","FM-15","7",,,,,,,,,,,,,,,,,,,,,,,,,,,,"2006-09-08"
"72518014735","2021-06-17T15:51:00","FM-15","7",,,,,"PRECIP","260",,"PLASTIC","42.6918","-73.83109","NWS ALBANY, NY",,,,,,,,,,,,,,,,,,,,,,,,,,,"29.93","44","73","0.00",,"+0.02","6","35","29.93","FEW:02 75 FEW:02 250","29.62","10.00","57","250",,"10",,,,,,,,,,,,,,,,,,,,,,,,,,,,,,,,,,,,,"MET11106/17/21 15:51:02 METAR KALB 172051Z 25009KT 10SM FEW075 FEW250 23/07 A2993 RMK AO2 SLP136 T02280067 56008 (JF)","FM-15","7",,,,,,,,,,,,,,,,,,,,,,,,,,,,"2006-09-08"
"72518014735","2021-06-17T16:00:00","FM-12","4",,,,,"PRECIP","260",,"PLASTIC","42.6918","-73.83109","NWS ALBANY, NY",,,,,,,,,,,,,,,,,,,,,,,,,,,,"44","73",,,"+0.02","6","35","29.93","74","29.61","9.94","57","250",,"10",,,,,,,,,,,,,,,,,,,,,,,,,,,,,,,,,,,,,"SYN06472518 32866 22509 10228 20067 30028 40136 56008 92051 555 91721=","FM-12","4",,,,,,,,,,,,,,,,,,,,,,,,,,,,"2006-09-08"
"72518014735","2021-06-17T16:51:00","FM-15","7",,,,,"PRECIP","260",,"PLASTIC","42.6918","-73.83109","NWS ALBANY, NY",,,,,,,,,,,,,,,,,,,,,,,,,,,"29.93","43","72","0.00",,,,"35","29.93","FEW:02 75 SCT:04 250","29.62","10.00","57","250",,"11",,,,,,,,,,,,,,,,,,,,,,,,,,,,,,,,,,,,,"MET10506/17/21 16:51:02 METAR KALB 172151Z 25010KT 10SM FEW075 SCT250 22/06 A2993 RMK AO2 SLP136 T02220061 (JF)","FM-15","7",,,,,,,,,,,,,,,,,,,,,,,,,,,,"2006-09-08"
"72518014735","2021-06-17T17:51:00","FM-15","7",,,,,"PRECIP","260",,"PLASTIC","42.6918","-73.83109","NWS ALBANY, NY",,,,,,,,,,,,,,,,,,,,,,,,,,,"29.94","42","70","0.00",,,,"37","29.94","SCT:04 250","29.62","10.00","55","260",,"10",,,,,,,,,,,,,,,,,,,,,,,,,,,,,,,,,,,,,"MET09806/17/21 17:51:02 METAR KALB 172251Z 26009KT 10SM SCT250 21/06 A2994 RMK AO2 SLP138 T02110056 (JF)","FM-15","7",,,,,,,,,,,,,,,,,,,,,,,,,,,,"2006-09-08"
"72518014735","2021-06-17T18:51:00","FM-15","7",,,,,"PRECIP","260",,"PLASTIC","42.6918","-73.83109","NWS ALBANY, NY",,,,,,,,,,,,,,,,,,,,,,,,,,,"29.95","43","68","0.00",,"-0.02","3","40","29.95","SCT:04 250","29.64","10.00","55","270",,"13",,,,,,,,,,,,,,,,,,,,,,,,,,,,,,,,,,,,,"MET12606/17/21 18:51:02 METAR KALB 172351Z 27011KT 10SM SCT250 20/06 A2995 RMK AO2 SLP142 SCT V BKN T02000061 10228 20200 53007 (JF)","FM-15","7",,,,,,,,,,,,,,,,,,,,,,,,,,,,"2006-09-08"
"72518014735","2021-06-17T19:00:00","FM-12","4",,,,,"PRECIP","260",,"PLASTIC","42.6918","-73.83109","NWS ALBANY, NY",,,,,,,,,,,,,,,,,,,,,,,,,,,,"43","68",,,"-0.02","3","40","29.95",,"29.63","9.94","55","270",,"13",,,,,,,,,,,,,,,,,,,,,,,,,,,,,,,,,,,,,"SYN08072518 32966 42711 10200 20061 30035 40142 53007 92351 333 10228 20078 555 91800=","FM-12","4",,,,,,,,,,,,,,,,,,,,,,,,,,,,"2006-09-08"
"72518014735","2021-06-17T19:51:00","FM-15","7",,,,,"PRECIP","260",,"PLASTIC","42.6918","-73.83109","NWS ALBANY, NY",,,,,,,,,,,,,,,,,,,,,,,,,,,"29.96","43","64","0.00",,,,"46","29.96","SCT:04 250","29.65","10.00","53","270",,"8",,,,,,,,,,,,,,,,,,,,,,,,,,,,,,,,,,,,,"MET09306/17/21 19:51:01 METAR KALB 180051Z 27007KT 10SM SCT250 18/06 A2996 RMK AO2 SLP146 T01780061","FM-15","7",,,,,,,,,,,,,,,,,,,,,,,,,,,,"2006-09-08"
"72518014735","2021-06-17T20:51:00","FM-15","7",,,,,"PRECIP","260",,"PLASTIC","42.6918","-73.83109","NWS ALBANY, NY",,,,,,,,,,,,,,,,,,,,,,,,,,,"29.98","43","61","0.00",,,,"52","29.98","FEW:02 250","29.67","10.00","52","280",,"8",,,,,,,,,,,,,,,,,,,,,,,,,,,,,,,,,,,,,"MET09306/17/21 20:51:01 METAR KALB 180151Z 28007KT 10SM FEW250 16/06 A2998 RMK AO2 SLP152 T01610061","FM-15","7",,,,,,,,,,,,,,,,,,,,,,,,,,,,"2006-09-08"
"72518014735","2021-06-17T21:51:00","FM-15","7",,,,,"PRECIP","260",,"PLASTIC","42.6918","-73.83109","NWS ALBANY, NY",,,,,,,,,,,,,,,,,,,,,,,,,,,"29.99","43","57","0.00",,"-0.04","3","60","29.99","FEW:02 250","29.67","10.00","50","250",,"6",,,,,,,,,,,,,,,,,,,,,,,,,,,,,,,,,,,,,"MET09906/17/21 21:51:02 METAR KALB 180251Z 25005KT 10SM FEW250 14/06 A2999 RMK AO2 SLP156 T01390061 53014","FM-15","7",,,,,,,,,,,,,,,,,,,,,,,,,,,,"2006-09-08"
"72518014735","2021-06-17T22:00:00","FM-12","4",,,,,"PRECIP","260",,"PLASTIC","42.6918","-73.83109","NWS ALBANY, NY",,,,,,,,,,,,,,,,,,,,,,,,,,,,"43","57",,,"-0.04","3","60","29.99",,"29.67","9.94","50","250",,"6",,,,,,,,,,,,,,,,,,,,,,,,,,,,,,,,,,,,,"SYN06472518 32966 22505 10139 20061 30049 40156 53014 90251 555 91803=","FM-12","4",,,,,,,,,,,,,,,,,,,,,,,,,,,,"2006-09-08"
"72518014735","2021-06-17T22:51:00","FM-15","7",,,,,"PRECIP","260",,"PLASTIC","42.6918","-73.83109","NWS ALBANY, NY",,,,,,,,,,,,,,,,,,,,,,,,,,,"30.00","42","58","0.00",,,,"56","29.99","FEW:02 250","29.68","10.00","50","000",,"0",,,,,,,,,,,,,,,,,,,,,,,,,,,,,,,,,,,,,"MET09306/17/21 22:51:02 METAR KALB 180351Z 00000KT 10SM FEW250 14/06 A3000 RMK AO2 SLP157 T01440056","FM-15","7",,,,,,,,,,,,,,,,,,,,,,,,,,,,"2006-09-08"
"72518014735","2021-06-17T23:51:00","FM-15","7",,,,,"PRECIP","260",,"PLASTIC","42.6918","-73.83109","NWS ALBANY, NY",,,,,,,,,,,,,,,,,,,,,,,,,,,"30.00","45","51","0.00",,,,"80","30.00","CLR:00","29.68","10.00","48","000",,"0",,,,,,,,,,,,,,,,,,,,,,,,,,,,,,,,,,,,,"MET10006/17/21 23:51:02 METAR KALB 180451Z 00000KT 10SM CLR 11/07 A3000 RMK AO2 SLP160 T01060072 402280078","FM-15","7",,,,,,,,,,,,,,,,,,,,,,,,,,,,"2006-09-08"
"72518014735","2021-06-17T23:59:00","SOD  ","6",,,,,"PRECIP","260",,"PLASTIC","42.6918","-73.83109","NWS ALBANY, NY",,,,,"60",,,"29.64",,"6.8","0","-7.5","5","73","46","300","23","0.00","0","0.0","310","18",,,,,,,,,,,,,,,,,,,,,,,,,,,,,,,,,,,,,,,,,,,,,,,,,,,,,,,,,"SOD73924 HR PRECIPITATION (IN): 0.00 SNOW DEPTH (IN):0     24 HR SNOWFALL (IN):0.0  24 HR MAX TEMP (F): 7324 HR MIN TEMP (F): 46AVERAGE STATION PRESSURE:29.640 MINIMUM SEA LEVEL PRESSURE:29.92 TIME OF OCCURRENCE:1614 PEAK WIND SPEED (MPH): 23 PEAK WIND DIR (DEG):300 PEAK WIND TIME (LST):      FASTEST 2MIN SPEED (MPH): 18FASTEST 2MIN DIR (DEG):310 FASTEST 2MIN TIME (LST):     AVERAGE WIND SPEED (MPH): 6.8 24 HR AVG TEMP (F): 60DEPART FROM NORMAL: -9  HEATING DEGREE DAYS:  5 COOLING DEGREE DAYS:  0 LATEST DAY MAX TEMP (0700-1900 LST):73  LATEST NIGHT MIN TEMP(1900-0800 LST):46 HOURLY INCREMENTAL PRECIPITATION VALUES (IN):.00 0.00 0.00 0.00 0.00 0.00 0.00 0.00 0.00 0.00 0.00 0.00 0.00 0.00 0.00 0.00 0.00 0.00 0.00 0.00 0.00 0.00 0.00 0.00","SOD  ","6",,,,,,,,,,,,,,,,,,,,,,,,,"0416","1936",,"2006-09-08"
"72518014735","2021-06-18T00:51:00","FM-15","7",,,,,"PRECIP","260",,"PLASTIC","42.6918","-73.83109","NWS ALBANY, NY",,,,,,,,,,,,,,,,,,,,,,,,,,,"30.01","45","51","0.00",,"-0.01","1","80","30.00","CLR:00","29.70","10.00","48","000",,"0",,,,,,,,,,,,,,,,,,,,,,,,,,,,,,,,,,,,,"MET11306/18/21 00:51:02 METAR KALB 180551Z 00000KT 10SM CLR 11/07 A3001 RMK AO2 SLP160 T01060072 10200 20094 51004 (BA)","FM-15","7",,,,,,,,,,,,,,,,,,,,,,,,,,,,"2006-09-08"
"72518014735","2021-06-18T01:00:00","FM-12","4",,,,,"PRECIP","260",,"PLASTIC","42.6918","-73.83109","NWS ALBANY, NY",,,,,,,,,,,,,,,,,,,,,,,,,,,,"45","51",,,"-0.01","1","80","30.00",,"29.69","9.94","48","000",,"0",,,,,,,,,,,,,,,,,,,,,,,,,,,,,,,,,,,,,"SYN08072518 32966 00000 10106 20072 30055 40160 51004 90551 333 10200 20078 555 91806=","FM-12","4",,,,,,,,,,,,,,,,,,,,,,,,,,,,"2006-09-08"
"72518014735","2021-06-18T01:51:00","FM-15","7",,,,,"PRECIP","260",,"PLASTIC","42.6918","-73.83109","NWS ALBANY, NY",,,,,,,,,,,,,,,,,,,,,,,,,,,"30.00","45","50","0.00",,,,"83","30.00","CLR:00","29.68","10.00","48","000",,"0",,,,,,,,,,,,,,,,,,,,,,,,,,,,,,,,,,,,,"MET09506/18/21 01:51:02 METAR KALB 180651Z 00000KT 10SM CLR 10/07 A3000 RMK AO2 SLP158 T01000072 (BA)","FM-15","7",,,,,,,,,,,,,,,,,,,,,,,,,,,,"2006-09-08"
"72518014735","2021-06-18T02:51:00","FM-15","7",,,,,"PRECIP","260",,"PLASTIC","42.6918","-73.83109","NWS ALBANY, NY",,,,,,,,,,,,,,,,,,,,,,,,,,,"30.01","46","49","0.00",,,,"90","30.01","CLR:00","29.70","10.00","48","000",,"0",,,,,,,,,,,,,,,,,,,,,,,,,,,,,,,,,,,,,"MET09506/18/21 02:51:02 METAR KALB 180751Z 00000KT 10SM CLR 09/08 A3001 RMK AO2 SLP161 T00940078 (BA)","FM-15","7",,,,,,,,,,,,,,,,,,,,,,,,,,,,"2006-09-08"
"72518014735","2021-06-18T03:51:00","FM-15","7",,,,,"PRECIP","260",,"PLASTIC","42.6918","-73.83109","NWS ALBANY, NY",,,,,,,,,,,,,,,,,,,,,,,,,,,"30.02","46","48","0.00",,"-0.01","3","93","30.01","CLR:00","29.70","10.00","47","000",,"0",,,,,,,,,,,,,,,,,,,,,,,,,,,,,,,,,,,,,"MET10106/18/21 03:51:02 METAR KALB 180851Z 00000KT 10SM CLR 09/08 A3002 RMK AO2 SLP164 T00890078 53004 (BA)","FM-15","7",,,,,,,,,,,,,,,,,,,,,,,,,,,,"2006-09-08"
"72518014735","2021-06-18T04:00:00","FM-12","4",,,,,"PRECIP","260",,"PLASTIC","42.6918","-73.83109","NWS ALBANY, NY",,,,,,,,,,,,,,,,,,,,,,,,,,,,"46","48",,,"-0.01","3","93","30.01",,"29.70","9.94","47","000",,"0",,,,,,,,,,,,,,,,,,,,,,,,,,,,,,,,,,,,,"SYN06472518 32966 00000 10089 20078 30059 40164 53004 90851 555 91809=","FM-12","4",,,,,,,,,,,,,,,,,,,,,,,,,,,,"2006-09-08"
"72518014735","2021-06-18T04:51:00","FM-15","7",,,,,"PRECIP","260",,"PLASTIC","42.6918","-73.83109","NWS ALBANY, NY",,,,,,,,,,,,,,,,,,,,,,,,,,,"30.02","46","48","0.00",,,,"93","30.02","FEW:02 250","29.70","10.00","47","000",,"0",,,,,,,,,,,,,,,,,,,,,,,,,,,,,,,,,,,,,"MET09806/18/21 04:51:02 METAR KALB 180951Z 00000KT 10SM FEW250 09/08 A3002 RMK AO2 SLP166 T00890078 (BA)","FM-15","7",,,,,,,,,,,,,,,,,,,,,,,,,,,,"2006-09-08"
"72518014735","2021-06-18T05:51:00","FM-15","7",,,,,"PRECIP","260",,"PLASTIC","42.6918","-73.83109","NWS ALBANY, NY",,,,,,,,,,,,,,,,,,,,,,,,,,,"30.01","49","53","0.00",,,,"86","30.01","FEW:02 250","29.70","10.00","51","VRB",,"3",,,,,,,,,,,,,,,,,,,,,,,,,,,,,,,,,,,,,"MET09806/18/21 05:51:02 METAR KALB 181051Z VRB03KT 10SM FEW250 12/09 A3001 RMK AO2 SLP163 T01170094 (BA)","FM-15","7",,,,,,,,,,,,,,,,,,,,,,,,,,,,"2006-09-08"
"72518014735","2021-06-18T06:51:00","FM-15","7",,,,,"PRECIP","260",,"PLASTIC","42.6918","-73.83109","NWS ALBANY, NY",,,,,,,,,,,,,,,,,,,,,,,,,,,"30.00","48","57","0.00",,"+0.02","8","72","29.99","SCT:04 250","29.68","10.00","52","160",,"9",,,,,,,,,,,,,,,,,,,,,,,,,,,,,,,,,,,,,"MET11606/18/21 06:51:02 METAR KALB 181151Z 16008KT 10SM SCT250 14/09 A3000 RMK AO2 SLP157 T01390089 10139 20078 58007 (BA)","FM-15","7",,,,,,,,,,,,,,,,,,,,,,,,,,,,"2006-09-08"
"72518014735","2021-06-18T07:00:00","FM-12","4",,,,,"PRECIP","260",,"PLASTIC","42.6918","-73.83109","NWS ALBANY, NY",,,,,,,,,,,,,,,,,,,,,,,,,,,,"48","57",,,"+0.02","8","72","29.99",,"29.68","9.94","52","160",,"9",,,,,,,,,,,,,,,,,,,,,,,,,,,,,,,,,,,,,"SYN08072518 32966 41608 10139 20089 30052 40157 58007 91151 333 10228 20078 555 91812=","FM-12","4",,,,,,,,,,,,,,,,,,,,,,,,,,,,"2006-09-08"
"72518014735","2021-06-18T07:51:00","FM-15","7",,,,,"PRECIP","260",,"PLASTIC","42.6918","-73.83109","NWS ALBANY, NY",,,,,,,,,,,,,,,,,,,,,,,,,,,"29.98","49","61","0.00",,,,"65","29.98","BKN:07 250","29.67","10.00","55","150",,"9",,,,,,,,,,,,,,,,,,,,,,,,,,,,,,,,,,,,,"MET09806/18/21 07:51:02 METAR KALB 181251Z 15008KT 10SM BKN250 16/09 A2998 RMK AO2 SLP153 T01610094 (BA)","FM-15","7",,,,,,,,,,,,,,,,,,,,,,,,,,,,"2006-09-08"
"72518014735","2021-06-18T08:51:00","FM-15","7",,,,,"PRECIP","260",,"PLASTIC","42.6918","-73.83109","NWS ALBANY, NY",,,,,,,,,,,,,,,,,,,,,,,,,,,"29.97","51","64","0.00",,,,"63","29.96","BKN:07 250","29.65","10.00","57","160",,"7",,,,,,,,,,,,,,,,,,,,,,,,,,,,,,,,,,,,,"MET09806/18/21 08:51:02 METAR KALB 181351Z 16006KT 10SM BKN250 18/11 A2997 RMK AO2 SLP147 T01780106 (JB)","FM-15","7",,,,,,,,,,,,,,,,,,,,,,,,,,,,"2006-09-08"
"72518014735","2021-06-18T09:51:00","FM-15","7",,,,,"PRECIP","260",,"PLASTIC","42.6918","-73.83109","NWS ALBANY, NY",,,,,,,,,,,,,,,,,,,,,,,,,,,"29.95","51","68","0.00",,"+0.04","7","55","29.95","FEW:02 220 SCT:04 250","29.64","10.00","58","150",,"9",,,,,,,,,,,,,,,,,,,,,,,,,,,,,,,,,,,,,"MET11106/18/21 09:51:02 METAR KALB 181451Z 15008KT 10SM FEW220 SCT250 20/11 A2995 RMK AO2 SLP143 T02000106 57014 (JB)","FM-15","7",,,,,,,,,,,,,,,,,,,,,,,,,,,,"2006-09-08"
"72518014735","2021-06-18T10:00:00","FM-12","4",,,,,"PRECIP","260",,"PLASTIC","42.6918","-73.83109","NWS ALBANY, NY",,,,,,,,,,,,,,,,,,,,,,,,,,,,"51","68",,,"+0.04","7","55","29.95",,"29.63","9.94","58","150",,"9",,,,,,,,,,,,,,,,,,,,,,,,,,,,,,,,,,,,,"SYN06472518 32966 41508 10200 20106 30035 40143 57014 91451 555 91815=","FM-12","4",,,,,,,,,,,,,,,,,,,,,,,,,,,,"2006-09-08"
"72518014735","2021-06-18T10:51:00","FM-15","7",,,,,"PRECIP","260",,"PLASTIC","42.6918","-73.83109","NWS ALBANY, NY",,,,,,,,,,,,,,,,,,,,,,,,,,,"29.94","52","74","0.00",,,,"46","29.93","FEW:02 150 SCT:04 250","29.62","10.00","61","160",,"7",,,,,,,,,,,,,,,,,,,,,,,,,,,,,,,,,,,,,"MET10506/18/21 10:51:02 METAR KALB 181551Z 16006KT 10SM FEW150 SCT250 23/11 A2994 RMK AO2 SLP136 T02330111 (JB)","FM-15","7",,,,,,,,,,,,,,,,,,,,,,,,,,,,"2006-09-08"
"72518014735","2021-06-18T11:51:00","FM-15","7",,,,,"PRECIP","260",,"PLASTIC","42.6918","-73.83109","NWS ALBANY, NY",,,,,,,,,,,,,,,,,,,,,,,,,,,"29.92","53","76","0.00",,,,"45","29.92","SCT:04 150 SCT:04 250","29.61","10.00","62","120",,"7",,,,,,,,,,,,,,,,,,,,,,,,,,,,,,,,,,,,,"MET10506/18/21 11:51:02 METAR KALB 181651Z 12006KT 10SM SCT150 SCT250 24/12 A2992 RMK AO2 SLP132 T02440117 (JB)","FM-15","7",,,,,,,,,,,,,,,,,,,,,,,,,,,,"2006-09-08"
"72518014735","2021-06-18T12:51:00","FM-15","7",,,,,"PRECIP","260",,"PLASTIC","42.6918","-73.83109","NWS ALBANY, NY",,,,,,,,,,,,,,,,,,,,,,,,,,,"29.89","53","78","0.00",,"+0.07","8","42","29.88","FEW:02 180 BKN:07 250","29.57","10.00","63","160",,"10",,,,,,,,,,,,,,,,,,,,,,,,,,,,,,,,,,,,,"MET12306/18/21 12:51:02 METAR KALB 181751Z 16009KT 10SM FEW180 BKN250 26/12 A2989 RMK AO2 SLP119 T02560117 10261 20139 58023 (JB)","FM-15","7",,,,,,,,,,,,,,,,,,,,,,,,,,,,"2006-09-08"
"72518014735","2021-06-18T13:00:00","FM-12","4",,,,,"PRECIP","260",,"PLASTIC","42.6918","-73.83109","NWS ALBANY, NY",,,,,,,,,,,,,,,,,,,,,,,,,,,,"53","78",,,"+0.07","8","42","29.88",,"29.57","9.94","63","160",,"10",,,,,,,,,,,,,,,,,,,,,,,,,,,,,,,,,,,,,"SYN08072518 32966 61609 10256 20117 30015 40119 58023 91751 333 10261 20139 555 91818=","FM-12","4",,,,,,,,,,,,,,,,,,,,,,,,,,,,"2006-09-08"
"72518014735","2021-06-18T13:51:00","FM-15","7",,,,,"PRECIP","260",,"PLASTIC","42.6918","-73.83109","NWS ALBANY, NY",,,,,,,,,,,,,,,,,,,,,,,,,,,"29.87","54","78","0.00",,,,"43","29.86","FEW:02 180 BKN:07 240","29.56","10.00","64","170",,"15",,,,,,,,,,,,,,,,,,,,,,,,,,,,,,,,,,,,,"MET10506/18/21 13:51:02 METAR KALB 181851Z 17013KT 10SM FEW180 BKN240 26/12 A2987 RMK AO2 SLP113 T02560122 (JB)","FM-15","7",,,,,,,,,,,,,,,,,,,,,,,,,,,,"2006-09-08"
"72518014735","2021-06-18T14:51:00","FM-15","7",,,,,"PRECIP","260",,"PLASTIC","42.6918","-73.83109","NWS ALBANY, NY",,,,,,,,,,,,,,,,,,,,,,,,,,,"29.85","55","78","0.00",,,,"45","29.85","FEW:02 170 BKN:07 210 BKN:07 230","29.54","10.00","64","170","20","11",,,,,,,,,,,,,,,,,,,,,,,,,,,,,,,,,,,,,"MET11606/18/21 14:51:02 METAR KALB 181951Z 17010G17KT 10SM FEW170 BKN210 BKN230 26/13 A2985 RMK AO2 SLP108 T02560128 (MAK)","FM-15","7",,,,,,,,,,,,,,,,,,,,,,,,,,,,"2006-09-08"
"72518014735","2021-06-18T15:51:00","FM-15","7",,,,,"PRECIP","260",,"PLASTIC","42.6918","-73.83109","NWS ALBANY, NY",,,,,,,,,,,,,,,,,,,,,,,,,,,"29.84","54","77","0.00",,"+0.05","6","45","29.84","FEW:02 75 BKN:07 170 OVC:08 200","29.53","10.00","63","170",,"9",,,,,,,,,,,,,,,,,,,,,,,,,,,,,,,,,,,,,"MET11906/18/21 15:51:02 METAR KALB 182051Z 17008KT 10SM FEW075 BKN170 OVC200 25/12 A2984 RMK AO2 SLP104 T02500122 56016 (MAK)","FM-15","7",,,,,,,,,,,,,,,,,,,,,,,,,,,,"2006-09-08"
"72518014735","2021-06-18T16:00:00","FM-12","4",,,,,"PRECIP","260",,"PLASTIC","42.6918","-73.83109","NWS ALBANY, NY",,,,,,,,,,,,,,,,,,,,,,,,,,,,"54","77",,,"+0.05","6","45","29.84","74","29.52","9.94","63","170",,"9",,,,,,,,,,,,,,,,,,,,,,,,,,,,,,,,,,,,,"SYN06472518 32866 81708 10250 20122 39998 40104 56016 92051 555 91821=","FM-12","4",,,,,,,,,,,,,,,,,,,,,,,,,,,,"2006-09-08"
"72518014735","2021-06-18T16:51:00","FM-15","7",,,,,"PRECIP","260",,"PLASTIC","42.6918","-73.83109","NWS ALBANY, NY",,,,,,,,,,,,,,,,,,,,,,,,,,,"29.81","56","76","0.00",,,,"50","29.81","FEW:02 75 BKN:07 140 OVC:08 200","29.50","10.00","64","160",,"10",,,,,,,,,,,,,,,,,,,,,,,,,,,,,,,,,,,,,"MET11306/18/21 16:51:02 METAR KALB 182151Z 16009KT 10SM FEW075 BKN140 OVC200 24/13 A2981 RMK AO2 SLP094 T02440133 (MAK)","FM-15","7",,,,,,,,,,,,,,,,,,,,,,,,,,,,"2006-09-08"
"72518014735","2021-06-18T17:51:00","FM-15","7",,,,,"PRECIP","260",,"PLASTIC","42.6918","-73.83109","NWS ALBANY, NY",,,,,,,,,,,,,,,,,,,,,,,,,,,"29.80","57","75","0.00",,,,"54","29.80","FEW:02 70 SCT:04 110 OVC:08 130","29.49","10.00","64","170",,"8",,,,,,,,,,,,,,,,,,,,,,,,,,,,,,,,,,,,,"MET11306/18/21 17:51:02 METAR KALB 182251Z 17007KT 10SM FEW070 SCT110 OVC130 24/14 A2980 RMK AO2 SLP091 T02390139 (MAK)","FM-15","7",,,,,,,,,,,,,,,,,,,,,,,,,,,,"2006-09-08"
"72518014735","2021-06-18T18:51:00","FM-15","7",,,,,"PRECIP","260",,"PLASTIC","42.6918","-73.83109","NWS ALBANY, NY",,,,,,,,,,,,,,,,,,,,,,,,,,,"29.80","57","74","T","-RA:02 |RA |RA","+0.04","6","56","29.80","SCT:04 95 BKN:07 110 OVC:08 140","29.49","10.00","64","170",,"9",,,,,,,,,,,,,,,,,,,,,,,,,,,,,,,,,,,,,"MET15306/18/21 18:51:02 METAR KALB 182351Z 17008KT 10SM -RA SCT095 BKN110 OVC140 23/14 A2980 RMK AO2 RAB50 SLP090 P0000 60000 T02330139 10261 20233 56014 (MAK)","FM-15","7",,,,,,,,,,,,,,,,,,,,,,,,,,,,"2006-09-08"
"72518014735","2021-06-18T19:00:00","FM-12","4",,,,,"PRECIP","260",,"PLASTIC","42.6918","-73.83109","NWS ALBANY, NY",,,,,,,,,,,,,,,,,,,,,,,,,,,,"57","74",,"||RA","+0.04","6","56","29.80",,"29.49","9.94","64","170",,"9",,,,,,,,,,,,,,,,,,,,,,,,,,,,,,,,,,,,,"SYN09272518 11966 81708 10233 20139 39985 40090 56014 69901 761// 92351 333 10261 20078 555 91900=","FM-12","4",,,,,,,,,,,,,,,,,,,,,,,,,,,,"2006-09-08"
"72518014735","2021-06-18T19:51:00","FM-15","7",,,,,"PRECIP","260",,"PLASTIC","42.6918","-73.83109","NWS ALBANY, NY",,,,,,,,,,,,,,,,,,,,,,,,,,,"29.79","57","73","T",,,,"57","29.79","FEW:02 75 OVC:08 95","29.48","10.00","63","150",,"7",,,,,,,,,,,,,,,,,,,,,,,,,,,,,,,,,,,,,"MET11206/18/21 19:51:01 METAR KALB 190051Z 15006KT 10SM FEW075 OVC095 23/14 A2979 RMK AO2 RAE26 SLP087 P0000 T02280139","FM-15","7",,,,,,,,,,,,,,,,,,,,,,,,,,,,"2006-09-08"
"72518014735","2021-06-18T20:51:00","FM-15","7",,,,,"PRECIP","260",,"PLASTIC","42.6918","-73.83109","NWS ALBANY, NY",,,,,,,,,,,,,,,,,,,,,,,,,,,"29.80","56","72","0.00",,,,"57","29.80","FEW:02 65 BKN:07 80 OVC:08 95","29.49","10.00","62","160",,"9",,,,,,,,,,,,,,,,,,,,,,,,,,,,,,,,,,,,,"MET10706/18/21 20:51:01 METAR KALB 190151Z 16008KT 10SM FEW065 BKN080 OVC095 22/13 A2980 RMK AO2 SLP091 T02220133","FM-15","7",,,,,,,,,,,,,,,,,,,,,,,,,,,,"2006-09-08"
"72518014735","2021-06-18T21:51:00","FM-15","7",,,,,"PRECIP","260",,"PLASTIC","42.6918","-73.83109","NWS ALBANY, NY",,,,,,,,,,,,,,,,,,,,,,,,,,,"29.79","55","72","0.00",,"+0.01","8","55","29.78","OVC:08 70","29.48","10.00","62","160",,"9",,,,,,,,,,,,,,,,,,,,,,,,,,,,,,,,,,,,,"MET10506/18/21 21:51:01 METAR KALB 190251Z 16008KT 10SM OVC070 22/13 A2979 RMK AO2 SLP086 60000 T02220128 58003","FM-15","7",,,,,,,,,,,,,,,,,,,,,,,,,,,,"2006-09-08"
"72518014735","2021-06-18T22:00:00","FM-12","4",,,,,"PRECIP","260",,"PLASTIC","42.6918","-73.83109","NWS ALBANY, NY",,,,,,,,,,,,,,,,,,,,,,,,,,,,"55","72",,,"+0.01","8","55","29.78","74","29.47","9.94","62","160",,"9",,,,,,,,,,,,,,,,,,,,,,,,,,,,,,,,,,,,,"SYN07072518 12866 81608 10222 20128 39981 40086 58003 69907 90251 555 91903=","FM-12","4",,,,,,,,,,,,,,,,,,,,,,,,,,,,"2006-09-08"
"72518014735","2021-06-18T22:51:00","FM-15","7",,,,,"PRECIP","260",,"PLASTIC","42.6918","-73.83109","NWS ALBANY, NY",,,,,,,,,,,,,,,,,,,,,,,,,,,"29.76","54","71","0.00",,,,"55","29.76","BKN:07 75 OVC:08 95","29.45","10.00","61","160",,"9",,,,,,,,,,,,,,,,,,,,,,,,,,,,,,,,,,,,,"MET10006/18/21 22:51:02 METAR KALB 190351Z 16008KT 10SM BKN075 OVC095 22/12 A2976 RMK AO2 SLP077 T02170122","FM-15","7",,,,,,,,,,,,,,,,,,,,,,,,,,,,"2006-09-08"
"72518014735","2021-06-18T23:51:00","FM-15","7",,,,,"PRECIP","260",,"PLASTIC","42.6918","-73.83109","NWS ALBANY, NY",,,,,,,,,,,,,,,,,,,,,,,,,,,"29.76","54","70","0.00",,,,"57","29.75","SCT:04 70 BKN:07 95","29.45","10.00","61","160",,"9",,,,,,,,,,,,,,,,,,,,,,,,,,,,,,,,,,,,,"MET11006/18/21 23:51:02 METAR KALB 190451Z 16008KT 10SM SCT070 BKN095 21/12 A2976 RMK AO2 SLP075 T02110122 402610078","FM-15","7",,,,,,,,,,,,,,,,,,,,,,,,,,,,"2006-09-08"
"72518014735","2021-06-18T23:59:00","SOD  ","6",,,,,"PRECIP","260",,"PLASTIC","42.6918","-73.83109","NWS ALBANY, NY",,,,,"63",,,"29.60",,"7.0","0","-4.8","2","79","46","180","21","T","0","0.0","170","16","RA",,,,,,,,,,,,,,,,,,,,,,,,,,,,,,,,,,,,,,,,,,,,,,,,,,,,,,,,"SOD73924 HR PRECIPITATION (IN):    T SNOW DEPTH (IN):0     24 HR SNOWFALL (IN):0.0  24 HR MAX TEMP (F): 7924 HR MIN TEMP (F): 46AVERAGE STATION PRESSURE:29.605 MINIMUM SEA LEVEL PRESSURE:29.75 TIME OF OCCURRENCE:2359 PEAK WIND SPEED (MPH): 21 PEAK WIND DIR (DEG):180 PEAK WIND TIME (LST):      FASTEST 2MIN SPEED (MPH): 16FASTEST 2MIN DIR (DEG):170 FASTEST 2MIN TIME (LST):     AVERAGE WIND SPEED (MPH): 7.0 24 HR AVG TEMP (F): 63DEPART FROM NORMAL: -6  HEATING DEGREE DAYS:  2 COOLING DEGREE DAYS:  0 LATEST DAY MAX TEMP (0700-1900 LST):79  LATEST NIGHT MIN TEMP(1900-0800 LST):46 HOURLY INCREMENTAL PRECIPITATION VALUES (IN):.00 0.00 0.00 0.00 0.00 0.00 0.00 0.00 0.00 0.00 0.00 0.00 0.00 0.00 0.00 0.00 0.00 0.00 T    T    0.00 0.00 0.00 0.00","SOD  ","6",,,,,,,,,,,,,,,,,,,,,,,,,"0416","1936",,"2006-09-08"
"72518014735","2021-06-19T00:51:00","FM-15","7",,,,,"PRECIP","260",,"PLASTIC","42.6918","-73.83109","NWS ALBANY, NY",,,,,,,,,,,,,,,,,,,,,,,,,,,"29.74","55","70","0.00",,"+0.05","6","59","29.73","SCT:04 70 OVC:08 85","29.43","10.00","61","150",,"10",,,,,,,,,,,,,,,,,,,,,,,,,,,,,,,,,,,,,"MET12906/19/21 00:51:02 METAR KALB 190551Z 15009KT 10SM SCT070 OVC085 21/13 A2974 RMK AO2 SLP069 60000 T02110128 10233 20200 56016 (CL)","FM-15","7",,,,,,,,,,,,,,,,,,,,,,,,,,,,"2006-09-08"
"72518014735","2021-06-19T01:00:00","FM-12","4",,,,,"PRECIP","260",,"PLASTIC","42.6918","-73.83109","NWS ALBANY, NY",,,,,,,,,,,,,,,,,,,,,,,,,,,,"55","70",,,"+0.05","6","59","29.73","74","29.43","9.94","61","150",,"10",,,,,,,,,,,,,,,,,,,,,,,,,,,,,,,,,,,,,"SYN08672518 12866 81509 10211 20128 39965 40069 56016 69901 90551 333 10233 20078 555 91906=","FM-12","4",,,,,,,,,,,,,,,,,,,,,,,,,,,,"2006-09-08"
"72518014735","2021-06-19T01:51:00","FM-15","7",,,,,"PRECIP","260",,"PLASTIC","42.6918","-73.83109","NWS ALBANY, NY",,,,,,,,,,,,,,,,,,,,,,,,,,,"29.72","55","69","0.00",,,,"61","29.72","SCT:04 70 SCT:04 90 BKN:07 110","29.41","10.00","61","150",,"7",,,,,,,,,,,,,,,,,,,,,,,,,,,,,,,,,,,,,"MET11206/19/21 01:51:02 METAR KALB 190651Z 15006KT 10SM SCT070 SCT090 BKN110 21/13 A2972 RMK AO2 SLP063 T02060128 (CL)","FM-15","7",,,,,,,,,,,,,,,,,,,,,,,,,,,,"2006-09-08"
"72518014735","2021-06-19T02:51:00","FM-15","7",,,,,"PRECIP","260",,"PLASTIC","42.6918","-73.83109","NWS ALBANY, NY",,,,,,,,,,,,,,,,,,,,,,,,,,,"29.72","55","70","0.00",,,,"59","29.71","SCT:04 75 BKN:07 100","29.41","10.00","61","150",,"10",,,,,,,,,,,,,,,,,,,,,,,,,,,,,,,,,,,,,"MET10506/19/21 02:51:02 METAR KALB 190751Z 15009KT 10SM SCT075 BKN100 21/13 A2972 RMK AO2 SLP062 T02110128 (CL)","FM-15","7",,,,,,,,,,,,,,,,,,,,,,,,,,,,"2006-09-08"
"72518014735","2021-06-19T03:51:00","FM-15","7",,,,,"PRECIP","260",,"PLASTIC","42.6918","-73.83109","NWS ALBANY, NY",,,,,,,,,,,,,,,,,,,,,,,,,,,"29.71","56","69","0.00",,"+0.03","6","63","29.70","FEW:02 65 BKN:07 85 BKN:07 120","29.40","10.00","61","150",,"13",,,,,,,,,,,,,,,,,,,,,,,,,,,,,,,,,,,,,"MET11806/19/21 03:51:02 METAR KALB 190851Z 15011KT 10SM FEW065 BKN085 BKN120 21/13 A2971 RMK AO2 SLP058 T02060133 56011 (CL)","FM-15","7",,,,,,,,,,,,,,,,,,,,,,,,,,,,"2006-09-08"
"72518014735","2021-06-19T04:00:00","FM-12","4",,,,,"PRECIP","260",,"PLASTIC","42.6918","-73.83109","NWS ALBANY, NY",,,,,,,,,,,,,,,,,,,,,,,,,,,,"56","69",,,"+0.03","6","63","29.70","57","29.40","9.94","61","150",,"13",,,,,,,,,,,,,,,,,,,,,,,,,,,,,,,,,,,,,"SYN06472518 32766 61511 10206 20133 39955 40058 56011 90851 555 91909=","FM-12","4",,,,,,,,,,,,,,,,,,,,,,,,,,,,"2006-09-08"
"72518014735","2021-06-19T04:51:00","FM-15","7",,,,,"PRECIP","260",,"PLASTIC","42.6918","-73.83109","NWS ALBANY, NY",,,,,,,,,,,,,,,,,,,,,,,,,,,"29.70","57","67","0.00",,,,"71","29.70","SCT:04 46 BKN:07 65 BKN:07 80","29.39","10.00","61","140",,"6",,,,,,,,,,,,,,,,,,,,,,,,,,,,,,,,,,,,,"MET11206/19/21 04:51:02 METAR KALB 190951Z 14005KT 10SM SCT046 BKN065 BKN080 19/14 A2970 RMK AO2 SLP057 T01940139 (CL)","FM-15","7",,,,,,,,,,,,,,,,,,,,,,,,,,,,"2006-09-08"
"72518014735","2021-06-19T05:51:00","FM-15","7",,,,,"PRECIP","260",,"PLASTIC","42.6918","-73.83109","NWS ALBANY, NY",,,,,,,,,,,,,,,,,,,,,,,,,,,"29.73","58","67","0.00",,,,"73","29.72","SCT:04 42 BKN:07 55","29.42","10.00","62","160",,"7",,,,,,,,,,,,,,,,,,,,,,,,,,,,,,,,,,,,,"MET10506/19/21 05:51:02 METAR KALB 191051Z 16006KT 10SM SCT042 BKN055 19/14 A2973 RMK AO2 SLP064 T01940144 (CL)","FM-15","7",,,,,,,,,,,,,,,,,,,,,,,,,,,,"2006-09-08"
"72518014735","2021-06-19T06:51:00","FM-15","7",,,,,"PRECIP","260",,"PLASTIC","42.6918","-73.83109","NWS ALBANY, NY",,,,,,,,,,,,,,,,,,,,,,,,,,,"29.73","60","68","0.00",,"-0.02","3","76","29.72","SCT:04 38 SCT:04 55 BKN:07 140","29.42","10.00","63","180",,"6",,,,,,,,,,,,,,,,,,,,,,,,,,,,,,,,,,,,,"MET13006/19/21 06:51:02 METAR KALB 191151Z 18005KT 10SM SCT038 SCT055 BKN140 20/16 A2973 RMK AO2 SLP065 T02000156 10211 20194 53006 (JF)","FM-15","7",,,,,,,,,,,,,,,,,,,,,,,,,,,,"2006-09-08"
"72518014735","2021-06-19T07:00:00","FM-12","4",,,,,"PRECIP","260",,"PLASTIC","42.6918","-73.83109","NWS ALBANY, NY",,,,,,,,,,,,,,,,,,,,,,,,,,,,"60","68",,,"-0.02","3","76","29.72","41","29.41","9.94","63","180",,"6",,,,,,,,,,,,,,,,,,,,,,,,,,,,,,,,,,,,,"SYN08072518 32666 61805 10200 20156 39961 40065 53006 91151 333 10261 20194 555 91912=","FM-12","4",,,,,,,,,,,,,,,,,,,,,,,,,,,,"2006-09-08"
"72518014735","2021-06-19T07:51:00","FM-15","7",,,,,"PRECIP","260",,"PLASTIC","42.6918","-73.83109","NWS ALBANY, NY",,,,,,,,,,,,,,,,,,,,,,,,,,,"29.74","61","71","0.00",,,,"71","29.74","FEW:02 40 BKN:07 110 BKN:07 140","29.43","10.00","65","200",,"6",,,,,,,,,,,,,,,,,,,,,,,,,,,,,,,,,,,,,"MET11406/19/21 07:51:02 METAR KALB 191251Z 20005KT 10SM FEW040 BKN110 BKN140 22/16 A2974 RMK AO2 SLP070 T02170161 $ (JF)","FM-15","7",,,,,,,,,,,,,,,,,,,,,,,,,,,,"2006-09-08"
"72518014735","2021-06-19T08:51:00","FM-15","7",,,,,"PRECIP","260",,"PLASTIC","42.6918","-73.83109","NWS ALBANY, NY",,,,,,,,,,,,,,,,,,,,,,,,,,,"29.73","64","75","0.00",,,,"69","29.72","FEW:02 45 SCT:04 110 SCT:04 140","29.42","10.00","68","VRB",,"8",,,,,,,,,,,,,,,,,,,,,,,,,,,,,,,,,,,,,"MET11406/19/21 08:51:02 METAR KALB 191351Z 25007KT 10SM FEW045 SCT110 SCT140 24/18 A2973 RMK AO2 SLP064 T02390178 $ (JF)","FM-15","7",,,,,,,,,,,,,,,,,,,,,,,,,,,,"2006-09-08"
"72518014735","2021-06-19T09:51:00","FM-15","7",,,,,"PRECIP","260",,"PLASTIC","42.6918","-73.83109","NWS ALBANY, NY",,,,,,,,,,,,,,,,,,,,,,,,,,,"29.73","64","77","0.00",,"-0.01","1","64","29.73","FEW:02 45 BKN:07 130 BKN:07 260","29.42","10.00","69","VRB",,"8",,,,,,,,,,,,,,,,,,,,,,,,,,,,,,,,,,,,,"MET12006/19/21 09:51:02 METAR KALB 191451Z 25007KT 10SM FEW045 BKN130 BKN260 25/18 A2973 RMK AO2 SLP067 T02500178 51002 $ (JF)","FM-15","7",,,,,,,,,,,,,,,,,,,,,,,,,,,,"2006-09-08"
"72518014735","2021-06-19T10:00:00","FM-12","4",,,,,"PRECIP","260",,"PLASTIC","42.6918","-73.83109","NWS ALBANY, NY",,,,,,,,,,,,,,,,,,,,,,,,,,,,"64","77",,,"-0.01","1","64","29.73","41","29.41","9.94","69","250",,"8",,,,,,,,,,,,,,,,,,,,,,,,,,,,,,,,,,,,,"SYN06472518 32666 62507 10250 20178 39961 40067 51002 91451 555 91915=","FM-12","4",,,,,,,,,,,,,,,,,,,,,,,,,,,,"2006-09-08"
"72518014735","2021-06-19T10:51:00","FM-15","7",,,,,"PRECIP","260",,"PLASTIC","42.6918","-73.83109","NWS ALBANY, NY",,,,,,,,,,,,,,,,,,,,,,,,,,,"29.73","63","79","0.00",,,,"58","29.72","FEW:02 50 FEW:02 100 BKN:07 260","29.42","10.00","69","240",,"8",,,,,,,,,,,,,,,,,,,,,,,,,,,,,,,,,,,,,"MET11406/19/21 10:51:02 METAR KALB 191551Z 24007KT 10SM FEW050 FEW100 BKN260 26/17 A2973 RMK AO2 SLP066 T02610172 $ (JF)","FM-15","7",,,,,,,,,,,,,,,,,,,,,,,,,,,,"2006-09-08"
"72518014735","2021-06-19T11:51:00","FM-15","7",,,,,"PRECIP","260",,"PLASTIC","42.6918","-73.83109","NWS ALBANY, NY",,,,,,,,,,,,,,,,,,,,,,,,,,,"29.73","62","81","0.00",,,,"53","29.72","FEW:02 50 FEW:02 100 BKN:07 260","29.42","10.00","69","250",,"8",,,,,,,,,,,,,,,,,,,,,,,,,,,,,,,,,,,,,"MET11406/19/21 11:51:02 METAR KALB 191651Z 25007KT 10SM FEW050 FEW100 BKN260 27/17 A2973 RMK AO2 SLP065 T02720167 $ (JF)","FM-15","7",,,,,,,,,,,,,,,,,,,,,,,,,,,,"2006-09-08"
"72518014735","2021-06-19T12:51:00","FM-15","7",,,,,"PRECIP","260",,"PLASTIC","42.6918","-73.83109","NWS ALBANY, NY",,,,,,,,,,,,,,,,,,,,,,,,,,,"29.73","58","81","0.00",,"+0.01","5","45","29.72","SCT:04 65 BKN:07 260","29.42","10.00","67","260",,"11",,,,,,,,,,,,,,,,,,,,,,,,,,,,,,,,,,,,,"MET12506/19/21 12:51:02 METAR KALB 191751Z 26010KT 10SM SCT065 BKN260 27/14 A2973 RMK AO2 SLP065 T02720144 10278 20200 55002 $ (JF)","FM-15","7",,,,,,,,,,,,,,,,,,,,,,,,,,,,"2006-09-08"
"72518014735","2021-06-19T13:00:00","FM-12","4",,,,,"PRECIP","260",,"PLASTIC","42.6918","-73.83109","NWS ALBANY, NY",,,,,,,,,,,,,,,,,,,,,,,,,,,,"58","81",,,"+0.01","5","45","29.72","57","29.41","9.94","67","260",,"11",,,,,,,,,,,,,,,,,,,,,,,,,,,,,,,,,,,,,"SYN08072518 32766 62610 10272 20144 39961 40065 55002 91751 333 10278 20200 555 91918=","FM-12","4",,,,,,,,,,,,,,,,,,,,,,,,,,,,"2006-09-08"
"72518014735","2021-06-19T13:51:00","FM-15","7",,,,,"PRECIP","260",,"PLASTIC","42.6918","-73.83109","NWS ALBANY, NY",,,,,,,,,,,,,,,,,,,,,,,,,,,"29.72","58","81","0.00",,,,"45","29.72","SCT:04 70 BKN:07 260","29.41","10.00","67","250","18","10",,,,,,,,,,,,,,,,,,,,,,,,,,,,,,,,,,,,,"MET10806/19/21 13:51:02 METAR KALB 191851Z 25009G16KT 10SM SCT070 BKN260 27/14 A2972 RMK AO2 SLP064 T02720144 (JF)","FM-15","7",,,,,,,,,,,,,,,,,,,,,,,,,,,,"2006-09-08"
"72518014735","2021-06-19T14:51:00","FM-15","7",,,,,"PRECIP","260",,"PLASTIC","42.6918","-73.83109","NWS ALBANY, NY",,,,,,,,,,,,,,,,,,,,,,,,,,,"29.71","56","80","0.00",,,,"44","29.70","SCT:04 70 BKN:07 160 BKN:07 260","29.40","10.00","65","250",,"11",,,,,,,,,,,,,,,,,,,,,,,,,,,,,,,,,,,,,"MET11306/19/21 14:51:02 METAR KALB 191951Z 25010KT 10SM SCT070 BKN160 BKN260 27/13 A2971 RMK AO2 SLP059 T02670133 (MAK)","FM-15","7",,,,,,,,,,,,,,,,,,,,,,,,,,,,"2006-09-08"
"72518014735","2021-06-19T15:51:00","FM-15","7",,,,,"PRECIP","260",,"PLASTIC","42.6918","-73.83109","NWS ALBANY, NY",,,,,,,,,,,,,,,,,,,,,,,,,,,"29.69","55","82","0.00",,"+0.04","8","40","29.68","SCT:04 85 SCT:04 160 BKN:07 260","29.38","10.00","66","250",,"8",,,,,,,,,,,,,,,,,,,,,,,,,,,,,,,,,,,,,"MET11906/19/21 15:51:02 METAR KALB 192051Z 25007KT 10SM SCT085 SCT160 BKN260 28/13 A2969 RMK AO2 SLP051 T02780128 58014 (MAK)","FM-15","7",,,,,,,,,,,,,,,,,,,,,,,,,,,,"2006-09-08"
"72518014735","2021-06-19T16:00:00","FM-12","4",,,,,"PRECIP","260",,"PLASTIC","42.6918","-73.83109","NWS ALBANY, NY",,,,,,,,,,,,,,,,,,,,,,,,,,,,"55","82",,,"+0.04","8","40","29.68",,"29.38","9.94","66","250",,"8",,,,,,,,,,,,,,,,,,,,,,,,,,,,,,,,,,,,,"SYN06472518 32966 62507 10278 20128 39948 40051 58014 92051 555 91921=","FM-12","4",,,,,,,,,,,,,,,,,,,,,,,,,,,,"2006-09-08"
"72518014735","2021-06-19T16:51:00","FM-15","7",,,,,"PRECIP","260",,"PLASTIC","42.6918","-73.83109","NWS ALBANY, NY",,,,,,,,,,,,,,,,,,,,,,,,,,,"29.68","55","81","0.00",,,,"41","29.67","SCT:04 90 SCT:04 160 BKN:07 260","29.37","10.00","65","220",,"10",,,,,,,,,,,,,,,,,,,,,,,,,,,,,,,,,,,,,"MET11306/19/21 16:51:02 METAR KALB 192151Z 22009KT 10SM SCT090 SCT160 BKN260 27/13 A2968 RMK AO2 SLP049 T02720128 (MAK)","FM-15","7",,,,,,,,,,,,,,,,,,,,,,,,,,,,"2006-09-08"
"72518014735","2021-06-19T17:51:00","FM-15","7",,,,,"PRECIP","260",,"PLASTIC","42.6918","-73.83109","NWS ALBANY, NY",,,,,,,,,,,,,,,,,,,,,,,,,,,"29.69","56","78","0.00",,,,"47","29.69","FEW:02 80 SCT:04 130 BKN:07 200","29.38","10.00","65","210",,"8",,,,,,,,,,,,,,,,,,,,,,,,,,,,,,,,,,,,,"MET11306/19/21 17:51:02 METAR KALB 192251Z 21007KT 10SM FEW080 SCT130 BKN200 26/13 A2969 RMK AO2 SLP053 T02560133 (MAK)","FM-15","7",,,,,,,,,,,,,,,,,,,,,,,,,,,,"2006-09-08"
"72518014735","2021-06-19T18:51:00","FM-15","7",,,,,"PRECIP","260",,"PLASTIC","42.6918","-73.83109","NWS ALBANY, NY",,,,,,,,,,,,,,,,,,,,,,,,,,,"29.70","56","76","0.00",,"-0.01","3","50","29.69","FEW:02 80 SCT:04 130 BKN:07 180","29.39","10.00","64","200",,"7",,,,,,,,,,,,,,,,,,,,,,,,,,,,,,,,,,,,,"MET13106/19/21 18:51:02 METAR KALB 192351Z 20006KT 10SM FEW080 SCT130 BKN180 24/13 A2970 RMK AO2 SLP055 T02440133 10278 20244 53004 (MAK)","FM-15","7",,,,,,,,,,,,,,,,,,,,,,,,,,,,"2006-09-08"
"72518014735","2021-06-19T19:00:00","FM-12","4",,,,,"PRECIP","260",,"PLASTIC","42.6918","-73.83109","NWS ALBANY, NY",,,,,,,,,,,,,,,,,,,,,,,,,,,,"56","76",,,"-0.01","3","50","29.69","74","29.39","9.94","64","200",,"7",,,,,,,,,,,,,,,,,,,,,,,,,,,,,,,,,,,,,"SYN08072518 32866 62006 10244 20133 39951 40055 53004 92351 333 10278 20194 555 92000=","FM-12","4",,,,,,,,,,,,,,,,,,,,,,,,,,,,"2006-09-08"
"72518014735","2021-06-19T19:51:00","FM-15","7",,,,,"PRECIP","260",,"PLASTIC","42.6918","-73.83109","NWS ALBANY, NY",,,,,,,,,,,,,,,,,,,,,,,,,,,"29.72","60","68","T",,,,"76","29.72","SCT:04 70 SCT:04 110 BKN:07 170","29.41","10.00","63","200",,"9",,,,,,,,,,,,,,,,,,,,,,,,,,,,,,,,,,,,,"MET15406/19/21 19:51:01 METAR KALB 200051Z 20008KT 10SM SCT070CB SCT110 BKN170 20/16 A2972 RMK AO2 PK WND 20028/0014 RAB16E46 SLP063 CB SE MOV E P0000 T02000156","FM-15","7",,,,,,,,,,,,,,,,,,,,,,,,,,,,"2006-09-08"
"72518014735","2021-06-19T20:51:00","FM-15","7",,,,,"PRECIP","260",,"PLASTIC","42.6918","-73.83109","NWS ALBANY, NY",,,,,,,,,,,,,,,,,,,,,,,,,,,"29.75","57","71","T","-RA:02 |RA |RA",,,"61","29.74","FEW:02 60 SCT:04 75 BKN:07 110","29.44","10.00","63","190",,"10",,,,,,,,,,,,,,,,,,,,,,,,,,,,,,,,,,,,,"MET13706/19/21 20:51:01 METAR KALB 200151Z 19009KT 10SM -RA FEW060 SCT075CB BKN110 22/14 A2975 RMK AO2 RAB31 SLP071 CB NE MOV E P0000 T02170139","FM-15","7",,,,,,,,,,,,,,,,,,,,,,,,,,,,"2006-09-08"
"72518014735","2021-06-19T21:51:00","FM-15","7",,,,,"PRECIP","260",,"PLASTIC","42.6918","-73.83109","NWS ALBANY, NY",,,,,,,,,,,,,,,,,,,,,,,,,,,"29.76","58","68","T","-RA:02 |RA |RA","-0.06","1","70","29.75","FEW:02 80 BKN:07 100 OVC:08 120","29.45","10.00","62","210",,"8",,,,,,,,,,,,,,,,,,,,,,,,,,,,,,,,,,,,,"MET12906/19/21 21:51:02 METAR KALB 200251Z 21007KT 10SM -RA FEW080 BKN100 OVC120 20/14 A2976 RMK AO2 SLP076 P0000 60000 T02000144 51021","FM-15","7",,,,,,,,,,,,,,,,,,,,,,,,,,,,"2006-09-08"
"72518014735","2021-06-19T22:00:00","FM-12","4",,,,,"PRECIP","260",,"PLASTIC","42.6918","-73.83109","NWS ALBANY, NY",,,,,,,,,,,,,,,,,,,,,,,,,,,,"58","68",,"||RA","-0.06","1","70","29.75","74","29.44","9.94","62","210",,"8",,,,,,,,,,,,,,,,,,,,,,,,,,,,,,,,,,,,,"SYN07672518 11866 82107 10200 20144 39971 40076 51021 69907 761// 90251 555 92003=","FM-12","4",,,,,,,,,,,,,,,,,,,,,,,,,,,,"2006-09-08"
"72518014735","2021-06-19T22:51:00","FM-15","7",,,,,"PRECIP","260",,"PLASTIC","42.6918","-73.83109","NWS ALBANY, NY",,,,,,,,,,,,,,,,,,,,,,,,,,,"29.78","57","66","T",,,,"73","29.77","FEW:02 85 BKN:07 120 OVC:08 150","29.47","10.00","61","260",,"10",,,,,,,,,,,,,,,,,,,,,,,,,,,,,,,,,,,,,"MET11906/19/21 22:51:02 METAR KALB 200351Z 26009KT 10SM FEW085 BKN120 OVC150 19/14 A2978 RMK AO2 RAE44 SLP081 P0000 T01890139","FM-15","7",,,,,,,,,,,,,,,,,,,,,,,,,,,,"2006-09-08"
"72518014735","2021-06-19T23:51:00","FM-15","7",,,,,"PRECIP","260",,"PLASTIC","42.6918","-73.83109","NWS ALBANY, NY",,,,,,,,,,,,,,,,,,,,,,,,,,,"29.79","58","63","T","-RA:02 |RA |RA",,,"84","29.78","BKN:07 70 OVC:08 110","29.48","10.00","60","250",,"7",,,,,,,,,,,,,,,,,,,,,,,,,,,,,,,,,,,,,"MET12606/19/21 23:51:02 METAR KALB 200451Z 25006KT 10SM -RA BKN070 OVC110 17/14 A2979 RMK AO2 RAB39 SLP086 P0000 T01720144 402780172","FM-15","7",,,,,,,,,,,,,,,,,,,,,,,,,,,,"2006-09-08"
"72518014735","2021-06-19T23:59:00","SOD  ","6",,,,,"PRECIP","260",,"PLASTIC","42.6918","-73.83109","NWS ALBANY, NY",,,,,"73",,,"29.41",,"8.7","8","4.9","0","82","63","200","32","T","0","0.0","210","23","RA",,,,,,,,,,,,,,,,,,,,,,,,,,,,,,,,,,,,,,,,,,,,,,,,,,,,,,,,"SOD73624 HR PRECIPITATION (IN):    T SNOW DEPTH (IN):0     24 HR SNOWFALL (IN):0.0  24 HR MAX TEMP (F): 8224 HR MIN TEMP (F): 63AVERAGE STATION PRESSURE:29.405 MINIMUM SEA LEVEL PRESSURE:29.67 TIME OF OCCURRENCE:1716 PEAK WIND SPEED (MPH): 32 PEAK WIND DIR (DEG):200 PEAK WIND TIME (LST):      FASTEST 2MIN SPEED (MPH): 23FASTEST 2MIN DIR (DEG):210 FASTEST 2MIN TIME (LST):     AVERAGE WIND SPEED (MPH): 8.7 24 HR AVG TEMP (F): 73DEPART FROM NORMAL:  3  HEATING DEGREE DAYS:  0 COOLING DEGREE DAYS:  8 LATEST DAY MAX TEMP (0700-1900 LST):82  LATEST NIGHT MIN TEMP(1900-0800 LST):67 HOURLY INCREMENTAL PRECIPITATION VALUES (IN):.00 0.00 0.00 0.00 0.00 0.00 0.00 0.00 0.00 0.00 0.00 0.00 0.00 0.00 0.00 0.00 0.00 0.00 0.00 T    T    T    T    T","SOD  ","6",,,,,,,,,,,,,,,,,,,,,,,,,"0417","1936",,"2006-09-08"
"72518014735","2021-06-20T00:51:00","FM-15","7",,,,,"PRECIP","260",,"PLASTIC","42.6918","-73.83109","NWS ALBANY, NY",,,,,,,,,,,,,,,,,,,,,,,,,,,"29.78","60","62","T",,"-0.02","0","93","29.77","FEW:02 60 SCT:04 90 BKN:07 110","29.47","10.00","61","170",,"3",,,,,,,,,,,,,,,,,,,,,,,,,,,,,,,,,,,,,"MET14806/20/21 00:51:02 METAR KALB 200551Z 17003KT 10SM FEW060 SCT090 BKN110 17/16 A2978 RMK AO2 RAE47 SLP082 P0000 60000 T01670156 10244 20161 50006 (CL)","FM-15","7",,,,,,,,,,,,,,,,,,,,,,,,,,,,"2006-09-08"
"72518014735","2021-06-20T01:00:00","FM-12","4",,,,,"PRECIP","260",,"PLASTIC","42.6918","-73.83109","NWS ALBANY, NY",,,,,,,,,,,,,,,,,,,,,,,,,,,,"60","62",,,"0.02","9","93","29.77","57","29.47","9.94","61","170",,"3",,,,,,,,,,,,,,,,,,,,,,,,,,,,,,,,,,,,,"SYN08672518 12766 61703 10167 20156 39978 40082 50006 69901 90551 333 10244 20161 555 92006=","FM-12","4",,,,,,,,,,,,,,,,,,,,,,,,,,,,"2006-09-08"
"72518014735","2021-06-20T01:51:00","FM-15","7",,,,,"PRECIP","260",,"PLASTIC","42.6918","-73.83109","NWS ALBANY, NY",,,,,,,,,,,,,,,,,,,,,,,,,,,"29.77","60","62","0.00",,,,"93","29.76","OVC:08 120","29.46","10.00","61","140",,"5",,,,,,,,,,,,,,,,,,,,,,,,,,,,,,,,,,,,,"MET09806/20/21 01:51:02 METAR KALB 200651Z 14004KT 10SM OVC120 17/16 A2977 RMK AO2 SLP079 T01670156 (CL)","FM-15","7",,,,,,,,,,,,,,,,,,,,,,,,,,,,"2006-09-08"
"72518014735","2021-06-20T02:51:00","FM-15","7",,,,,"PRECIP","260",,"PLASTIC","42.6918","-73.83109","NWS ALBANY, NY",,,,,,,,,,,,,,,,,,,,,,,,,,,"29.78","60","60","0.00",,,,"100","29.77","BKN:07 100","29.47","10.00","60","000",,"0",,,,,,,,,,,,,,,,,,,,,,,,,,,,,,,,,,,,,"MET09806/20/21 02:51:02 METAR KALB 200751Z 00000KT 10SM BKN100 16/16 A2978 RMK AO2 SLP081 T01560156 (CL)","FM-15","7",,,,,,,,,,,,,,,,,,,,,,,,,,,,"2006-09-08"
"72518014735","2021-06-20T03:51:00","FM-15","7",,,,,"PRECIP","260",,"PLASTIC","42.6918","-73.83109","NWS ALBANY, NY",,,,,,,,,,,,,,,,,,,,,,,,,,,"29.79","60","60","0.00",,"-0.01","3","100","29.79","SCT:04 31 SCT:04 60 OVC:08 110","29.48","10.00","60","000",,"0",,,,,,,,,,,,,,,,,,,,,,,,,,,,,,,,,,,,,"MET11806/20/21 03:51:02 METAR KALB 200851Z 00000KT 10SM SCT031 SCT060 OVC110 16/16 A2979 RMK AO2 SLP087 T01560156 53005 (CL)","FM-15","7",,,,,,,,,,,,,,,,,,,,,,,,,,,,"2006-09-08"
"72518014735","2021-06-20T04:00:00","FM-12","4",,,,,"PRECIP","260",,"PLASTIC","42.6918","-73.83109","NWS ALBANY, NY",,,,,,,,,,,,,,,,,,,,,,,,,,,,"60","60",,,"-0.01","3","100","29.79","26","29.47","9.94","60","000",,"0",,,,,,,,,,,,,,,,,,,,,,,,,,,,,,,,,,,,,"SYN06472518 32566 80000 10156 20156 39981 40087 53005 90851 555 92009=","FM-12","4",,,,,,,,,,,,,,,,,,,,,,,,,,,,"2006-09-08"
"72518014735","2021-06-20T04:51:00","FM-15","7",,,,,"PRECIP","260",,"PLASTIC","42.6918","-73.83109","NWS ALBANY, NY",,,,,,,,,,,,,,,,,,,,,,,,,,,"29.80","60","60","0.00",,,,"100","29.79","SCT:04 60 SCT:04 110","29.49","10.00","60","000",,"0",,,,,,,,,,,,,,,,,,,,,,,,,,,,,,,,,,,,,"MET10706/20/21 04:51:02 METAR KALB 200951Z 00000KT 10SM SCT060 SCT110 16/16 A2980 RMK AO2 SLP089 T01560156 $ (CL)","FM-15","7",,,,,,,,,,,,,,,,,,,,,,,,,,,,"2006-09-08"
"72518014735","2021-06-20T05:51:00","FM-15","7",,,,,"PRECIP","260",,"PLASTIC","42.6918","-73.83109","NWS ALBANY, NY",,,,,,,,,,,,,,,,,,,,,,,,,,,"29.82","60","62","0.00",,,,"93","29.81","FEW:02 60","29.51","10.00","61","150",,"5",,,,,,,,,,,,,,,,,,,,,,,,,,,,,,,,,,,,,"MET10006/20/21 05:51:02 METAR KALB 201051Z 15004KT 10SM FEW060 17/16 A2982 RMK AO2 SLP096 T01670156 $ (CL)","FM-15","7",,,,,,,,,,,,,,,,,,,,,,,,,,,,"2006-09-08"
"72518014735","2021-06-20T06:51:00","FM-15","7",,,,,"PRECIP","260",,"PLASTIC","42.6918","-73.83109","NWS ALBANY, NY",,,,,,,,,,,,,,,,,,,,,,,,,,,"29.83","61","65","0.00",,"-0.04","3","87","29.83","FEW:02 100 FEW:02 250","29.52","10.00","63","190",,"5",,,,,,,,,,,,,,,,,,,,,,,,,,,,,,,,,,,,,"MET12606/20/21 06:51:02 METAR KALB 201151Z 19004KT 10SM FEW100 FEW250 18/16 A2983 RMK AO2 SLP100 T01830161 10183 20144 53013 $ (JDO)","FM-15","7",,,,,,,,,,,,,,,,,,,,,,,,,,,,"2006-09-08"
"72518014735","2021-06-20T07:00:00","FM-12","4",,,,,"PRECIP","260",,"PLASTIC","42.6918","-73.83109","NWS ALBANY, NY",,,,,,,,,,,,,,,,,,,,,,,,,,,,"61","65",,,"-0.04","3","87","29.83",,"29.52","9.94","63","190",,"5",,,,,,,,,,,,,,,,,,,,,,,,,,,,,,,,,,,,,"SYN08072518 32966 21904 10183 20161 39995 40100 53013 91151 333 10278 20144 555 92012=","FM-12","4",,,,,,,,,,,,,,,,,,,,,,,,,,,,"2006-09-08"
"72518014735","2021-06-20T07:51:00","FM-15","7",,,,,"PRECIP","260",,"PLASTIC","42.6918","-73.83109","NWS ALBANY, NY",,,,,,,,,,,,,,,,,,,,,,,,,,,"29.83","60","68","0.00",,,,"76","29.83","FEW:02 50 FEW:02 250","29.52","10.00","63","110",,"3",,,,,,,,,,,,,,,,,,,,,,,,,,,,,,,,,,,,,"MET10806/20/21 07:51:02 METAR KALB 201251Z 11003KT 10SM FEW050 FEW250 20/16 A2983 RMK AO2 SLP101 T02000156 $ (JDO)","FM-15","7",,,,,,,,,,,,,,,,,,,,,,,,,,,,"2006-09-08"
"72518014735","2021-06-20T08:51:00","FM-15","7",,,,,"PRECIP","260",,"PLASTIC","42.6918","-73.83109","NWS ALBANY, NY",,,,,,,,,,,,,,,,,,,,,,,,,,,"29.82","59","70","0.00",,,,"68","29.82","FEW:02 40 BKN:07 250","29.51","10.00","63","000",,"0",,,,,,,,,,,,,,,,,,,,,,,,,,,,,,,,,,,,,"MET10806/20/21 08:51:02 METAR KALB 201351Z 00000KT 10SM FEW040 BKN250 21/15 A2982 RMK AO2 SLP097 T02110150 $ (JDO)","FM-15","7",,,,,,,,,,,,,,,,,,,,,,,,,,,,"2006-09-08"
"72518014735","2021-06-20T09:51:00","FM-15","7",,,,,"PRECIP","260",,"PLASTIC","42.6918","-73.83109","NWS ALBANY, NY",,,,,,,,,,,,,,,,,,,,,,,,,,,"29.81","61","73","0.00",,"+0.02","8","66","29.80","FEW:02 40 BKN:07 250","29.50","10.00","66","000",,"0",,,,,,,,,,,,,,,,,,,,,,,,,,,,,,,,,,,,,"MET11406/20/21 09:51:02 METAR KALB 201451Z 00000KT 10SM FEW040 BKN250 23/16 A2981 RMK AO2 SLP093 T02280161 58007 $ (JDO)","FM-15","7",,,,,,,,,,,,,,,,,,,,,,,,,,,,"2006-09-08"
"72518014735","2021-06-20T10:00:00","FM-12","4",,,,,"PRECIP","260",,"PLASTIC","42.6918","-73.83109","NWS ALBANY, NY",,,,,,,,,,,,,,,,,,,,,,,,,,,,"61","73",,,"+0.02","8","66","29.80","41","29.49","9.94","66","000",,"0",,,,,,,,,,,,,,,,,,,,,,,,,,,,,,,,,,,,,"SYN06472518 32666 60000 10228 20161 39988 40093 58007 91451 555 92015=","FM-12","4",,,,,,,,,,,,,,,,,,,,,,,,,,,,"2006-09-08"
"72518014735","2021-06-20T10:51:00","FM-15","7",,,,,"PRECIP","260",,"PLASTIC","42.6918","-73.83109","NWS ALBANY, NY",,,,,,,,,,,,,,,,,,,,,,,,,,,"29.80","60","76","0.00",,,,"58","29.79","FEW:02 40 BKN:07 250","29.49","10.00","66","170",,"5",,,,,,,,,,,,,,,,,,,,,,,,,,,,,,,,,,,,,"MET10806/20/21 10:51:02 METAR KALB 201551Z 17004KT 10SM FEW040 BKN250 24/16 A2980 RMK AO2 SLP089 T02440156 $ (JDO)","FM-15","7",,,,,,,,,,,,,,,,,,,,,,,,,,,,"2006-09-08"
"72518014735","2021-06-20T11:51:00","FM-15","7",,,,,"PRECIP","260",,"PLASTIC","42.6918","-73.83109","NWS ALBANY, NY",,,,,,,,,,,,,,,,,,,,,,,,,,,"29.79","60","77","0.00",,,,"56","29.78","FEW:02 40 BKN:07 250","29.48","10.00","66","VRB",,"3",,,,,,,,,,,,,,,,,,,,,,,,,,,,,,,,,,,,,"MET10806/20/21 11:51:02 METAR KALB 201651Z VRB03KT 10SM FEW040 BKN250 25/16 A2979 RMK AO2 SLP085 T02500156 $ (JDO)","FM-15","7",,,,,,,,,,,,,,,,,,,,,,,,,,,,"2006-09-08"
"72518014735","2021-06-20T12:51:00","FM-15","7",,,,,"PRECIP","260",,"PLASTIC","42.6918","-73.83109","NWS ALBANY, NY",,,,,,,,,,,,,,,,,,,,,,,,,,,"29.76","61","79","0.00",,"+0.05","8","54","29.75","FEW:02 45 FEW:02 200 SCT:04 250","29.45","10.00","68","170",,"5",,,,,,,,,,,,,,,,,,,,,,,,,,,,,,,,,,,,,"MET13106/20/21 12:51:02 METAR KALB 201751Z 17004KT 10SM FEW045 FEW200 SCT250 26/16 A2976 RMK AO2 SLP075 T02610161 10267 20178 58018 (JDO)","FM-15","7",,,,,,,,,,,,,,,,,,,,,,,,,,,,"2006-09-08"
"72518014735","2021-06-20T13:00:00","FM-12","4",,,,,"PRECIP","260",,"PLASTIC","42.6918","-73.83109","NWS ALBANY, NY",,,,,,,,,,,,,,,,,,,,,,,,,,,,"61","79",,,"+0.05","8","54","29.75","41","29.44","9.94","68","170",,"5",,,,,,,,,,,,,,,,,,,,,,,,,,,,,,,,,,,,,"SYN08072518 32666 41704 10261 20161 39971 40075 58018 91751 333 10267 20178 555 92018=","FM-12","4",,,,,,,,,,,,,,,,,,,,,,,,,,,,"2006-09-08"
"72518014735","2021-06-20T13:51:00","FM-15","7",,,,,"PRECIP","260",,"PLASTIC","42.6918","-73.83109","NWS ALBANY, NY",,,,,,,,,,,,,,,,,,,,,,,,,,,"29.75","62","81","0.00",,,,"53","29.75","SCT:04 55 SCT:04 250","29.44","10.00","69","240",,"8",,,,,,,,,,,,,,,,,,,,,,,,,,,,,,,,,,,,,"MET10606/20/21 13:51:02 METAR KALB 201851Z 24007KT 10SM SCT055 SCT250 27/17 A2975 RMK AO2 SLP073 T02720167 (JDO)","FM-15","7",,,,,,,,,,,,,,,,,,,,,,,,,,,,"2006-09-08"
"72518014735","2021-06-20T14:51:00","FM-15","7",,,,,"PRECIP","260",,"PLASTIC","42.6918","-73.83109","NWS ALBANY, NY",,,,,,,,,,,,,,,,,,,,,,,,,,,"29.75","62","80","0.00",,,,"54","29.74","SCT:04 60 SCT:04 250","29.44","10.00","69","VRB",,"8",,,,,,,,,,,,,,,,,,,,,,,,,,,,,,,,,,,,,"MET10606/20/21 14:51:02 METAR KALB 201951Z 18007KT 10SM SCT060 SCT250 27/17 A2975 RMK AO2 SLP071 T02670167 (MAK)","FM-15","7",,,,,,,,,,,,,,,,,,,,,,,,,,,,"2006-09-08"
"72518014735","2021-06-20T15:51:00","FM-15","7",,,,,"PRECIP","260",,"PLASTIC","42.6918","-73.83109","NWS ALBANY, NY",,,,,,,,,,,,,,,,,,,,,,,,,,,"29.75","62","80","0.00",,"+0.01","5","54","29.74","SCT:04 80 SCT:04 250","29.44","10.00","69","180",,"9",,,,,,,,,,,,,,,,,,,,,,,,,,,,,,,,,,,,,"MET11206/20/21 15:51:02 METAR KALB 202051Z 18008KT 10SM SCT080 SCT250 27/17 A2975 RMK AO2 SLP072 T02670167 55003 (MAK)","FM-15","7",,,,,,,,,,,,,,,,,,,,,,,,,,,,"2006-09-08"
"72518014735","2021-06-20T16:00:00","FM-12","4",,,,,"PRECIP","260",,"PLASTIC","42.6918","-73.83109","NWS ALBANY, NY",,,,,,,,,,,,,,,,,,,,,,,,,,,,"62","80",,,"+0.01","5","54","29.74","74","29.44","9.94","69","180",,"9",,,,,,,,,,,,,,,,,,,,,,,,,,,,,,,,,,,,,"SYN06472518 32866 41808 10267 20167 39968 40072 55003 92051 555 92021=","FM-12","4",,,,,,,,,,,,,,,,,,,,,,,,,,,,"2006-09-08"
"72518014735","2021-06-20T16:51:00","FM-15","7",,,,,"PRECIP","260",,"PLASTIC","42.6918","-73.83109","NWS ALBANY, NY",,,,,,,,,,,,,,,,,,,,,,,,,,,"29.74","62","80","0.00",,,,"54","29.73","SCT:04 80 SCT:04 250","29.43","10.00","69","170",,"8",,,,,,,,,,,,,,,,,,,,,,,,,,,,,,,,,,,,,"MET10606/20/21 16:51:02 METAR KALB 202151Z 17007KT 10SM SCT080 SCT250 27/17 A2974 RMK AO2 SLP069 T02670167 (MAK)","FM-15","7",,,,,,,,,,,,,,,,,,,,,,,,,,,,"2006-09-08"
"72518014735","2021-06-20T17:51:00","FM-15","7",,,,,"PRECIP","260",,"PLASTIC","42.6918","-73.83109","NWS ALBANY, NY",,,,,,,,,,,,,,,,,,,,,,,,,,,"29.75","63","80","0.00",,,,"56","29.74","FEW:02 80 FEW:02 250","29.44","10.00","69","190",,"6",,,,,,,,,,,,,,,,,,,,,,,,,,,,,,,,,,,,,"MET10606/20/21 17:51:02 METAR KALB 202251Z 19005KT 10SM FEW080 FEW250 27/17 A2975 RMK AO2 SLP072 T02670172 (MAK)","FM-15","7",,,,,,,,,,,,,,,,,,,,,,,,,,,,"2006-09-08"
"72518014735","2021-06-20T18:51:00","FM-15","7",,,,,"PRECIP","260",,"PLASTIC","42.6918","-73.83109","NWS ALBANY, NY",,,,,,,,,,,,,,,,,,,,,,,,,,,"29.74","63","78","0.00",,"+0.01","6","60","29.74","FEW:02 80 FEW:02 250","29.43","10.00","68","180",,"5",,,,,,,,,,,,,,,,,,,,,,,,,,,,,,,,,,,,,"MET12406/20/21 18:51:02 METAR KALB 202351Z 18004KT 10SM FEW080 FEW250 26/17 A2974 RMK AO2 SLP070 T02560172 10278 20256 56002 (MAK)","FM-15","7",,,,,,,,,,,,,,,,,,,,,,,,,,,,"2006-09-08"
"72518014735","2021-06-20T19:00:00","FM-12","4",,,,,"PRECIP","260",,"PLASTIC","42.6918","-73.83109","NWS ALBANY, NY",,,,,,,,,,,,,,,,,,,,,,,,,,,,"63","78",,,"+0.01","6","60","29.74","74","29.43","9.94","68","180",,"5",,,,,,,,,,,,,,,,,,,,,,,,,,,,,,,,,,,,,"SYN08072518 32866 21804 10256 20172 39965 40070 56002 92351 333 10278 20144 555 92100=","FM-12","4",,,,,,,,,,,,,,,,,,,,,,,,,,,,"2006-09-08"
"72518014735","2021-06-20T19:51:00","FM-15","7",,,,,"PRECIP","260",,"PLASTIC","42.6918","-73.83109","NWS ALBANY, NY",,,,,,,,,,,,,,,,,,,,,,,,,,,"29.74","64","77","0.00",,,,"64","29.74","FEW:02 80 SCT:04 250","29.43","10.00","69","140",,"3",,,,,,,,,,,,,,,,,,,,,,,,,,,,,,,,,,,,,"MET10006/20/21 19:51:01 METAR KALB 210051Z 14003KT 10SM FEW080 SCT250 25/18 A2974 RMK AO2 SLP071 T02500178","FM-15","7",,,,,,,,,,,,,,,,,,,,,,,,,,,,"2006-09-08"
"72518014735","2021-06-20T20:51:00","FM-15","7",,,,,"PRECIP","260",,"PLASTIC","42.6918","-73.83109","NWS ALBANY, NY",,,,,,,,,,,,,,,,,,,,,,,,,,,"29.76","65","73","0.00",,,,"76","29.76","FEW:02 80 FEW:02 240","29.45","10.00","68","190",,"3",,,,,,,,,,,,,,,,,,,,,,,,,,,,,,,,,,,,,"MET10006/20/21 20:51:01 METAR KALB 210151Z 19003KT 10SM FEW080 FEW240 23/18 A2976 RMK AO2 SLP077 T02280183","FM-15","7",,,,,,,,,,,,,,,,,,,,,,,,,,,,"2006-09-08"
"72518014735","2021-06-20T21:51:00","FM-15","7",,,,,"PRECIP","260",,"PLASTIC","42.6918","-73.83109","NWS ALBANY, NY",,,,,,,,,,,,,,,,,,,,,,,,,,,"29.75","65","71","0.00",,"-0.01","0","81","29.75","FEW:02 240","29.44","10.00","67","000",,"0",,,,,,,,,,,,,,,,,,,,,,,,,,,,,,,,,,,,,"MET09906/20/21 21:51:02 METAR KALB 210251Z 00000KT 10SM FEW240 22/18 A2975 RMK AO2 SLP074 T02170183 50004","FM-15","7",,,,,,,,,,,,,,,,,,,,,,,,,,,,"2006-09-08"
"72518014735","2021-06-20T22:00:00","FM-12","4",,,,,"PRECIP","260",,"PLASTIC","42.6918","-73.83109","NWS ALBANY, NY",,,,,,,,,,,,,,,,,,,,,,,,,,,,"65","71",,,"0.01","9","81","29.75",,"29.44","9.94","67","000",,"0",,,,,,,,,,,,,,,,,,,,,,,,,,,,,,,,,,,,,"SYN06472518 32966 20000 10217 20183 39968 40074 50004 90251 555 92103=","FM-12","4",,,,,,,,,,,,,,,,,,,,,,,,,,,,"2006-09-08"
"72518014735","2021-06-20T22:51:00","FM-15","7",,,,,"PRECIP","260",,"PLASTIC","42.6918","-73.83109","NWS ALBANY, NY",,,,,,,,,,,,,,,,,,,,,,,,,,,"29.75","67","73","0.00",,,,"81","29.74","BKN:07 95","29.44","10.00","69","150",,"7",,,,,,,,,,,,,,,,,,,,,,,,,,,,,,,,,,,,,"MET09306/20/21 22:51:02 METAR KALB 210351Z 15006KT 10SM BKN095 23/19 A2975 RMK AO2 SLP072 T02280194","FM-15","7",,,,,,,,,,,,,,,,,,,,,,,,,,,,"2006-09-08"
"72518014735","2021-06-20T23:51:00","FM-15","7",,,,,"PRECIP","260",,"PLASTIC","42.6918","-73.83109","NWS ALBANY, NY",,,,,,,,,,,,,,,,,,,,,,,,,,,"29.73","67","73","0.00",,,,"81","29.72","FEW:02 70 OVC:08 100","29.42","10.00","69","160",,"9",,,,,,,,,,,,,,,,,,,,,,,,,,,,,,,,,,,,,"MET13006/20/21 23:51:02 METAR KALB 210451Z 16008KT 10SM FEW070 OVC100 23/19 A2973 RMK AO2 SLP066 CB DSNT W-NW MOV NE T02280194 402780144","FM-15","7",,,,,,,,,,,,,,,,,,,,,,,,,,,,"2006-09-08"
"72518014735","2021-06-20T23:59:00","SOD  ","6",,,,,"PRECIP","260",,"PLASTIC","42.6918","-73.83109","NWS ALBANY, NY",,,,,"70",,,"29.46",,"4.1","5","1.7","0","82","58","200","16","T","0","0.0","180","13",,,,,,,,,,,,,,,,,,,,,,,,,,,,,,,,,,,,,,,,,,,,,,,,,,,,,,,,,"SOD73924 HR PRECIPITATION (IN):    T SNOW DEPTH (IN):0     24 HR SNOWFALL (IN):0.0  24 HR MAX TEMP (F): 8224 HR MIN TEMP (F): 58AVERAGE STATION PRESSURE:29.460 MINIMUM SEA LEVEL PRESSURE:29.72 TIME OF OCCURRENCE:2359 PEAK WIND SPEED (MPH): 16 PEAK WIND DIR (DEG):200 PEAK WIND TIME (LST):      FASTEST 2MIN SPEED (MPH): 13FASTEST 2MIN DIR (DEG):180 FASTEST 2MIN TIME (LST):     AVERAGE WIND SPEED (MPH): 4.1 24 HR AVG TEMP (F): 70DEPART FROM NORMAL:  0  HEATING DEGREE DAYS:  0 COOLING DEGREE DAYS:  5 LATEST DAY MAX TEMP (0700-1900 LST):82  LATEST NIGHT MIN TEMP(1900-0800 LST):58 HOURLY INCREMENTAL PRECIPITATION VALUES (IN):    0.00 0.00 0.00 0.00 0.00 0.00 0.00 0.00 0.00 0.00 0.00 0.00 0.00 0.00 0.00 0.00 0.00 0.00 0.00 0.00 0.00 0.00 0.00","SOD  ","6",,,,,,,,,,,,,,,,,,,,,,,,,"0417","1937",,"2006-09-08"
"72518014735","2021-06-21T00:51:00","FM-15","7",,,,,"PRECIP","260",,"PLASTIC","42.6918","-73.83109","NWS ALBANY, NY",,,,,,,,,,,,,,,,,,,,,,,,,,,"29.72","68","73","0.00",,"+0.04","8","84","29.71","FEW:02 60 OVC:08 80","29.41","10.00","70","160",,"9",,,,,,,,,,,,,,,,,,,,,,,,,,,,,,,,,,,,,"MET16906/21/21 00:51:02 METAR KALB 210551Z 16008KT 10SM FEW060 OVC080 23/20 A2972 RMK AO2 LTG DSNT N SLP062 OCNL LTGIC DSNT N CB DSNT N MOV NE T02280200 10256 20211 58012 (BA)","FM-15","7",,,,,,,,,,,,,,,,,,,,,,,,,,,,"2006-09-08"
"72518014735","2021-06-21T01:00:00","FM-12","4",,,,,"PRECIP","260",,"PLASTIC","42.6918","-73.83109","NWS ALBANY, NY",,,,,,,,,,,,,,,,,,,,,,,,,,,,"68","73",,,"+0.04","8","84","29.71","57","29.41","9.94","70","160",,"9",,,,,,,,,,,,,,,,,,,,,,,,,,,,,,,,,,,,,"SYN08072518 32766 81608 10228 20200 39958 40062 58012 90551 333 10256 20144 555 92106=","FM-12","4",,,,,,,,,,,,,,,,,,,,,,,,,,,,"2006-09-08"
"72518014735","2021-06-21T01:51:00","FM-15","7",,,,,"PRECIP","260",,"PLASTIC","42.6918","-73.83109","NWS ALBANY, NY",,,,,,,,,,,,,,,,,,,,,,,,,,,"29.71","68","71","0.00",,,,"90","29.70","FEW:02 80 FEW:02 120 BKN:07 250","29.40","10.00","69","170",,"7",,,,,,,,,,,,,,,,,,,,,,,,,,,,,,,,,,,,,"MET11206/21/21 01:51:02 METAR KALB 210651Z 17006KT 10SM FEW080 FEW120 BKN250 22/20 A2971 RMK AO2 SLP059 T02170200 (BA)","FM-15","7",,,,,,,,,,,,,,,,,,,,,,,,,,,,"2006-09-08"
"72518014735","2021-06-21T02:51:00","FM-15","7",,,,,"PRECIP","260",,"PLASTIC","42.6918","-73.83109","NWS ALBANY, NY",,,,,,,,,,,,,,,,,,,,,,,,,,,"29.71","68","70","0.00",,,,"93","29.70","SCT:04 250","29.40","10.00","69","170",,"6",,,,,,,,,,,,,,,,,,,,,,,,,,,,,,,,,,,,,"MET09806/21/21 02:51:02 METAR KALB 210751Z 17005KT 10SM SCT250 21/20 A2971 RMK AO2 SLP058 T02110200 (BA)","FM-15","7",,,,,,,,,,,,,,,,,,,,,,,,,,,,"2006-09-08"
"72518014735","2021-06-21T03:51:00","FM-15","7",,,,,"PRECIP","260",,"PLASTIC","42.6918","-73.83109","NWS ALBANY, NY",,,,,,,,,,,,,,,,,,,,,,,,,,,"29.69","68","71","0.00",,"+0.02","8","90","29.69","FEW:02 80 FEW:02 120 BKN:07 250","29.38","10.00","69","160",,"7",,,,,,,,,,,,,,,,,,,,,,,,,,,,,,,,,,,,,"MET11806/21/21 03:51:02 METAR KALB 210851Z 16006KT 10SM FEW080 FEW120 BKN250 22/20 A2969 RMK AO2 SLP053 T02170200 58008 (BA)","FM-15","7",,,,,,,,,,,,,,,,,,,,,,,,,,,,"2006-09-08"
"72518014735","2021-06-21T04:00:00","FM-12","4",,,,,"PRECIP","260",,"PLASTIC","42.6918","-73.83109","NWS ALBANY, NY",,,,,,,,,,,,,,,,,,,,,,,,,,,,"68","71",,,"+0.02","8","90","29.69","74","29.38","9.94","69","160",,"7",,,,,,,,,,,,,,,,,,,,,,,,,,,,,,,,,,,,,"SYN06472518 32866 61606 10217 20200 39948 40053 58008 90851 555 92109=","FM-12","4",,,,,,,,,,,,,,,,,,,,,,,,,,,,"2006-09-08"
"72518014735","2021-06-21T04:51:00","FM-15","7",,,,,"PRECIP","260",,"PLASTIC","42.6918","-73.83109","NWS ALBANY, NY",,,,,,,,,,,,,,,,,,,,,,,,,,,"29.69","68","71","0.00",,,,"90","29.68","FEW:02 80 SCT:04 120 BKN:07 250","29.38","10.00","69","160",,"10",,,,,,,,,,,,,,,,,,,,,,,,,,,,,,,,,,,,,"MET11206/21/21 04:51:02 METAR KALB 210951Z 16009KT 10SM FEW080 SCT120 BKN250 22/20 A2969 RMK AO2 SLP052 T02170200 (BA)","FM-15","7",,,,,,,,,,,,,,,,,,,,,,,,,,,,"2006-09-08"
"72518014735","2021-06-21T05:51:00","FM-15","7",,,,,"PRECIP","260",,"PLASTIC","42.6918","-73.83109","NWS ALBANY, NY",,,,,,,,,,,,,,,,,,,,,,,,,,,"29.69","68","72","0.00",,,,"87","29.69","FEW:02 120 BKN:07 250","29.38","10.00","69","160",,"11",,,,,,,,,,,,,,,,,,,,,,,,,,,,,,,,,,,,,"MET10506/21/21 05:51:02 METAR KALB 211051Z 16010KT 10SM FEW120 BKN250 22/20 A2969 RMK AO2 SLP053 T02220200 (BA)","FM-15","7",,,,,,,,,,,,,,,,,,,,,,,,,,,,"2006-09-08"
"72518014735","2021-06-21T06:51:00","FM-15","7",,,,,"PRECIP","260",,"PLASTIC","42.6918","-73.83109","NWS ALBANY, NY",,,,,,,,,,,,,,,,,,,,,,,,,,,"29.69","69","73","0.00",,"+0.00","8","87","29.68","FEW:02 120 FEW:02 180 BKN:07 250","29.38","10.00","70","160",,"13",,,,,,,,,,,,,,,,,,,,,,,,,,,,,,,,,,,,,"MET13006/21/21 06:51:02 METAR KALB 211151Z 16011KT 10SM FEW120 FEW180 BKN250 23/21 A2969 RMK AO2 SLP052 T02280206 10228 20211 58001 (CL)","FM-15","7",,,,,,,,,,,,,,,,,,,,,,,,,,,,"2006-09-08"
"72518014735","2021-06-21T07:00:00","FM-12","4",,,,,"PRECIP","260",,"PLASTIC","42.6918","-73.83109","NWS ALBANY, NY",,,,,,,,,,,,,,,,,,,,,,,,,,,,"69","73",,,"+0.00","8","87","29.68",,"29.38","9.94","70","160",,"13",,,,,,,,,,,,,,,,,,,,,,,,,,,,,,,,,,,,,"SYN08072518 32966 61611 10228 20206 39948 40052 58001 91151 333 10278 20211 555 92112=","FM-12","4",,,,,,,,,,,,,,,,,,,,,,,,,,,,"2006-09-08"
"72518014735","2021-06-21T07:51:00","FM-15","7",,,,,"PRECIP","260",,"PLASTIC","42.6918","-73.83109","NWS ALBANY, NY",,,,,,,,,,,,,,,,,,,,,,,,,,,"29.68","70","75","0.00",,,,"84","29.67","FEW:02 45 SCT:04 100 BKN:07 200","29.37","10.00","72","160",,"16",,,,,,,,,,,,,,,,,,,,,,,,,,,,,,,,,,,,,"MET11206/21/21 07:51:02 METAR KALB 211251Z 16014KT 10SM FEW045 SCT100 BKN200 24/21 A2968 RMK AO2 SLP047 T02390211 (CL)","FM-15","7",,,,,,,,,,,,,,,,,,,,,,,,,,,,"2006-09-08"
"72518014735","2021-06-21T08:51:00","FM-15","7",,,,,"PRECIP","260",,"PLASTIC","42.6918","-73.83109","NWS ALBANY, NY",,,,,,,,,,,,,,,,,,,,,,,,,,,"29.67","71","79","0.00",,,,"77","29.67","FEW:02 45 SCT:04 100 BKN:07 200","29.36","10.00","74","180","25","14",,,,,,,,,,,,,,,,,,,,,,,,,,,,,,,,,,,,,"MET11506/21/21 08:51:02 METAR KALB 211351Z 18012G22KT 10SM FEW045 SCT100 BKN200 26/22 A2967 RMK AO2 SLP046 T02610217 (CL)","FM-15","7",,,,,,,,,,,,,,,,,,,,,,,,,,,,"2006-09-08"
"72518014735","2021-06-21T09:51:00","FM-15","7",,,,,"PRECIP","260",,"PLASTIC","42.6918","-73.83109","NWS ALBANY, NY",,,,,,,,,,,,,,,,,,,,,,,,,,,"29.64","70","81","0.00",,"+0.05","8","69","29.63","FEW:02 41 SCT:04 95 BKN:07 250","29.33","10.00","74","170",,"15",,,,,,,,,,,,,,,,,,,,,,,,,,,,,,,,,,,,,"MET11806/21/21 09:51:02 METAR KALB 211451Z 17013KT 10SM FEW041 SCT095 BKN250 27/21 A2964 RMK AO2 SLP035 T02720211 58017 (CL)","FM-15","7",,,,,,,,,,,,,,,,,,,,,,,,,,,,"2006-09-08"
"72518014735","2021-06-21T10:00:00","FM-12","4",,,,,"PRECIP","260",,"PLASTIC","42.6918","-73.83109","NWS ALBANY, NY",,,,,,,,,,,,,,,,,,,,,,,,,,,,"70","81",,,"+0.05","8","69","29.63","41","29.33","9.94","74","170",,"15",,,,,,,,,,,,,,,,,,,,,,,,,,,,,,,,,,,,,"SYN06472518 32666 61713 10272 20211 39931 40035 58017 91451 555 92115=","FM-12","4",,,,,,,,,,,,,,,,,,,,,,,,,,,,"2006-09-08"
"72518014735","2021-06-21T10:51:00","FM-15","7",,,,,"PRECIP","260",,"PLASTIC","42.6918","-73.83109","NWS ALBANY, NY",,,,,,,,,,,,,,,,,,,,,,,,,,,"29.62","70","83","0.00",,,,"65","29.61","SCT:04 70 BKN:07 250","29.31","10.00","74","170","30","16",,,,,,,,,,,,,,,,,,,,,,,,,,,,,,,,,,,,,"MET12606/21/21 10:51:02 METAR KALB 211551Z 17014G26KT 10SM SCT070 BKN250 28/21 A2962 RMK AO2 PK WND 18026/1542 SLP027 T02830211 (CL)","FM-15","7",,,,,,,,,,,,,,,,,,,,,,,,,,,,"2006-09-08"
"72518014735","2021-06-21T11:51:00","FM-15","7",,,,,"PRECIP","260",,"PLASTIC","42.6918","-73.83109","NWS ALBANY, NY",,,,,,,,,,,,,,,,,,,,,,,,,,,"29.60","70","85","0.00",,,,"61","29.59","SCT:04 85 SCT:04 200","29.29","10.00","75","160","29","21",,,,,,,,,,,,,,,,,,,,,,,,,,,,,,,,,,,,,"MET12606/21/21 11:51:02 METAR KALB 211651Z 16018G25KT 10SM SCT085 SCT200 29/21 A2960 RMK AO2 PK WND 16029/1625 SLP020 T02940211 (CL)","FM-15","7",,,,,,,,,,,,,,,,,,,,,,,,,,,,"2006-09-08"
"72518014735","2021-06-21T12:51:00","FM-15","7",,,,,"PRECIP","260",,"PLASTIC","42.6918","-73.83109","NWS ALBANY, NY",,,,,,,,,,,,,,,,,,,,,,,,,,,"29.58","70","86","0.00",,"+0.06","6","59","29.57","FEW:02 43 SCT:04 85 SCT:04 200","29.27","10.00","75","160","33","17",,,,,,,,,,,,,,,,,,,,,,,,,,,,,,,,,,,,,"MET15106/21/21 12:51:02 METAR KALB 211751Z 16015G29KT 10SM FEW043 SCT085 SCT200 30/21 A2958 RMK AO2 PK WND 18029/1746 SLP014 T03000211 10300 20228 56020 (CL)","FM-15","7",,,,,,,,,,,,,,,,,,,,,,,,,,,,"2006-09-08"
"72518014735","2021-06-21T13:00:00","FM-12","4",,,,,"PRECIP","260",,"PLASTIC","42.6918","-73.83109","NWS ALBANY, NY",,,,,,,,,,,,,,,,,,,,,,,,,,,,"70","86",,,"+0.06","6","59","29.57","41","29.27","9.94","75","160",,"17",,,,,,,,,,,,,,,,,,,,,,,,,,,,,,,,,,,,,"SYN08672518 32666 41615 10300 20211 39911 40014 56020 91751 333 10300 20228 91029 555 92118=","FM-12","4",,,,,,,,,,,,,,,,,,,,,,,,,,,,"2006-09-08"
"72518014735","2021-06-21T13:51:00","FM-15","7",,,,,"PRECIP","260",,"PLASTIC","42.6918","-73.83109","NWS ALBANY, NY",,,,,,,,,,,,,,,,,,,,,,,,,,,"29.55","70","86","0.00",,,,"59","29.54","SCT:04 43 SCT:04 65 SCT:04 200","29.24","10.00","75","150","31","22",,,,,,,,,,,,,,,,,,,,,,,,,,,,,,,,,,,,,"MET13306/21/21 13:51:02 METAR KALB 211851Z 15019G27KT 10SM SCT043 SCT065 SCT200 30/21 A2955 RMK AO2 PK WND 15027/1850 SLP002 T03000211 (CL)","FM-15","7",,,,,,,,,,,,,,,,,,,,,,,,,,,,"2006-09-08"
"72518014735","2021-06-21T14:51:00","FM-15","7",,,,,"PRECIP","260",,"PLASTIC","42.6918","-73.83109","NWS ALBANY, NY",,,,,,,,,,,,,,,,,,,,,,,,,,,"29.52","70","86","0.00",,,,"59","29.51","FEW:02 43 FEW:02 65 FEW:02 200","29.21","10.00","75","160","36","18",,,,,,,,,,,,,,,,,,,,,,,,,,,,,,,,,,,,,"MET15206/21/21 14:51:02 METAR KALB 211951Z 16016G31KT 10SM FEW043 FEW065 FEW200 30/21 A2952 RMK AO2 PK WND 13031/1942 SLP994 CB DSNT NW MOV NE T03000211 (MAK)","FM-15","7",,,,,,,,,,,,,,,,,,,,,,,,,,,,"2006-09-08"
"72518014735","2021-06-21T15:51:00","FM-15","7",,,,,"PRECIP","260",,"PLASTIC","42.6918","-73.83109","NWS ALBANY, NY",,,,,,,,,,,,,,,,,,,,,,,,,,,"29.52","70","85","0.00",,"+0.06","5","61","29.52","FEW:02 40 FEW:02 65 SCT:04 200","29.21","10.00","75","160","30","20",,,,,,,,,,,,,,,,,,,,,,,,,,,,,,,,,,,,,"MET15706/21/21 15:51:02 METAR KALB 212051Z 16017G26KT 10SM FEW040 FEW065 SCT200 29/21 A2952 RMK AO2 PK WND 15029/2037 SLP996 CB DSNT N MOV NE T02940211 55019 (MAK)","FM-15","7",,,,,,,,,,,,,,,,,,,,,,,,,,,,"2006-09-08"
"72518014735","2021-06-21T16:00:00","FM-12","4",,,,,"PRECIP","260",,"PLASTIC","42.6918","-73.83109","NWS ALBANY, NY",,,,,,,,,,,,,,,,,,,,,,,,,,,,"70","85",,,"+0.06","5","61","29.52","41","29.21","9.94","75","160",,"20",,,,,,,,,,,,,,,,,,,,,,,,,,,,,,,,,,,,,"SYN07472518 32666 41617 10294 20211 39891 49996 55019 92051 333 91026 555 92121=","FM-12","4",,,,,,,,,,,,,,,,,,,,,,,,,,,,"2006-09-08"
"72518014735","2021-06-21T16:51:00","FM-15","7",,,,,"PRECIP","260",,"PLASTIC","42.6918","-73.83109","NWS ALBANY, NY",,,,,,,,,,,,,,,,,,,,,,,,,,,"29.50","69","84","0.00",,,,"61","29.49","FEW:02 40 FEW:02 65 SCT:04 200","29.19","10.00","74","150","28","20",,,,,,,,,,,,,,,,,,,,,,,,,,,,,,,,,,,,,"MET15106/21/21 16:51:02 METAR KALB 212151Z 15017G24KT 10SM FEW040 FEW065 SCT200 29/21 A2950 RMK AO2 PK WND 16029/2052 SLP987 CB DSNT NE MOV E T02890206 (MAK)","FM-15","7",,,,,,,,,,,,,,,,,,,,,,,,,,,,"2006-09-08"
"72518014735","2021-06-21T17:51:00","FM-15","7",,,,,"PRECIP","260",,"PLASTIC","42.6918","-73.83109","NWS ALBANY, NY",,,,,,,,,,,,,,,,,,,,,,,,,,,"29.51","69","83","0.00",,,,"63","29.50","FEW:02 40 FEW:02 65 BKN:07 170","29.20","10.00","73","160","25","14",,,,,,,,,,,,,,,,,,,,,,,,,,,,,,,,,,,,,"MET13406/21/21 17:51:02 METAR KALB 212251Z 16012G22KT 10SM FEW040 FEW065 BKN170 28/21 A2951 RMK AO2 PK WND 14026/2153 SLP990 T02830206 (MAK)","FM-15","7",,,,,,,,,,,,,,,,,,,,,,,,,,,,"2006-09-08"
"72518014735","2021-06-21T18:51:00","FM-15","7",,,,,"PRECIP","260",,"PLASTIC","42.6918","-73.83109","NWS ALBANY, NY",,,,,,,,,,,,,,,,,,,,,,,,,,,"29.51","70","82","0.00",,"+0.01","5","67","29.51","FEW:02 40 FEW:02 65 SCT:04 110","29.20","10.00","74","150",,"13",,,,,,,,,,,,,,,,,,,,,,,,,,,,,,,,,,,,,"MET13106/21/21 18:51:02 METAR KALB 212351Z 15011KT 10SM FEW040 FEW065 SCT110 28/21 A2951 RMK AO2 SLP992 T02780211 10300 20278 55003 (MAK)","FM-15","7",,,,,,,,,,,,,,,,,,,,,,,,,,,,"2006-09-08"
"72518014735","2021-06-21T19:00:00","FM-12","4",,,,,"PRECIP","260",,"PLASTIC","42.6918","-73.83109","NWS ALBANY, NY",,,,,,,,,,,,,,,,,,,,,,,,,,,,"70","82",,,"+0.01","5","67","29.51","41","29.20","9.94","74","150",,"13",,,,,,,,,,,,,,,,,,,,,,,,,,,,,,,,,,,,,"SYN08072518 32666 61511 10278 20211 39887 49992 55003 92351 333 10300 20211 555 92200=","FM-12","4",,,,,,,,,,,,,,,,,,,,,,,,,,,,"2006-09-08"
"72518014735","2021-06-21T19:51:00","FM-15","7",,,,,"PRECIP","260",,"PLASTIC","42.6918","-73.83109","NWS ALBANY, NY",,,,,,,,,,,,,,,,,,,,,,,,,,,"29.51","70","81","0.00",,,,"69","29.51","FEW:02 45 FEW:02 75 SCT:04 110","29.20","10.00","74","160","24","11",,,,,,,,,,,,,,,,,,,,,,,,,,,,,,,,,,,,,"MET12306/21/21 19:51:01 METAR KALB 220051Z 16010G21KT 10SM FEW045 FEW075 SCT110 27/21 A2951 RMK AO2 LTG DSNT W-N SLP992 T02720211","FM-15","7",,,,,,,,,,,,,,,,,,,,,,,,,,,,"2006-09-08"
"72518014735","2021-06-21T20:10:00","FM-16","7",,,,,"PRECIP","260",,"PLASTIC","42.6918","-73.83109","NWS ALBANY, NY",,,,,,,,,,,,,,,,,,,,,,,,,,,"29.51","70","81","T","|TS |RA",,,"69",,"FEW:02s 45s SCT:04s 65s","29.20","10.00","74","160","24","16",,,,,,,,,,,,,,,,,,,,,,,,,,,,,,,,,,,,,"MET17706/21/21 20:10:01 SPECI KALB 220110Z 16014G21KT 10SM -TSRA FEW045 SCT065CB SCT0 27/21 A2951 RMK AO2 LTG DSNT SW-N RAB04 TSB10 FRQ LTGICCG VC W-N TS VC W-N MOV NE P0000 T02720211","FM-16","7",,,,,,,,,,,,,,,,,,,,,,,,,,,,"2006-09-08"
"72518014735","2021-06-21T20:34:00","FM-16","7",,,,,"PRECIP","260",,"PLASTIC","42.6918","-73.83109","NWS ALBANY, NY",,,,,,,,,,,,,,,,,,,,,,,,,,,"29.59","70","76","T","|TS |RA",,,"82",,"FEW:02s 35s SCT:04s 60s","29.28","2.00","72","230","45","28",,,,,,,,,,,,,,,,,,,,,,,,,,,,,,,,,,,,,"MET22306/21/21 20:34:01 SPECI KALB 220134Z 23024G39KT 2SM R01/4500VP6000FT -TSRA BR FEW035 SCT060CB SCT0 24/21 A2959 RMK AO2 PK WND 24039/0132 LTG DSNT SW-N RAB04 TSB10 PRESRR FRQ LTGICCG N-OHD-S TS N-OHD-S MOV NE P0000 T02440211","FM-16","7",,,,,,,,,,,,,,,,,,,,,,,,,,,,"2006-09-08"
"72518014735","2021-06-21T20:44:00","FM-16","7",,,,,"PRECIP","260",,"PLASTIC","42.6918","-73.83109","NWS ALBANY, NY",,,,,,,,,,,,,,,,,,,,,,,,,,,"29.58","68","70","0.15","TS:7 +RA:02 BR:1 |RA TS |RA",,,"93",,"FEW:02 19 BKN:07 50 OVC:08 90","29.27","0.75","69","230","33","15",,,,,,,,,,,,,,,,,,,,,,,,,,,,,,,,,,,,,"MET22906/21/21 20:44:01 SPECI KALB 220144Z 23013G29KT 3/4SM R01/P6000FT +TSRA BR FEW019 BKN050CB OVC090 21/20 A2958 RMK AO2 PK WND 24039/0132 WSHFT 0124 LTG DSNT ALQDS RAB04 TSB10 FRQ LTGICCG ALQDS TS ALQDS MOV NE P0015 T02110200     )","FM-16","7",,,,,,,,,,,,,,,,,,,,,,,,,,,,"2006-09-08"
"72518014735","2021-06-21T20:51:00","FM-15","7",,,,,"PRECIP","260",,"PLASTIC","42.6918","-73.83109","NWS ALBANY, NY",,,,,,,,,,,,,,,,,,,,,,,,,,,"29.57","*","*","0.15","TS:7 -RA:02 BR:1 |RA TS |RA",,,"*","29.56","SCT:04 25 SCT:04 55 OVC:08 90","29.26","4.00","*","230","25","10",,,,,,,,,,,,,,,,,,,,,,,,,,,,,,,,,,,,,"MET22706/21/21 20:51:01 METAR KALB 220151Z 23009G22KT 4SM -TSRA BR SCT025 SCT055CB OVC090 21/20 A2957 RMK AO2 PK WND 24039/0132 WSHFT 0124 LTG DSNT ALQDS RAB04 TSB10 SLP011 CONS LTGICCG VC NE-SE-S TS VC NE-SE-S MOV NE P0015 T02110200","FM-15","7",,,,,,,,,,,,,,,,,,,,,,,,,,,,"2006-09-08"
"72518014735","2021-06-21T21:51:00","FM-15","7",,,,,"PRECIP","260",,"PLASTIC","42.6918","-73.83109","NWS ALBANY, NY",,,,,,,,,,,,,,,,,,,,,,,,,,,"29.61","69","69","0.03","TS:7 |TS TS |","-0.10","3","100","29.60","FEW:02 25 SCT:04 70 OVC:08 90","29.30","10.00","69","120",,"3",,,,,,,,,,,,,,,,,,,,,,,,,,,,,,,,,,,,,"MET19306/21/21 21:51:02 METAR KALB 220251Z 12003KT 10SM TS FEW025 SCT070 OVC090 21/21 A2961 RMK AO2 LTG DSNT NE-SE RAE49 SLP025 FRQ LTGICCG DSNT NE-SE TS DSNT NE-SE MOV NE P0003 60018 T02060206 53033","FM-15","7",,,,,,,,,,,,,,,,,,,,,,,,,,,,"2006-09-08"
"72518014735","2021-06-21T21:56:00","FM-16","7",,,,,"PRECIP","260",,"PLASTIC","42.6918","-73.83109","NWS ALBANY, NY",,,,,,,,,,,,,,,,,,,,,,,,,,,"29.61","69","69",,,,,"100",,"FEW:02 25 SCT:04 70 OVC:08 90","29.30","10.00","69","120",,"3",,,,,,,,,,,,,,,,,,,,,,,,,,,,,,,,,,,,,"MET16506/21/21 21:56:02 SPECI KALB 220256Z 12003KT 10SM FEW025 SCT070 OVC090 21/21 A2961 RMK AO2 LTG DSNT NE-SE TSE56 FRQ LTGICCG DSNT NE-SE CB DSNT NE-SE MOV NE T02060206","FM-16","7",,,,,,,,,,,,,,,,,,,,,,,,,,,,"2006-09-08"
"72518014735","2021-06-21T22:00:00","FM-12","4",,,,,"PRECIP","260",,"PLASTIC","42.6918","-73.83109","NWS ALBANY, NY",,,,,,,,,,,,,,,,,,,,,,,,,,,,"69","69",,"||TS","-0.10","3","100","29.60","26","29.30","9.94","69","120",,"3",,,,,,,,,,,,,,,,,,,,,,,,,,,,,,,,,,,,,"SYN07672518 11566 81203 10206 20206 39921 40025 53033 60057 795// 90251 555 92203=","FM-12","4",,,,,,,,,,,,,,,,,,,,,,,,,,,,"2006-09-08"
"72518014735","2021-06-21T22:51:00","FM-15","7",,,,,"PRECIP","260",,"PLASTIC","42.6918","-73.83109","NWS ALBANY, NY",,,,,,,,,,,,,,,,,,,,,,,,,,,"29.62","69","69","0.00",,,,"100","29.61","SCT:04 39 BKN:07 46 OVC:08 60","29.31","10.00","69","140",,"5",,,,,,,,,,,,,,,,,,,,,,,,,,,,,,,,,,,,,"MET11506/21/21 22:51:02 METAR KALB 220351Z 14004KT 10SM SCT039 BKN046 OVC060 21/21 A2962 RMK AO2 TSE0256 SLP027 T02060206","FM-15","7",,,,,,,,,,,,,,,,,,,,,,,,,,,,"2006-09-08"
"72518014735","2021-06-21T23:51:00","FM-15","7",,,,,"PRECIP","260",,"PLASTIC","42.6918","-73.83109","NWS ALBANY, NY",,,,,,,,,,,,,,,,,,,,,,,,,,,"29.60","68","68","0.00",,,,"100","29.59","FEW:02 5 FEW:02 50 SCT:04 65","29.29","10.00","68","150",,"3",,,,,,,,,,,,,,,,,,,,,,,,,,,,,,,,,,,,,"MET11706/21/21 23:51:02 METAR KALB 220451Z 15003KT 10SM FEW005 FEW050 SCT065 20/20 A2960 RMK AO2 SLP022 T02000200 403000200","FM-15","7",,,,,,,,,,,,,,,,,,,,,,,,,,,,"2006-09-08"
"72518014735","2021-06-21T23:59:00","SOD  ","6",,,,,"PRECIP","260",,"PLASTIC","42.6918","-73.83109","NWS ALBANY, NY",,,,,"77",,,"29.31",,"12.6","12","8.4","0","86","68","240","45","0.18","0","0.0","220","35","TS RA BR",,,,,,,,,,,,,,,,,,,,,,,,,,,,,,,,,,,,,,,,,,,,,,,,,,,,,,,,"SOD75724 HR PRECIPITATION (IN): 0.18 SNOW DEPTH (IN):0     24 HR SNOWFALL (IN):0.0  WEATHER(CODE):13  24 HR MAX TEMP (F): 8624 HR MIN TEMP (F): 68AVERAGE STATION PRESSURE:29.310 MINIMUM SEA LEVEL PRESSURE:29.49 TIME OF OCCURRENCE:1744 PEAK WIND SPEED (MPH): 45 PEAK WIND DIR (DEG):240 PEAK WIND TIME (LST):      FASTEST 2MIN SPEED (MPH): 35FASTEST 2MIN DIR (DEG):220 FASTEST 2MIN TIME (LST):     AVERAGE WIND SPEED (MPH):12.6 24 HR AVG TEMP (F): 77DEPART FROM NORMAL:  7  HEATING DEGREE DAYS:  0 COOLING DEGREE DAYS: 12 LATEST DAY MAX TEMP (0700-1900 LST):86  LATEST NIGHT MIN TEMP(1900-0800 LST):70 HOURLY INCREMENTAL PRECIPITATION VALUES (IN):.00 0.00 0.00 0.00 0.00 0.00 0.00 0.00 0.00 0.00 0.00 0.00 0.00 0.00 0.00 0.00 0.00 0.00 0.00 0.00 0.15 0.03 0.00 0.00","SOD  ","6",,,,,,,,,,,,,,,,,,,,,,,,,"0417","1937",,"2006-09-08"
"72518014735","2021-06-22T00:27:00","FM-16","7",,,,,"PRECIP","260",,"PLASTIC","42.6918","-73.83109","NWS ALBANY, NY",,,,,,,,,,,,,,,,,,,,,,,,,,,"29.60","68","68",,,,,"100",,"BKN:07 6 BKN:07 35 OVC:08 190","29.29","10.00","68","160",,"5",,,,,,,,,,,,,,,,,,,,,,,,,,,,,,,,,,,,,"MET10506/22/21 00:27:02 SPECI KALB 220527Z 16004KT 10SM BKN006 BKN035 OVC190 20/20 A2960 RMK AO2 T02000200 (BA)","FM-16","7",,,,,,,,,,,,,,,,,,,,,,,,,,,,"2006-09-08"
"72518014735","2021-06-22T00:49:00","FM-16","6",,,,,"PRECIP","260",,"PLASTIC","42.6918","-73.83109","NWS ALBANY, NY",,,,,,,,,,,,,,,,,,,,,,,,,,,"29.59","68","68",,,,,"100",,"SCT:04 6 SCT:04 33 SCT:04 75","29.28","10.00","68","000",,"0",,,,,,,,,,,,,,,,,,,,,,,,,,,,,,,,,,,,,"MET10006/22/21 00:49:02 SPECI KALB 220549Z 00000KT 10SM SCT006 SCT033 SCT075 20/20 A2959 RMK AO2 FIBI (BA)","FM-16","6",,,,,,,,,,,,,,,,,,,,,,,,,,,,"2006-09-08"
"72518014735","2021-06-22T00:51:00","FM-15","7",,,,,"PRECIP","260",,"PLASTIC","42.6918","-73.83109","NWS ALBANY, NY",,,,,,,,,,,,,,,,,,,,,,,,,,,"29.59","68","68","0.00",,"+0.02","8","100","29.59","SCT:04 6 SCT:04 33 SCT:04 75","29.28","10.00","68","000",,"0",,,,,,,,,,,,,,,,,,,,,,,,,,,,,,,,,,,,,"MET13606/22/21 00:51:02 METAR KALB 220551Z 00000KT 10SM SCT006 SCT033 SCT075 20/20 A2959 RMK AO2 SLP019 60018 T02000200 10278 20200 58006 (BA)","FM-15","7",,,,,,,,,,,,,,,,,,,,,,,,,,,,"2006-09-08"
"72518014735","2021-06-22T01:00:00","FM-12","4",,,,,"PRECIP","260",,"PLASTIC","42.6918","-73.83109","NWS ALBANY, NY",,,,,,,,,,,,,,,,,,,,,,,,,,,,"68","68",,,"+0.02","8","100","29.59","5","29.28","9.94","68","000",,"0",,,,,,,,,,,,,,,,,,,,,,,,,,,,,,,,,,,,,"SYN08672518 12266 60000 10200 20200 39914 40019 58006 60051 90551 333 10278 20200 555 92206=","FM-12","4",,,,,,,,,,,,,,,,,,,,,,,,,,,,"2006-09-08"
"72518014735","2021-06-22T01:25:00","FM-16","7",,,,,"PRECIP","260",,"PLASTIC","42.6918","-73.83109","NWS ALBANY, NY",,,,,,,,,,,,,,,,,,,,,,,,,,,"29.60","68","68",,,,,"100",,"FEW:02 5 BKN:07 21 OVC:08 39","29.29","10.00","68","240",,"5",,,,,,,,,,,,,,,,,,,,,,,,,,,,,,,,,,,,,"MET10506/22/21 01:25:02 SPECI KALB 220625Z 24004KT 10SM FEW005 BKN021 OVC039 20/20 A2960 RMK AO2 T02000200 (BA)","FM-16","7",,,,,,,,,,,,,,,,,,,,,,,,,,,,"2006-09-08"
"72518014735","2021-06-22T01:49:00","FM-16","6",,,,,"PRECIP","260",,"PLASTIC","42.6918","-73.83109","NWS ALBANY, NY",,,,,,,,,,,,,,,,,,,,,,,,,,,"29.61","68","68",,,,,"100",,"SCT:04 24 SCT:04 39 BKN:07 65","29.30","10.00","68","230",,"8",,,,,,,,,,,,,,,,,,,,,,,,,,,,,,,,,,,,,"MET10006/22/21 01:49:02 SPECI KALB 220649Z 23007KT 10SM SCT024 SCT039 BKN065 20/20 A2961 RMK AO2 FIBI (BA)","FM-16","6",,,,,,,,,,,,,,,,,,,,,,,,,,,,"2006-09-08"
"72518014735","2021-06-22T01:51:00","FM-15","7",,,,,"PRECIP","260",,"PLASTIC","42.6918","-73.83109","NWS ALBANY, NY",,,,,,,,,,,,,,,,,,,,,,,,,,,"29.61","68","68","0.00",,,,"100","29.60","SCT:04 24 SCT:04 39 BKN:07 65","29.30","10.00","68","210",,"8",,,,,,,,,,,,,,,,,,,,,,,,,,,,,,,,,,,,,"MET11206/22/21 01:51:02 METAR KALB 220651Z 21007KT 10SM SCT024 SCT039 BKN065 20/20 A2961 RMK AO2 SLP025 T02000200 (BA)","FM-15","7",,,,,,,,,,,,,,,,,,,,,,,,,,,,"2006-09-08"
"72518014735","2021-06-22T02:51:00","FM-15","7",,,,,"PRECIP","260",,"PLASTIC","42.6918","-73.83109","NWS ALBANY, NY",,,,,,,,,,,,,,,,,,,,,,,,,,,"29.64","63","65","0.00",,,,"93","29.63","FEW:02 30 SCT:04 80 BKN:07 240","29.33","10.00","64","250",,"9",,,,,,,,,,,,,,,,,,,,,,,,,,,,,,,,,,,,,"MET11206/22/21 02:51:02 METAR KALB 220751Z 25008KT 10SM FEW030 SCT080 BKN240 18/17 A2964 RMK AO2 SLP034 T01830172 (BA)","FM-15","7",,,,,,,,,,,,,,,,,,,,,,,,,,,,"2006-09-08"
"72518014735","2021-06-22T03:51:00","FM-15","7",,,,,"PRECIP","260",,"PLASTIC","42.6918","-73.83109","NWS ALBANY, NY",,,,,,,,,,,,,,,,,,,,,,,,,,,"29.65","59","63","0.00",,"-0.06","1","87","29.64","OVC:08 80","29.34","10.00","61","280",,"9",,,,,,,,,,,,,,,,,,,,,,,,,,,,,,,,,,,,,"MET10406/22/21 03:51:02 METAR KALB 220851Z 28008KT 10SM OVC080 17/15 A2965 RMK AO2 SLP038 T01720150 51019 (BA)","FM-15","7",,,,,,,,,,,,,,,,,,,,,,,,,,,,"2006-09-08"
"72518014735","2021-06-22T04:00:00","FM-12","4",,,,,"PRECIP","260",,"PLASTIC","42.6918","-73.83109","NWS ALBANY, NY",,,,,,,,,,,,,,,,,,,,,,,,,,,,"59","63",,,"-0.06","1","87","29.64","74","29.34","9.94","61","280",,"9",,,,,,,,,,,,,,,,,,,,,,,,,,,,,,,,,,,,,"SYN06472518 32866 82808 10172 20150 39934 40038 51019 90851 555 92209=","FM-12","4",,,,,,,,,,,,,,,,,,,,,,,,,,,,"2006-09-08"
"72518014735","2021-06-22T04:51:00","FM-15","7",,,,,"PRECIP","260",,"PLASTIC","42.6918","-73.83109","NWS ALBANY, NY",,,,,,,,,,,,,,,,,,,,,,,,,,,"29.67","56","62","0.00",,,,"80","29.67","SCT:04 65 OVC:08 80","29.36","10.00","59","VRB",,"3",,,,,,,,,,,,,,,,,,,,,,,,,,,,,,,,,,,,,"MET10506/22/21 04:51:02 METAR KALB 220951Z VRB03KT 10SM SCT065 OVC080 17/13 A2967 RMK AO2 SLP047 T01670133 (BA)","FM-15","7",,,,,,,,,,,,,,,,,,,,,,,,,,,,"2006-09-08"
"72518014735","2021-06-22T05:51:00","FM-15","7",,,,,"PRECIP","260",,"PLASTIC","42.6918","-73.83109","NWS ALBANY, NY",,,,,,,,,,,,,,,,,,,,,,,,,,,"29.71","56","61","0.00",,,,"84","29.70","FEW:02 30 OVC:08 70","29.40","10.00","58","300",,"13",,,,,,,,,,,,,,,,,,,,,,,,,,,,,,,,,,,,,"MET10506/22/21 05:51:02 METAR KALB 221051Z 30011KT 10SM FEW030 OVC070 16/13 A2971 RMK AO2 SLP058 T01610133 (BA)","FM-15","7",,,,,,,,,,,,,,,,,,,,,,,,,,,,"2006-09-08"
"72518014735","2021-06-22T06:51:00","FM-15","7",,,,,"PRECIP","260",,"PLASTIC","42.6918","-73.83109","NWS ALBANY, NY",,,,,,,,,,,,,,,,,,,,,,,,,,,"29.74","56","59","0.02s","-RA:02 |RA |RA","-0.09","3","90","29.73","SCT:04 30 BKN:07 60 OVC:08 80","29.43","7.00","57","270","20","11",,,,,,,,,,,,,,,,,,,,,,,,,,,,,,,,,,,,,"MET16006/22/21 06:51:02 METAR KALB 221151Z 27010G17KT 7SM -RA SCT030 BKN060 OVC080 15/13 A2974 RMK AO2 RAB45 SLP068 P0001 60001 70019 T01500133 10200 20150 53029 (BA)","FM-15","7",,,,,,,,,,,,,,,,,,,,,,,,,,,,"2006-09-08"
"72518014735","2021-06-22T07:00:00","FM-12","4",,,,,"PRECIP","260",,"PLASTIC","42.6918","-73.83109","NWS ALBANY, NY",,,,,,,,,,,,,,,,,,,,,,,,,,,,"56","59",,"||RA","-0.09","3","90","29.73","26","29.43","6.84","57","270",,"11",,,,,,,,,,,,,,,,,,,,,,,,,,,,,,,,,,,,,"SYN10472518 11561 82710 10150 20133 39965 40068 53029 69931 761// 91151 333 10300 20150 70048 91017 555 92212=","FM-12","4",,,,,,,,,,,,,,,,,,,,,,,,,,,,"2006-09-08"
"72518014735","2021-06-22T07:51:00","FM-15","7",,,,,"PRECIP","260",,"PLASTIC","42.6918","-73.83109","NWS ALBANY, NY",,,,,,,,,,,,,,,,,,,,,,,,,,,"29.75","58","59","0.03",,,,"96","29.75","SCT:04 30 BKN:07 75 OVC:08 90","29.44","10.00","58","270",,"7",,,,,,,,,,,,,,,,,,,,,,,,,,,,,,,,,,,,,"MET12406/22/21 07:51:02 METAR KALB 221251Z 27006KT 10SM SCT030 BKN075 OVC090 15/14 A2975 RMK AO2 RAE43 SLP073 P0004 T01500144 (BA)","FM-15","7",,,,,,,,,,,,,,,,,,,,,,,,,,,,"2006-09-08"
"72518014735","2021-06-22T08:51:00","FM-15","7",,,,,"PRECIP","260",,"PLASTIC","42.6918","-73.83109","NWS ALBANY, NY",,,,,,,,,,,,,,,,,,,,,,,,,,,"29.76","57","60","0.01","-RA:02 |RA |RA",,,"90","29.76","FEW:02 31 SCT:04 46 OVC:08 70","29.45","10.00","58","280",,"9",,,,,,,,,,,,,,,,,,,,,,,,,,,,,,,,,,,,,"MET12806/22/21 08:51:02 METAR KALB 221351Z 28008KT 10SM -RA FEW031 SCT046 OVC070 16/14 A2976 RMK AO2 RAB28 SLP078 P0001 T01560139 (CL)","FM-15","7",,,,,,,,,,,,,,,,,,,,,,,,,,,,"2006-09-08"
"72518014735","2021-06-22T09:51:00","FM-15","7",,,,,"PRECIP","260",,"PLASTIC","42.6918","-73.83109","NWS ALBANY, NY",,,,,,,,,,,,,,,,,,,,,,,,,,,"29.77","57","61","T","-RA:02 |RA |RA","-0.03","1","87","29.77","FEW:02 19 BKN:07 85 OVC:08 110","29.46","10.00","59","290",,"13",,,,,,,,,,,,,,,,,,,,,,,,,,,,,,,,,,,,,"MET13406/22/21 09:51:02 METAR KALB 221451Z 29011KT 10SM -RA FEW019 BKN085 OVC110 16/14 A2977 RMK AO2 SLP080 P0000 60005 T01610139 51011 (CL)","FM-15","7",,,,,,,,,,,,,,,,,,,,,,,,,,,,"2006-09-08"
"72518014735","2021-06-22T10:00:00","FM-12","4",,,,,"PRECIP","260",,"PLASTIC","42.6918","-73.83109","NWS ALBANY, NY",,,,,,,,,,,,,,,,,,,,,,,,,,,,"57","61",,"||RA","-0.03","1","87","29.77","15","29.46","9.94","59","290",,"13",,,,,,,,,,,,,,,,,,,,,,,,,,,,,,,,,,,,,"SYN07672518 11466 82911 10161 20139 39975 40080 51011 60017 761// 91451 555 92215=","FM-12","4",,,,,,,,,,,,,,,,,,,,,,,,,,,,"2006-09-08"
"72518014735","2021-06-22T10:51:00","FM-15","7",,,,,"PRECIP","260",,"PLASTIC","42.6918","-73.83109","NWS ALBANY, NY",,,,,,,,,,,,,,,,,,,,,,,,,,,"29.78","57","59","0.01","-RA:02 |RA |RA",,,"93","29.78","FEW:02 30 BKN:07 60 OVC:08 100","29.47","9.00","58","270",,"9",,,,,,,,,,,,,,,,,,,,,,,,,,,,,,,,,,,,,"MET12106/22/21 10:51:02 METAR KALB 221551Z 27008KT 9SM -RA FEW030 BKN060 OVC100 15/14 A2978 RMK AO2 SLP085 P0000 T01500139 (CL)","FM-15","7",,,,,,,,,,,,,,,,,,,,,,,,,,,,"2006-09-08"
"72518014735","2021-06-22T11:41:00","FM-16","7",,,,,"PRECIP","260",,"PLASTIC","42.6918","-73.83109","NWS ALBANY, NY",,,,,,,,,,,,,,,,,,,,,,,,,,,"29.79","57","58","0.03","-RA:02 |RA |RA",,,"97",,"BKN:07 18 BKN:07 50 OVC:08 100","29.48","7.00","57","290",,"8",,,,,,,,,,,,,,,,,,,,,,,,,,,,,,,,,,,,,"MET11406/22/21 11:41:02 SPECI KALB 221641Z 29007KT 7SM -RA BKN018 BKN050 OVC100 14/14 A2979 RMK AO2 P0003 T01440139 (CL)","FM-16","7",,,,,,,,,,,,,,,,,,,,,,,,,,,,"2006-09-08"
"72518014735","2021-06-22T11:51:00","FM-15","7",,,,,"PRECIP","260",,"PLASTIC","42.6918","-73.83109","NWS ALBANY, NY",,,,,,,,,,,,,,,,,,,,,,,,,,,"29.79","57","58","0.03","-RA:02 |RA |RA",,,"97","29.79","BKN:07 18 BKN:07 50 OVC:08 100","29.48","8.00","57","290",,"8",,,,,,,,,,,,,,,,,,,,,,,,,,,,,,,,,,,,,"MET12106/22/21 11:51:02 METAR KALB 221651Z 29007KT 8SM -RA BKN018 BKN050 OVC100 14/14 A2979 RMK AO2 SLP087 P0004 T01440139 (CL)","FM-15","7",,,,,,,,,,,,,,,,,,,,,,,,,,,,"2006-09-08"
"72518014735","2021-06-22T12:51:00","FM-15","7",,,,,"PRECIP","260",,"PLASTIC","42.6918","-73.83109","NWS ALBANY, NY",,,,,,,,,,,,,,,,,,,,,,,,,,,"29.78","56","58","T","-RA:02 |RA |RA","-0.01","0","93","29.78","BKN:07 22 BKN:07 50 OVC:08 100","29.47","10.00","57","280",,"7",,,,,,,,,,,,,,,,,,,,,,,,,,,,,,,,,,,,,"MET14606/22/21 12:51:02 METAR KALB 221751Z 28006KT 10SM -RA BKN022 BKN050 OVC100 14/13 A2978 RMK AO2 SLP083 P0000 60009 T01440133 10161 20144 50003 (CL)","FM-15","7",,,,,,,,,,,,,,,,,,,,,,,,,,,,"2006-09-08"
"72518014735","2021-06-22T13:00:00","FM-12","4",,,,,"PRECIP","260",,"PLASTIC","42.6918","-73.83109","NWS ALBANY, NY",,,,,,,,,,,,,,,,,,,,,,,,,,,,"56","58",,"||RA","0.01","9","93","29.78","26","29.47","9.94","57","280",,"7",,,,,,,,,,,,,,,,,,,,,,,,,,,,,,,,,,,,,"SYN09272518 11566 82806 10144 20133 39978 40083 50003 60021 761// 91751 333 10200 20144 555 92218=","FM-12","4",,,,,,,,,,,,,,,,,,,,,,,,,,,,"2006-09-08"
"72518014735","2021-06-22T13:49:00","FM-16","7",,,,,"PRECIP","260",,"PLASTIC","42.6918","-73.83109","NWS ALBANY, NY",,,,,,,,,,,,,,,,,,,,,,,,,,,"29.77","55","61","T",,,,"83",,"SCT:04 22 BKN:07 35 OVC:08 55","29.46","10.00","58","280",,"13",,,,,,,,,,,,,,,,,,,,,,,,,,,,,,,,,,,,,"MET10206/22/21 13:49:02 SPECI KALB 221849Z 28011KT 10SM SCT022 BKN035 OVC055 16/13 A2977 RMK AO2 RAE46 P0000","FM-16","7",,,,,,,,,,,,,,,,,,,,,,,,,,,,"2006-09-08"
"72518014735","2021-06-22T13:51:00","FM-15","7",,,,,"PRECIP","260",,"PLASTIC","42.6918","-73.83109","NWS ALBANY, NY",,,,,,,,,,,,,,,,,,,,,,,,,,,"29.77","55","60","T",,,,"84","29.77","SCT:04 22 BKN:07 35 OVC:08 55","29.46","10.00","57","280","21","15",,,,,,,,,,,,,,,,,,,,,,,,,,,,,,,,,,,,,"MET12206/22/21 13:51:02 METAR KALB 221851Z 28013G18KT 10SM SCT022 BKN035 OVC055 16/13 A2977 RMK AO2 RAE46 SLP080 P0000 T01560128","FM-15","7",,,,,,,,,,,,,,,,,,,,,,,,,,,,"2006-09-08"
"72518014735","2021-06-22T14:51:00","FM-15","7",,,,,"PRECIP","260",,"PLASTIC","42.6918","-73.83109","NWS ALBANY, NY",,,,,,,,,,,,,,,,,,,,,,,,,,,"29.78","55","60","0.00",,,,"84","29.77","FEW:02 26 SCT:04 32 BKN:07 41","29.47","10.00","57","270",,"13",,,,,,,,,,,,,,,,,,,,,,,,,,,,,,,,,,,,,"MET10706/22/21 14:51:02 METAR KALB 221951Z 27011KT 10SM FEW026 SCT032 BKN041 16/13 A2978 RMK AO2 SLP082 T01560128","FM-15","7",,,,,,,,,,,,,,,,,,,,,,,,,,,,"2006-09-08"
"72518014735","2021-06-22T15:51:00","FM-15","7",,,,,"PRECIP","260",,"PLASTIC","42.6918","-73.83109","NWS ALBANY, NY",,,,,,,,,,,,,,,,,,,,,,,,,,,"29.76","54","59","0.00",,"+0.01","8","83","29.76","FEW:02 26 SCT:04 55 OVC:08 160","29.45","10.00","56","280",,"11",,,,,,,,,,,,,,,,,,,,,,,,,,,,,,,,,,,,,"MET11906/22/21 15:51:02 METAR KALB 222051Z 28010KT 10SM FEW026 SCT055 OVC160 15/12 A2976 RMK AO2 SLP077 60000 T01500122 58002","FM-15","7",,,,,,,,,,,,,,,,,,,,,,,,,,,,"2006-09-08"
"72518014735","2021-06-22T16:00:00","FM-12","4",,,,,"PRECIP","260",,"PLASTIC","42.6918","-73.83109","NWS ALBANY, NY",,,,,,,,,,,,,,,,,,,,,,,,,,,,"54","59",,,"+0.01","8","83","29.76","26","29.44","9.94","56","280",,"11",,,,,,,,,,,,,,,,,,,,,,,,,,,,,,,,,,,,,"SYN07072518 12566 82810 10150 20122 39971 40077 58002 69907 92051 555 92221=","FM-12","4",,,,,,,,,,,,,,,,,,,,,,,,,,,,"2006-09-08"
"72518014735","2021-06-22T16:51:00","FM-15","7",,,,,"PRECIP","260",,"PLASTIC","42.6918","-73.83109","NWS ALBANY, NY",,,,,,,,,,,,,,,,,,,,,,,,,,,"29.78","54","59","0.00",,,,"83","29.78","FEW:02 29 BKN:07 37 BKN:07 150","29.47","10.00","56","270",,"15",,,,,,,,,,,,,,,,,,,,,,,,,,,,,,,,,,,,,"MET10706/22/21 16:51:02 METAR KALB 222151Z 27013KT 10SM FEW029 BKN037 BKN150 15/12 A2978 RMK AO2 SLP085 T01500122","FM-15","7",,,,,,,,,,,,,,,,,,,,,,,,,,,,"2006-09-08"
"72518014735","2021-06-22T17:51:00","FM-15","7",,,,,"PRECIP","260",,"PLASTIC","42.6918","-73.83109","NWS ALBANY, NY",,,,,,,,,,,,,,,,,,,,,,,,,,,"29.79","53","58","0.00",,,,"84","29.79","FEW:02 49 BKN:07 65","29.48","10.00","55","280",,"10",,,,,,,,,,,,,,,,,,,,,,,,,,,,,,,,,,,,,"MET10006/22/21 17:51:02 METAR KALB 222251Z 28009KT 10SM FEW049 BKN065 14/12 A2979 RMK AO2 SLP089 T01440117","FM-15","7",,,,,,,,,,,,,,,,,,,,,,,,,,,,"2006-09-08"
"72518014735","2021-06-22T18:51:00","FM-15","7",,,,,"PRECIP","260",,"PLASTIC","42.6918","-73.83109","NWS ALBANY, NY",,,,,,,,,,,,,,,,,,,,,,,,,,,"29.83","50","57","0.00",,"-0.06","3","78","29.83","OVC:08 35","29.52","10.00","53","280",,"15",,,,,,,,,,,,,,,,,,,,,,,,,,,,,,,,,,,,,"MET11706/22/21 18:51:02 METAR KALB 222351Z 28013KT 10SM OVC035 14/10 A2983 RMK AO2 SLP100 60000 T01390100 10161 20139 53021","FM-15","7",,,,,,,,,,,,,,,,,,,,,,,,,,,,"2006-09-08"
"72518014735","2021-06-22T19:00:00","FM-12","4",,,,,"PRECIP","260",,"PLASTIC","42.6918","-73.83109","NWS ALBANY, NY",,,,,,,,,,,,,,,,,,,,,,,,,,,,"50","57",,,"-0.06","3","78","29.83","41","29.52","9.94","53","280",,"15",,,,,,,,,,,,,,,,,,,,,,,,,,,,,,,,,,,,,"SYN08672518 12666 82813 10139 20100 39995 40100 53021 69901 92351 333 10161 20139 555 92300=","FM-12","4",,,,,,,,,,,,,,,,,,,,,,,,,,,,"2006-09-08"
"72518014735","2021-06-22T19:51:00","FM-15","7",,,,,"PRECIP","260",,"PLASTIC","42.6918","-73.83109","NWS ALBANY, NY",,,,,,,,,,,,,,,,,,,,,,,,,,,"29.86","49","57","0.00",,,,"74","29.86","BKN:07 33 BKN:07 43","29.54","10.00","53","280",,"10",,,,,,,,,,,,,,,,,,,,,,,,,,,,,,,,,,,,,"MET10006/22/21 19:51:01 METAR KALB 230051Z 28009KT 10SM BKN033 BKN043 14/09 A2986 RMK AO2 SLP113 T01390094","FM-15","7",,,,,,,,,,,,,,,,,,,,,,,,,,,,"2006-09-08"
"72518014735","2021-06-22T20:51:00","FM-15","7",,,,,"PRECIP","260",,"PLASTIC","42.6918","-73.83109","NWS ALBANY, NY",,,,,,,,,,,,,,,,,,,,,,,,,,,"29.91","49","56","0.00",,,,"77","29.91","BKN:07 55","29.59","10.00","52","290",,"10",,,,,,,,,,,,,,,,,,,,,,,,,,,,,,,,,,,,,"MET09306/22/21 20:51:01 METAR KALB 230151Z 29009KT 10SM BKN055 13/09 A2991 RMK AO2 SLP127 T01330094","FM-15","7",,,,,,,,,,,,,,,,,,,,,,,,,,,,"2006-09-08"
"72518014735","2021-06-22T21:51:00","FM-15","7",,,,,"PRECIP","260",,"PLASTIC","42.6918","-73.83109","NWS ALBANY, NY",,,,,,,,,,,,,,,,,,,,,,,,,,,"29.94","49","55","0.00",,"-0.11","1","80","29.93","BKN:07 60","29.62","10.00","52","300",,"10",,,,,,,,,,,,,,,,,,,,,,,,,,,,,,,,,,,,,"MET09906/22/21 21:51:01 METAR KALB 230251Z 30009KT 10SM BKN060 13/09 A2994 RMK AO2 SLP137 T01280094 51037","FM-15","7",,,,,,,,,,,,,,,,,,,,,,,,,,,,"2006-09-08"
"72518014735","2021-06-22T22:00:00","FM-12","4",,,,,"PRECIP","260",,"PLASTIC","42.6918","-73.83109","NWS ALBANY, NY",,,,,,,,,,,,,,,,,,,,,,,,,,,,"49","55",,,"-0.11","1","80","29.93","57","29.62","9.94","52","300",,"10",,,,,,,,,,,,,,,,,,,,,,,,,,,,,,,,,,,,,"SYN06472518 32766 63009 10128 20094 30032 40137 51037 90251 555 92303=","FM-12","4",,,,,,,,,,,,,,,,,,,,,,,,,,,,"2006-09-08"
"72518014735","2021-06-22T22:51:00","FM-15","7",,,,,"PRECIP","260",,"PLASTIC","42.6918","-73.83109","NWS ALBANY, NY",,,,,,,,,,,,,,,,,,,,,,,,,,,"29.96","49","53","0.00",,,,"86","29.96","OVC:08 70","29.65","10.00","51","280",,"11",,,,,,,,,,,,,,,,,,,,,,,,,,,,,,,,,,,,,"MET09306/22/21 22:51:01 METAR KALB 230351Z 28010KT 10SM OVC070 12/09 A2996 RMK AO2 SLP144 T01170094","FM-15","7",,,,,,,,,,,,,,,,,,,,,,,,,,,,"2006-09-08"
"72518014735","2021-06-22T23:51:00","FM-15","7",,,,,"PRECIP","260",,"PLASTIC","42.6918","-73.83109","NWS ALBANY, NY",,,,,,,,,,,,,,,,,,,,,,,,,,,"29.97","49","50","0.00",,,,"96","29.97","SCT:04 70","29.65","10.00","49","270",,"7",,,,,,,,,,,,,,,,,,,,,,,,,,,,,,,,,,,,,"MET10306/22/21 23:51:01 METAR KALB 230451Z 27006KT 10SM SCT070 10/09 A2997 RMK AO2 SLP148 T01000094 402000100","FM-15","7",,,,,,,,,,,,,,,,,,,,,,,,,,,,"2006-09-08"
"72518014735","2021-06-22T23:59:00","SOD  ","6",,,,,"PRECIP","260",,"PLASTIC","42.6918","-73.83109","NWS ALBANY, NY",,,,,"59",,,"29.44",,"9.8","0","-9.8","6","68","50","290","23","0.10","0","0.0","290","18","RA",,,,,,,,,,,,,,,,,,,,,,,,,,,,,,,,,,,,,,,,,,,,,,,,,,,,,,,,"SOD76024 HR PRECIPITATION (IN): 0.10 SNOW DEPTH (IN):0     24 HR SNOWFALL (IN):0.0  WEATHER(CODE):1  24 HR MAX TEMP (F): 6824 HR MIN TEMP (F): 50AVERAGE STATION PRESSURE(D):29.439 MINIMUM SEA LEVEL PRESSURE:29.58 TIME OF OCCURRENCE:0109 PEAK WIND SPEED (MPH): 23 PEAK WIND DIR (DEG):290 PEAK WIND TIME (LST):      FASTEST 2MIN SPEED (MPH): 18FASTEST 2MIN DIR (DEG):290 FASTEST 2MIN TIME (LST):     AVERAGE WIND SPEED (MPH): 9.8 24 HR AVG TEMP (F): 59DEPART FROM NORMAL:-11  HEATING DEGREE DAYS:  6 COOLING DEGREE DAYS:  0 LATEST DAY MAX TEMP (0700-1900 LST): 61 LATEST NIGHT MIN TEMP(1900-0800 LST):58 HOURLY INCREMENTAL PRECIPITATION VALUES (IN):0.00 0.00 0.00 0.00 0.00 0.00 0.02 0.03 0.01T     0.01 0.03T    T     0.00 0.00 0.00 0.00 0.00 0.00 0.00 0.00 0.00 0.00","SOD  ","6",,,,,,,,,,,,,,,,,,,,,,,,,"0417","1937",,"2006-09-08"
"72518014735","2021-06-23T00:51:00","FM-15","7",,,,,"PRECIP","260",,"PLASTIC","42.6918","-73.83109","NWS ALBANY, NY",,,,,,,,,,,,,,,,,,,,,,,,,,,"29.97","48","48","0.00",,"-0.04","1","100","29.97","CLR:00","29.65","10.00","48","300",,"3",,,,,,,,,,,,,,,,,,,,,,,,,,,,,,,,,,,,,"MET11306/23/21 00:51:02 METAR KALB 230551Z 30003KT 10SM CLR 09/09 A2997 RMK AO2 SLP150 T00890089 10144 20089 51012 (BA)","FM-15","7",,,,,,,,,,,,,,,,,,,,,,,,,,,,"2006-09-08"
"72518014735","2021-06-23T01:00:00","FM-12","4",,,,,"PRECIP","260",,"PLASTIC","42.6918","-73.83109","NWS ALBANY, NY",,,,,,,,,,,,,,,,,,,,,,,,,,,,"48","48",,,"-0.04","1","100","29.97",,"29.65","9.94","48","300",,"3",,,,,,,,,,,,,,,,,,,,,,,,,,,,,,,,,,,,,"SYN08072518 32966 03003 10089 20089 30042 40150 51012 90551 333 10200 20089 555 92306=","FM-12","4",,,,,,,,,,,,,,,,,,,,,,,,,,,,"2006-09-08"
"72518014735","2021-06-23T01:51:00","FM-15","7",,,,,"PRECIP","260",,"PLASTIC","42.6918","-73.83109","NWS ALBANY, NY",,,,,,,,,,,,,,,,,,,,,,,,,,,"29.99","48","48","0.00",,,,"100","29.98","CLR:00","29.67","10.00","48","260",,"7",,,,,,,,,,,,,,,,,,,,,,,,,,,,,,,,,,,,,"MET09506/23/21 01:51:02 METAR KALB 230651Z 26006KT 10SM CLR 09/09 A2999 RMK AO2 SLP154 T00890089 (BA)","FM-15","7",,,,,,,,,,,,,,,,,,,,,,,,,,,,"2006-09-08"
"72518014735","2021-06-23T02:51:00","FM-15","7",,,,,"PRECIP","260",,"PLASTIC","42.6918","-73.83109","NWS ALBANY, NY",,,,,,,,,,,,,,,,,,,,,,,,,,,"30.00","47","47","0.00",,,,"100","30.00","CLR:00","29.68","10.00","47","270",,"3",,,,,,,,,,,,,,,,,,,,,,,,,,,,,,,,,,,,,"MET09506/23/21 02:51:02 METAR KALB 230751Z 27003KT 10SM CLR 08/08 A3000 RMK AO2 SLP160 T00830083 (BA)","FM-15","7",,,,,,,,,,,,,,,,,,,,,,,,,,,,"2006-09-08"
"72518014735","2021-06-23T03:51:00","FM-15","7",,,,,"PRECIP","260",,"PLASTIC","42.6918","-73.83109","NWS ALBANY, NY",,,,,,,,,,,,,,,,,,,,,,,,,,,"30.04","47","47","0.00",,"-0.06","3","100","30.03","CLR:00","29.72","10.00","47","000",,"0",,,,,,,,,,,,,,,,,,,,,,,,,,,,,,,,,,,,,"MET10106/23/21 03:51:02 METAR KALB 230851Z 00000KT 10SM CLR 08/08 A3004 RMK AO2 SLP171 T00830083 53021 (BA)","FM-15","7",,,,,,,,,,,,,,,,,,,,,,,,,,,,"2006-09-08"
"72518014735","2021-06-23T04:00:00","FM-12","4",,,,,"PRECIP","260",,"PLASTIC","42.6918","-73.83109","NWS ALBANY, NY",,,,,,,,,,,,,,,,,,,,,,,,,,,,"47","47",,,"-0.06","3","100","30.03",,"29.72","9.94","47","000",,"0",,,,,,,,,,,,,,,,,,,,,,,,,,,,,,,,,,,,,"SYN06472518 32966 00000 10083 20083 30065 40171 53021 90851 555 92309=","FM-12","4",,,,,,,,,,,,,,,,,,,,,,,,,,,,"2006-09-08"
"72518014735","2021-06-23T04:51:00","FM-15","7",,,,,"PRECIP","260",,"PLASTIC","42.6918","-73.83109","NWS ALBANY, NY",,,,,,,,,,,,,,,,,,,,,,,,,,,"30.06","47","48","0.00",,,,"96","30.06","CLR:00","29.75","10.00","48","000",,"0",,,,,,,,,,,,,,,,,,,,,,,,,,,,,,,,,,,,,"MET09506/23/21 04:51:02 METAR KALB 230951Z 00000KT 10SM CLR 09/08 A3006 RMK AO2 SLP181 T00890083 (BA)","FM-15","7",,,,,,,,,,,,,,,,,,,,,,,,,,,,"2006-09-08"
"72518014735","2021-06-23T05:51:00","FM-15","7",,,,,"PRECIP","260",,"PLASTIC","42.6918","-73.83109","NWS ALBANY, NY",,,,,,,,,,,,,,,,,,,,,,,,,,,"30.10","47","50","0.00",,,,"89","30.10","FEW:02 70","29.78","10.00","48","280",,"7",,,,,,,,,,,,,,,,,,,,,,,,,,,,,,,,,,,,,"MET09806/23/21 05:51:02 METAR KALB 231051Z 28006KT 10SM FEW070 10/08 A3010 RMK AO2 SLP192 T01000083 (BA)","FM-15","7",,,,,,,,,,,,,,,,,,,,,,,,,,,,"2006-09-08"
"72518014735","2021-06-23T06:51:00","FM-15","7",,,,,"PRECIP","260",,"PLASTIC","42.6918","-73.83109","NWS ALBANY, NY",,,,,,,,,,,,,,,,,,,,,,,,,,,"30.12","49","55","0.00",,"-0.08","1","80","30.12","FEW:02 25 FEW:02 70 FEW:02 250","29.80","10.00","52","270",,"8",,,,,,,,,,,,,,,,,,,,,,,,,,,,,,,,,,,,,"MET13606/23/21 06:51:02 METAR KALB 231151Z 27007KT 10SM FEW025 FEW070 FEW250 13/09 A3012 RMK AO2 SLP199 70009 T01280094 10128 20078 51027 (JB)","FM-15","7",,,,,,,,,,,,,,,,,,,,,,,,,,,,"2006-09-08"
"72518014735","2021-06-23T07:00:00","FM-12","4",,,,,"PRECIP","260",,"PLASTIC","42.6918","-73.83109","NWS ALBANY, NY",,,,,,,,,,,,,,,,,,,,,,,,,,,,"49","55",,,"-0.08","1","80","30.12","26","29.80","9.94","52","270",,"8",,,,,,,,,,,,,,,,,,,,,,,,,,,,,,,,,,,,,"SYN08672518 32566 22707 10128 20094 30092 40199 51027 91151 333 10200 20078 70023 555 92312=","FM-12","4",,,,,,,,,,,,,,,,,,,,,,,,,,,,"2006-09-08"
"72518014735","2021-06-23T07:51:00","FM-15","7",,,,,"PRECIP","260",,"PLASTIC","42.6918","-73.83109","NWS ALBANY, NY",,,,,,,,,,,,,,,,,,,,,,,,,,,"30.14","49","58","0.00",,,,"72","30.14","FEW:02 25 FEW:02 75 FEW:02 250","29.82","10.00","53","290",,"10",,,,,,,,,,,,,,,,,,,,,,,,,,,,,,,,,,,,,"MET11206/23/21 07:51:02 METAR KALB 231251Z 29009KT 10SM FEW025 FEW075 FEW250 14/09 A3014 RMK AO2 SLP206 T01440094 (JB)","FM-15","7",,,,,,,,,,,,,,,,,,,,,,,,,,,,"2006-09-08"
"72518014735","2021-06-23T08:51:00","FM-15","7",,,,,"PRECIP","260",,"PLASTIC","42.6918","-73.83109","NWS ALBANY, NY",,,,,,,,,,,,,,,,,,,,,,,,,,,"30.15","48","61","0.00",,,,"63","30.15","FEW:02 30 FEW:02 250","29.83","10.00","54","280","17","11",,,,,,,,,,,,,,,,,,,,,,,,,,,,,,,,,,,,,"MET10806/23/21 08:51:02 METAR KALB 231351Z 28010G15KT 10SM FEW030 FEW250 16/09 A3015 RMK AO2 SLP210 T01610089 (JB)","FM-15","7",,,,,,,,,,,,,,,,,,,,,,,,,,,,"2006-09-08"
"72518014735","2021-06-23T09:51:00","FM-15","7",,,,,"PRECIP","260",,"PLASTIC","42.6918","-73.83109","NWS ALBANY, NY",,,,,,,,,,,,,,,,,,,,,,,,,,,"30.16","41","63","0.00",,"-0.04","1","45","30.16","FEW:02 35 FEW:02 250","29.84","10.00","52","280","18","10",,,,,,,,,,,,,,,,,,,,,,,,,,,,,,,,,,,,,"MET11406/23/21 09:51:02 METAR KALB 231451Z 28009G16KT 10SM FEW035 FEW250 17/05 A3016 RMK AO2 SLP214 T01720050 51015 (JB)","FM-15","7",,,,,,,,,,,,,,,,,,,,,,,,,,,,"2006-09-08"
"72518014735","2021-06-23T10:00:00","FM-12","4",,,,,"PRECIP","260",,"PLASTIC","42.6918","-73.83109","NWS ALBANY, NY",,,,,,,,,,,,,,,,,,,,,,,,,,,,"41","63",,,"-0.04","1","45","30.16","41","29.84","9.94","52","280",,"10",,,,,,,,,,,,,,,,,,,,,,,,,,,,,,,,,,,,,"SYN07472518 32666 22809 10172 20050 30106 40214 51015 91451 333 91016 555 92315=","FM-12","4",,,,,,,,,,,,,,,,,,,,,,,,,,,,"2006-09-08"
"72518014735","2021-06-23T10:51:00","FM-15","7",,,,,"PRECIP","260",,"PLASTIC","42.6918","-73.83109","NWS ALBANY, NY",,,,,,,,,,,,,,,,,,,,,,,,,,,"30.17","45","65","0.00",,,,"49","30.16","SCT:04 55 SCT:04 250","29.85","10.00","54","280",,"13",,,,,,,,,,,,,,,,,,,,,,,,,,,,,,,,,,,,,"MET10506/23/21 10:51:02 METAR KALB 231551Z 28011KT 10SM SCT055 SCT250 18/07 A3017 RMK AO2 SLP215 T01830072 (JB)","FM-15","7",,,,,,,,,,,,,,,,,,,,,,,,,,,,"2006-09-08"
"72518014735","2021-06-23T11:51:00","FM-15","7",,,,,"PRECIP","260",,"PLASTIC","42.6918","-73.83109","NWS ALBANY, NY",,,,,,,,,,,,,,,,,,,,,,,,,,,"30.17","45","65","0.00",,,,"49","30.17","BKN:07 65 BKN:07 250","29.85","10.00","54","280",,"9",,,,,,,,,,,,,,,,,,,,,,,,,,,,,,,,,,,,,"MET10506/23/21 11:51:02 METAR KALB 231651Z 28008KT 10SM BKN065 BKN250 18/07 A3017 RMK AO2 SLP218 T01830072 (JB)","FM-15","7",,,,,,,,,,,,,,,,,,,,,,,,,,,,"2006-09-08"
"72518014735","2021-06-23T12:51:00","FM-15","7",,,,,"PRECIP","260",,"PLASTIC","42.6918","-73.83109","NWS ALBANY, NY",,,,,,,,,,,,,,,,,,,,,,,,,,,"30.18","44","68","0.00",,"-0.02","3","42","30.18","BKN:07 65","29.86","10.00","55","290","17","11",,,,,,,,,,,,,,,,,,,,,,,,,,,,,,,,,,,,,"MET11906/23/21 12:51:02 METAR KALB 231751Z 29010G15KT 10SM BKN065 20/07 A3018 RMK AO2 SLP220 T02000067 10200 20128 53006 (JB)","FM-15","7",,,,,,,,,,,,,,,,,,,,,,,,,,,,"2006-09-08"
"72518014735","2021-06-23T13:00:00","FM-12","4",,,,,"PRECIP","260",,"PLASTIC","42.6918","-73.83109","NWS ALBANY, NY",,,,,,,,,,,,,,,,,,,,,,,,,,,,"44","68",,,"-0.02","3","42","30.18","57","29.86","9.94","55","290",,"11",,,,,,,,,,,,,,,,,,,,,,,,,,,,,,,,,,,,,"SYN08672518 32766 62910 10200 20067 30112 40220 53006 91751 333 10200 20128 91015 555 92318=","FM-12","4",,,,,,,,,,,,,,,,,,,,,,,,,,,,"2006-09-08"
"72518014735","2021-06-23T13:51:00","FM-15","7",,,,,"PRECIP","260",,"PLASTIC","42.6918","-73.83109","NWS ALBANY, NY",,,,,,,,,,,,,,,,,,,,,,,,,,,"30.19","44","67","0.00",,,,"44","30.19","BKN:07 65","29.87","10.00","55","270",,"10",,,,,,,,,,,,,,,,,,,,,,,,,,,,,,,,,,,,,"MET09806/23/21 13:51:02 METAR KALB 231851Z 27009KT 10SM BKN065 19/07 A3019 RMK AO2 SLP223 T01940067 (JB)","FM-15","7",,,,,,,,,,,,,,,,,,,,,,,,,,,,"2006-09-08"
"72518014735","2021-06-23T14:51:00","FM-15","7",,,,,"PRECIP","260",,"PLASTIC","42.6918","-73.83109","NWS ALBANY, NY",,,,,,,,,,,,,,,,,,,,,,,,,,,"30.18","45","70","0.00",,,,"41","30.18","SCT:04 65","29.86","10.00","57","250",,"11",,,,,,,,,,,,,,,,,,,,,,,,,,,,,,,,,,,,,"MET09806/23/21 14:51:02 METAR KALB 231951Z 25010KT 10SM SCT065 21/07 A3018 RMK AO2 SLP220 T02110072 (JF)","FM-15","7",,,,,,,,,,,,,,,,,,,,,,,,,,,,"2006-09-08"
"72518014735","2021-06-23T15:51:00","FM-15","7",,,,,"PRECIP","260",,"PLASTIC","42.6918","-73.83109","NWS ALBANY, NY",,,,,,,,,,,,,,,,,,,,,,,,,,,"30.20","42","67","0.00",,"-0.02","3","41","30.20","SCT:04 70","29.88","10.00","54","260",,"9",,,,,,,,,,,,,,,,,,,,,,,,,,,,,,,,,,,,,"MET10406/23/21 15:51:02 METAR KALB 232051Z 26008KT 10SM SCT070 19/06 A3020 RMK AO2 SLP226 T01940056 53006 (JF)","FM-15","7",,,,,,,,,,,,,,,,,,,,,,,,,,,,"2006-09-08"
"72518014735","2021-06-23T16:00:00","FM-12","4",,,,,"PRECIP","260",,"PLASTIC","42.6918","-73.83109","NWS ALBANY, NY",,,,,,,,,,,,,,,,,,,,,,,,,,,,"42","67",,,"-0.02","3","41","30.20","74","29.88","9.94","54","260",,"9",,,,,,,,,,,,,,,,,,,,,,,,,,,,,,,,,,,,,"SYN06472518 32866 42608 10194 20056 30119 40226 53006 92051 555 92321=","FM-12","4",,,,,,,,,,,,,,,,,,,,,,,,,,,,"2006-09-08"
"72518014735","2021-06-23T16:51:00","FM-15","7",,,,,"PRECIP","260",,"PLASTIC","42.6918","-73.83109","NWS ALBANY, NY",,,,,,,,,,,,,,,,,,,,,,,,,,,"30.20","42","70","0.00",,,,"37","30.20","FEW:02 70","29.88","10.00","55","250",,"10",,,,,,,,,,,,,,,,,,,,,,,,,,,,,,,,,,,,,"MET09806/23/21 16:51:02 METAR KALB 232151Z 25009KT 10SM FEW070 21/06 A3020 RMK AO2 SLP227 T02110056 (JF)","FM-15","7",,,,,,,,,,,,,,,,,,,,,,,,,,,,"2006-09-08"
"72518014735","2021-06-23T17:51:00","FM-15","7",,,,,"PRECIP","260",,"PLASTIC","42.6918","-73.83109","NWS ALBANY, NY",,,,,,,,,,,,,,,,,,,,,,,,,,,"30.22","41","68","0.00",,,,"38","30.22","FEW:02 70","29.90","10.00","54","260",,"7",,,,,,,,,,,,,,,,,,,,,,,,,,,,,,,,,,,,,"MET09806/23/21 17:51:02 METAR KALB 232251Z 26006KT 10SM FEW070 20/05 A3022 RMK AO2 SLP232 T02000050 (JF)","FM-15","7",,,,,,,,,,,,,,,,,,,,,,,,,,,,"2006-09-08"
"72518014735","2021-06-23T18:51:00","FM-15","7",,,,,"PRECIP","260",,"PLASTIC","42.6918","-73.83109","NWS ALBANY, NY",,,,,,,,,,,,,,,,,,,,,,,,,,,"30.23","42","65","0.00",,"-0.04","3","43","30.24","FEW:02 70 FEW:02 260","29.91","10.00","53","270",,"6",,,,,,,,,,,,,,,,,,,,,,,,,,,,,,,,,,,,,"MET12306/23/21 18:51:02 METAR KALB 232351Z 27005KT 10SM FEW070 FEW260 18/06 A3023 RMK AO2 SLP239 T01830056 10211 20183 53012 (JF)","FM-15","7",,,,,,,,,,,,,,,,,,,,,,,,,,,,"2006-09-08"
"72518014735","2021-06-23T19:00:00","FM-12","4",,,,,"PRECIP","260",,"PLASTIC","42.6918","-73.83109","NWS ALBANY, NY",,,,,,,,,,,,,,,,,,,,,,,,,,,,"42","65",,,"-0.04","3","43","30.24","74","29.91","9.94","53","270",,"6",,,,,,,,,,,,,,,,,,,,,,,,,,,,,,,,,,,,,"SYN08072518 32866 22705 10183 20056 30129 40239 53012 92351 333 10211 20078 555 92400=","FM-12","4",,,,,,,,,,,,,,,,,,,,,,,,,,,,"2006-09-08"
"72518014735","2021-06-23T19:51:00","FM-15","7",,,,,"PRECIP","260",,"PLASTIC","42.6918","-73.83109","NWS ALBANY, NY",,,,,,,,,,,,,,,,,,,,,,,,,,,"30.25","43","60","0.00",,,,"53","30.25","FEW:02 260","29.93","10.00","51","280",,"3",,,,,,,,,,,,,,,,,,,,,,,,,,,,,,,,,,,,,"MET09306/23/21 19:51:01 METAR KALB 240051Z 28003KT 10SM FEW260 16/06 A3025 RMK AO2 SLP245 T01560061","FM-15","7",,,,,,,,,,,,,,,,,,,,,,,,,,,,"2006-09-08"
"72518014735","2021-06-23T20:51:00","FM-15","7",,,,,"PRECIP","260",,"PLASTIC","42.6918","-73.83109","NWS ALBANY, NY",,,,,,,,,,,,,,,,,,,,,,,,,,,"30.28","45","57","0.00",,,,"64","30.28","FEW:02 260","29.96","10.00","51","000",,"0",,,,,,,,,,,,,,,,,,,,,,,,,,,,,,,,,,,,,"MET09306/23/21 20:51:01 METAR KALB 240151Z 00000KT 10SM FEW260 14/07 A3028 RMK AO2 SLP253 T01390072","FM-15","7",,,,,,,,,,,,,,,,,,,,,,,,,,,,"2006-09-08"
"72518014735","2021-06-23T21:51:00","FM-15","7",,,,,"PRECIP","260",,"PLASTIC","42.6918","-73.83109","NWS ALBANY, NY",,,,,,,,,,,,,,,,,,,,,,,,,,,"30.29","46","54","0.00",,"-0.05","1","75","30.29","FEW:02 260","29.97","10.00","50","000",,"0",,,,,,,,,,,,,,,,,,,,,,,,,,,,,,,,,,,,,"MET09906/23/21 21:51:01 METAR KALB 240251Z 00000KT 10SM FEW260 12/08 A3029 RMK AO2 SLP257 T01220078 51018","FM-15","7",,,,,,,,,,,,,,,,,,,,,,,,,,,,"2006-09-08"
"72518014735","2021-06-23T22:00:00","FM-12","4",,,,,"PRECIP","260",,"PLASTIC","42.6918","-73.83109","NWS ALBANY, NY",,,,,,,,,,,,,,,,,,,,,,,,,,,,"46","54",,,"-0.05","1","75","30.29",,"29.97","9.94","50","000",,"0",,,,,,,,,,,,,,,,,,,,,,,,,,,,,,,,,,,,,"SYN06472518 32966 20000 10122 20078 30149 40257 51018 90251 555 92403=","FM-12","4",,,,,,,,,,,,,,,,,,,,,,,,,,,,"2006-09-08"
"72518014735","2021-06-23T22:51:00","FM-15","7",,,,,"PRECIP","260",,"PLASTIC","42.6918","-73.83109","NWS ALBANY, NY",,,,,,,,,,,,,,,,,,,,,,,,,,,"30.30","46","52","0.00",,,,"80","30.30","CLR:00","29.98","10.00","49","000",,"0",,,,,,,,,,,,,,,,,,,,,,,,,,,,,,,,,,,,,"MET09006/23/21 22:51:01 METAR KALB 240351Z 00000KT 10SM CLR 11/08 A3030 RMK AO2 SLP262 T01110078","FM-15","7",,,,,,,,,,,,,,,,,,,,,,,,,,,,"2006-09-08"
"72518014735","2021-06-23T23:51:00","FM-15","7",,,,,"PRECIP","260",,"PLASTIC","42.6918","-73.83109","NWS ALBANY, NY",,,,,,,,,,,,,,,,,,,,,,,,,,,"30.31","45","49","0.00",,,,"86","30.31","CLR:00","29.99","10.00","47","000",,"0",,,,,,,,,,,,,,,,,,,,,,,,,,,,,,,,,,,,,"MET10006/23/21 23:51:01 METAR KALB 240451Z 00000KT 10SM CLR 09/07 A3031 RMK AO2 SLP265 T00940072 402110078","FM-15","7",,,,,,,,,,,,,,,,,,,,,,,,,,,,"2006-09-08"
"72518014735","2021-06-23T23:59:00","SOD  ","6",,,,,"PRECIP","260",,"PLASTIC","42.6918","-73.83109","NWS ALBANY, NY",,,,,"58",,,"29.80",,"6.3","0","-11.1","7","70","46","270","24","0.00","0","0.0","280","16",,,,,,,,,,,,,,,,,,,,,,,,,,,,,,,,,,,,,,,,,,,,,,,,,,,,,,,,,"SOD73924 HR PRECIPITATION (IN): 0.00 SNOW DEPTH (IN):0     24 HR SNOWFALL (IN):0.0  24 HR MAX TEMP (F): 7024 HR MIN TEMP (F): 46AVERAGE STATION PRESSURE:29.805 MINIMUM SEA LEVEL PRESSURE:29.97 TIME OF OCCURRENCE:0119 PEAK WIND SPEED (MPH): 24 PEAK WIND DIR (DEG):270 PEAK WIND TIME (LST):      FASTEST 2MIN SPEED (MPH): 16FASTEST 2MIN DIR (DEG):280 FASTEST 2MIN TIME (LST):     AVERAGE WIND SPEED (MPH): 6.3 24 HR AVG TEMP (F): 58DEPART FROM NORMAL:-12  HEATING DEGREE DAYS:  7 COOLING DEGREE DAYS:  0 LATEST DAY MAX TEMP (0700-1900 LST):70  LATEST NIGHT MIN TEMP(1900-0800 LST):46 HOURLY INCREMENTAL PRECIPITATION VALUES (IN):.00 0.00 0.00 0.00 0.00 0.00 0.00 0.00 0.00 0.00 0.00 0.00 0.00 0.00 0.00 0.00 0.00 0.00 0.00 0.00 0.00 0.00 0.00 0.00","SOD  ","6",,,,,,,,,,,,,,,,,,,,,,,,,"0417","1937",,"2006-09-08"
"72518014735","2021-06-24T00:51:00","FM-15","7",,,,,"PRECIP","260",,"PLASTIC","42.6918","-73.83109","NWS ALBANY, NY",,,,,,,,,,,,,,,,,,,,,,,,,,,"30.31","47","49","0.00",,"-0.02","0","93","30.31","CLR:00","29.99","10.00","48","000",,"0",,,,,,,,,,,,,,,,,,,,,,,,,,,,,,,,,,,,,"MET11306/24/21 00:51:02 METAR KALB 240551Z 00000KT 10SM CLR 09/08 A3031 RMK AO2 SLP264 T00940083 10183 20083 50007 (BA)","FM-15","7",,,,,,,,,,,,,,,,,,,,,,,,,,,,"2006-09-08"
"72518014735","2021-06-24T01:00:00","FM-12","4",,,,,"PRECIP","260",,"PLASTIC","42.6918","-73.83109","NWS ALBANY, NY",,,,,,,,,,,,,,,,,,,,,,,,,,,,"47","49",,,"0.02","9","93","30.31",,"29.99","9.94","48","000",,"0",,,,,,,,,,,,,,,,,,,,,,,,,,,,,,,,,,,,,"SYN08072518 32966 00000 10094 20083 30156 40264 50007 90551 333 10183 20078 555 92406=","FM-12","4",,,,,,,,,,,,,,,,,,,,,,,,,,,,"2006-09-08"
"72518014735","2021-06-24T01:51:00","FM-15","7",,,,,"PRECIP","260",,"PLASTIC","42.6918","-73.83109","NWS ALBANY, NY",,,,,,,,,,,,,,,,,,,,,,,,,,,"30.32","46","47","0.00",,,,"97","30.32","CLR:00","30.00","10.00","47","000",,"0",,,,,,,,,,,,,,,,,,,,,,,,,,,,,,,,,,,,,"MET09506/24/21 01:51:02 METAR KALB 240651Z 00000KT 10SM CLR 08/08 A3032 RMK AO2 SLP267 T00830078 (BA)","FM-15","7",,,,,,,,,,,,,,,,,,,,,,,,,,,,"2006-09-08"
"72518014735","2021-06-24T02:51:00","FM-15","7",,,,,"PRECIP","260",,"PLASTIC","42.6918","-73.83109","NWS ALBANY, NY",,,,,,,,,,,,,,,,,,,,,,,,,,,"30.33","47","47","0.00",,,,"100","30.33","FEW:02 250","30.01","10.00","47","000",,"0",,,,,,,,,,,,,,,,,,,,,,,,,,,,,,,,,,,,,"MET09806/24/21 02:51:02 METAR KALB 240751Z 00000KT 10SM FEW250 08/08 A3033 RMK AO2 SLP272 T00830083 (BA)","FM-15","7",,,,,,,,,,,,,,,,,,,,,,,,,,,,"2006-09-08"
"72518014735","2021-06-24T03:51:00","FM-15","7",,,,,"PRECIP","260",,"PLASTIC","42.6918","-73.83109","NWS ALBANY, NY",,,,,,,,,,,,,,,,,,,,,,,,,,,"30.34","47","47","0.00",,"-0.03","3","100","30.34","FEW:02 250","30.02","10.00","47","000",,"0",,,,,,,,,,,,,,,,,,,,,,,,,,,,,,,,,,,,,"MET10406/24/21 03:51:02 METAR KALB 240851Z 00000KT 10SM FEW250 08/08 A3034 RMK AO2 SLP275 T00830083 53011 (BA)","FM-15","7",,,,,,,,,,,,,,,,,,,,,,,,,,,,"2006-09-08"
"72518014735","2021-06-24T04:00:00","FM-12","4",,,,,"PRECIP","260",,"PLASTIC","42.6918","-73.83109","NWS ALBANY, NY",,,,,,,,,,,,,,,,,,,,,,,,,,,,"47","47",,,"-0.03","3","100","30.34",,"30.02","9.94","47","000",,"0",,,,,,,,,,,,,,,,,,,,,,,,,,,,,,,,,,,,,"SYN06472518 32966 20000 10083 20083 30166 40275 53011 90851 555 92409=","FM-12","4",,,,,,,,,,,,,,,,,,,,,,,,,,,,"2006-09-08"
"72518014735","2021-06-24T04:51:00","FM-15","7",,,,,"PRECIP","260",,"PLASTIC","42.6918","-73.83109","NWS ALBANY, NY",,,,,,,,,,,,,,,,,,,,,,,,,,,"30.36","47","47","0.00","BC:3 FG:2 |FG |",,,"100","30.36","FEW:02 250","30.04","10.00","47","000",,"0",,,,,,,,,,,,,,,,,,,,,,,,,,,,,,,,,,,,,"MET11006/24/21 04:51:02 METAR KALB 240951Z 00000KT 10SM BCFG FEW250 08/08 A3036 RMK AO2 SLP282 BCFG N T00830083 (BA)","FM-15","7",,,,,,,,,,,,,,,,,,,,,,,,,,,,"2006-09-08"
"72518014735","2021-06-24T05:48:00","FM-16","7",,,,,"PRECIP","260",,"PLASTIC","42.6918","-73.83109","NWS ALBANY, NY",,,,,,,,,,,,,,,,,,,,,,,,,,,"30.38","48","50",,"BC:3 FG:2 |FG |",,,"94",,"FEW:02 2 FEW:02 250","30.06","10.00","49","000",,"0",,,,,,,,,,,,,,,,,,,,,,,,,,,,,,,,,,,,,"MET10806/24/21 05:48:02 SPECI KALB 241048Z 00000KT 10SM BCFG FEW002 FEW250 10/09 A3038 RMK AO2 BCFG N VCFG SW (BA)","FM-16","7",,,,,,,,,,,,,,,,,,,,,,,,,,,,"2006-09-08"
"72518014735","2021-06-24T05:51:00","FM-15","7",,,,,"PRECIP","260",,"PLASTIC","42.6918","-73.83109","NWS ALBANY, NY",,,,,,,,,,,,,,,,,,,,,,,,,,,"30.38","49","50","0.00","BC:3 FG:2 |FG |",,,"96","30.38","FEW:02 2 FEW:02 250","30.06","10.00","49","000",,"0",,,,,,,,,,,,,,,,,,,,,,,,,,,,,,,,,,,,,"MET12506/24/21 05:51:02 METAR KALB 241051Z 00000KT 10SM BCFG FEW002 FEW250 10/09 A3038 RMK AO2 SLP289 BCFG N VCFG SW T01000094 (BA)","FM-15","7",,,,,,,,,,,,,,,,,,,,,,,,,,,,"2006-09-08"
"72518014735","2021-06-24T06:51:00","FM-15","7",,,,,"PRECIP","260",,"PLASTIC","42.6918","-73.83109","NWS ALBANY, NY",,,,,,,,,,,,,,,,,,,,,,,,,,,"30.38","50","56","0.00",,"-0.02","1","81","30.38","FEW:02 250","30.06","10.00","53","150",,"3",,,,,,,,,,,,,,,,,,,,,,,,,,,,,,,,,,,,,"MET11606/24/21 06:51:02 METAR KALB 241151Z 15003KT 10SM FEW250 13/10 A3038 RMK AO2 SLP288 T01330100 10133 20072 51007 (BA)","FM-15","7",,,,,,,,,,,,,,,,,,,,,,,,,,,,"2006-09-08"
"72518014735","2021-06-24T07:00:00","FM-12","4",,,,,"PRECIP","260",,"PLASTIC","42.6918","-73.83109","NWS ALBANY, NY",,,,,,,,,,,,,,,,,,,,,,,,,,,,"50","56",,,"-0.02","1","81","30.38",,"30.06","9.94","53","150",,"3",,,,,,,,,,,,,,,,,,,,,,,,,,,,,,,,,,,,,"SYN08072518 32966 21503 10133 20100 30180 40288 51007 91151 333 10211 20072 555 92412=","FM-12","4",,,,,,,,,,,,,,,,,,,,,,,,,,,,"2006-09-08"
"72518014735","2021-06-24T07:51:00","FM-15","7",,,,,"PRECIP","260",,"PLASTIC","42.6918","-73.83109","NWS ALBANY, NY",,,,,,,,,,,,,,,,,,,,,,,,,,,"30.39","50","62","0.00",,,,"65","30.38","FEW:02 250","30.07","10.00","56","VRB",,"5",,,,,,,,,,,,,,,,,,,,,,,,,,,,,,,,,,,,,"MET09806/24/21 07:51:02 METAR KALB 241251Z VRB04KT 10SM FEW250 17/10 A3039 RMK AO2 SLP289 T01670100 (JB)","FM-15","7",,,,,,,,,,,,,,,,,,,,,,,,,,,,"2006-09-08"
"72518014735","2021-06-24T08:51:00","FM-15","7",,,,,"PRECIP","260",,"PLASTIC","42.6918","-73.83109","NWS ALBANY, NY",,,,,,,,,,,,,,,,,,,,,,,,,,,"30.38","49","65","0.00",,,,"56","30.37","FEW:02 35 FEW:02 250","30.06","10.00","56","160",,"10",,,,,,,,,,,,,,,,,,,,,,,,,,,,,,,,,,,,,"MET10506/24/21 08:51:02 METAR KALB 241351Z 16009KT 10SM FEW035 FEW250 18/09 A3038 RMK AO2 SLP286 T01830094 (JB)","FM-15","7",,,,,,,,,,,,,,,,,,,,,,,,,,,,"2006-09-08"
"72518014735","2021-06-24T09:51:00","FM-15","7",,,,,"PRECIP","260",,"PLASTIC","42.6918","-73.83109","NWS ALBANY, NY",,,,,,,,,,,,,,,,,,,,,,,,,,,"30.36","50","70","0.00",,"+0.02","8","49","30.36","FEW:02 45 FEW:02 250","30.04","10.00","59","160",,"13",,,,,,,,,,,,,,,,,,,,,,,,,,,,,,,,,,,,,"MET11106/24/21 09:51:02 METAR KALB 241451Z 16011KT 10SM FEW045 FEW250 21/10 A3036 RMK AO2 SLP281 T02110100 58007 (JB)","FM-15","7",,,,,,,,,,,,,,,,,,,,,,,,,,,,"2006-09-08"
"72518014735","2021-06-24T10:00:00","FM-12","4",,,,,"PRECIP","260",,"PLASTIC","42.6918","-73.83109","NWS ALBANY, NY",,,,,,,,,,,,,,,,,,,,,,,,,,,,"50","70",,,"+0.02","8","49","30.36","41","30.04","9.94","59","160",,"13",,,,,,,,,,,,,,,,,,,,,,,,,,,,,,,,,,,,,"SYN06472518 32666 21611 10211 20100 30173 40281 58007 91451 555 92415=","FM-12","4",,,,,,,,,,,,,,,,,,,,,,,,,,,,"2006-09-08"
"72518014735","2021-06-24T10:51:00","FM-15","7",,,,,"PRECIP","260",,"PLASTIC","42.6918","-73.83109","NWS ALBANY, NY",,,,,,,,,,,,,,,,,,,,,,,,,,,"30.36","46","72","0.00",,,,"40","30.36","FEW:02 55 FEW:02 250","30.04","10.00","58","160","21","11",,,,,,,,,,,,,,,,,,,,,,,,,,,,,,,,,,,,,"MET10806/24/21 10:51:02 METAR KALB 241551Z 16010G18KT 10SM FEW055 FEW250 22/08 A3036 RMK AO2 SLP281 T02220078 (JB)","FM-15","7",,,,,,,,,,,,,,,,,,,,,,,,,,,,"2006-09-08"
"72518014735","2021-06-24T11:51:00","FM-15","7",,,,,"PRECIP","260",,"PLASTIC","42.6918","-73.83109","NWS ALBANY, NY",,,,,,,,,,,,,,,,,,,,,,,,,,,"30.36","48","74","0.00",,,,"40","30.36","FEW:02 65 FEW:02 250","30.04","10.00","59","180","20","15",,,,,,,,,,,,,,,,,,,,,,,,,,,,,,,,,,,,,"MET10806/24/21 11:51:02 METAR KALB 241651Z 18013G17KT 10SM FEW065 FEW250 23/09 A3036 RMK AO2 SLP280 T02330089 (JB)","FM-15","7",,,,,,,,,,,,,,,,,,,,,,,,,,,,"2006-09-08"
"72518014735","2021-06-24T12:51:00","FM-15","7",,,,,"PRECIP","260",,"PLASTIC","42.6918","-73.83109","NWS ALBANY, NY",,,,,,,,,,,,,,,,,,,,,,,,,,,"30.36","49","74","0.00",,"+0.00","5","41","30.36","SCT:04 65","30.04","10.00","60","180","20","10",,,,,,,,,,,,,,,,,,,,,,,,,,,,,,,,,,,,,"MET11906/24/21 12:51:02 METAR KALB 241751Z 18009G17KT 10SM SCT065 23/09 A3036 RMK AO2 SLP281 T02330094 10239 20133 55000 (JB)","FM-15","7",,,,,,,,,,,,,,,,,,,,,,,,,,,,"2006-09-08"
"72518014735","2021-06-24T13:00:00","FM-12","4",,,,,"PRECIP","260",,"PLASTIC","42.6918","-73.83109","NWS ALBANY, NY",,,,,,,,,,,,,,,,,,,,,,,,,,,,"49","74",,,"+0.00","5","41","30.36","57","30.04","9.94","60","180",,"10",,,,,,,,,,,,,,,,,,,,,,,,,,,,,,,,,,,,,"SYN08672518 32766 41809 10233 20094 30173 40281 55000 91751 333 10239 20133 91017 555 92418=","FM-12","4",,,,,,,,,,,,,,,,,,,,,,,,,,,,"2006-09-08"
"72518014735","2021-06-24T13:51:00","FM-15","7",,,,,"PRECIP","260",,"PLASTIC","42.6918","-73.83109","NWS ALBANY, NY",,,,,,,,,,,,,,,,,,,,,,,,,,,"30.33","49","75","0.00",,,,"40","30.33","FEW:02 70","30.01","10.00","60","190",,"13",,,,,,,,,,,,,,,,,,,,,,,,,,,,,,,,,,,,,"MET09806/24/21 13:51:02 METAR KALB 241851Z 19011KT 10SM FEW070 24/09 A3033 RMK AO2 SLP271 T02390094 (JB)","FM-15","7",,,,,,,,,,,,,,,,,,,,,,,,,,,,"2006-09-08"
"72518014735","2021-06-24T14:51:00","FM-15","7",,,,,"PRECIP","260",,"PLASTIC","42.6918","-73.83109","NWS ALBANY, NY",,,,,,,,,,,,,,,,,,,,,,,,,,,"30.32","50","75","0.00",,,,"41","30.32","FEW:02 65","30.00","10.00","61","180",,"14",,,,,,,,,,,,,,,,,,,,,,,,,,,,,,,,,,,,,"MET09806/24/21 14:51:02 METAR KALB 241951Z 18012KT 10SM FEW065 24/10 A3032 RMK AO2 SLP266 T02390100 (JF)","FM-15","7",,,,,,,,,,,,,,,,,,,,,,,,,,,,"2006-09-08"
"72518014735","2021-06-24T15:51:00","FM-15","7",,,,,"PRECIP","260",,"PLASTIC","42.6918","-73.83109","NWS ALBANY, NY",,,,,,,,,,,,,,,,,,,,,,,,,,,"30.29","48","75","0.00",,"+0.07","8","39","30.28","FEW:02 65","29.97","10.00","60","160","20","10",,,,,,,,,,,,,,,,,,,,,,,,,,,,,,,,,,,,,"MET10706/24/21 15:51:02 METAR KALB 242051Z 16009G17KT 10SM FEW065 24/09 A3029 RMK AO2 SLP255 T02390089 58025 (JF)","FM-15","7",,,,,,,,,,,,,,,,,,,,,,,,,,,,"2006-09-08"
"72518014735","2021-06-24T16:00:00","FM-12","4",,,,,"PRECIP","260",,"PLASTIC","42.6918","-73.83109","NWS ALBANY, NY",,,,,,,,,,,,,,,,,,,,,,,,,,,,"48","75",,,"+0.07","8","39","30.28","57","29.97","9.94","60","160",,"10",,,,,,,,,,,,,,,,,,,,,,,,,,,,,,,,,,,,,"SYN07472518 32766 21609 10239 20089 30149 40255 58025 92051 333 91017 555 92421=","FM-12","4",,,,,,,,,,,,,,,,,,,,,,,,,,,,"2006-09-08"
"72518014735","2021-06-24T16:51:00","FM-15","7",,,,,"PRECIP","260",,"PLASTIC","42.6918","-73.83109","NWS ALBANY, NY",,,,,,,,,,,,,,,,,,,,,,,,,,,"30.27","48","75","0.00",,,,"39","30.27","FEW:02 260","29.95","10.00","60","170","22","16",,,,,,,,,,,,,,,,,,,,,,,,,,,,,,,,,,,,,"MET10106/24/21 16:51:02 METAR KALB 242151Z 17014G19KT 10SM FEW260 24/09 A3027 RMK AO2 SLP251 T02390089 (JF)","FM-15","7",,,,,,,,,,,,,,,,,,,,,,,,,,,,"2006-09-08"
"72518014735","2021-06-24T17:51:00","FM-15","7",,,,,"PRECIP","260",,"PLASTIC","42.6918","-73.83109","NWS ALBANY, NY",,,,,,,,,,,,,,,,,,,,,,,,,,,"30.27","48","73","0.00",,,,"41","30.27","FEW:02 260","29.95","10.00","59","190","21","11",,,,,,,,,,,,,,,,,,,,,,,,,,,,,,,,,,,,,"MET10106/24/21 17:51:02 METAR KALB 242251Z 19010G18KT 10SM FEW260 23/09 A3027 RMK AO2 SLP250 T02280089 (JF)","FM-15","7",,,,,,,,,,,,,,,,,,,,,,,,,,,,"2006-09-08"
"72518014735","2021-06-24T18:51:00","FM-15","7",,,,,"PRECIP","260",,"PLASTIC","42.6918","-73.83109","NWS ALBANY, NY",,,,,,,,,,,,,,,,,,,,,,,,,,,"30.28","49","71","0.00",,"+0.00","5","46","30.28","FEW:02 260","29.96","10.00","59","180",,"9",,,,,,,,,,,,,,,,,,,,,,,,,,,,,,,,,,,,,"MET11606/24/21 18:51:02 METAR KALB 242351Z 18008KT 10SM FEW260 22/09 A3028 RMK AO2 SLP255 T02170094 10244 20217 55001 (JF)","FM-15","7",,,,,,,,,,,,,,,,,,,,,,,,,,,,"2006-09-08"
"72518014735","2021-06-24T19:00:00","FM-12","4",,,,,"PRECIP","260",,"PLASTIC","42.6918","-73.83109","NWS ALBANY, NY",,,,,,,,,,,,,,,,,,,,,,,,,,,,"49","71",,,"+0.00","5","46","30.28",,"29.96","9.94","59","180",,"9",,,,,,,,,,,,,,,,,,,,,,,,,,,,,,,,,,,,,"SYN08072518 32966 21808 10217 20094 30146 40255 55001 92351 333 10244 20072 555 92500=","FM-12","4",,,,,,,,,,,,,,,,,,,,,,,,,,,,"2006-09-08"
"72518014735","2021-06-24T19:51:00","FM-15","7",,,,,"PRECIP","260",,"PLASTIC","42.6918","-73.83109","NWS ALBANY, NY",,,,,,,,,,,,,,,,,,,,,,,,,,,"30.31","49","67","0.00",,,,"53","30.30","FEW:02 260","29.99","10.00","57","180",,"7",,,,,,,,,,,,,,,,,,,,,,,,,,,,,,,,,,,,,"MET09306/24/21 19:51:01 METAR KALB 250051Z 18006KT 10SM FEW260 19/09 A3031 RMK AO2 SLP262 T01940094","FM-15","7",,,,,,,,,,,,,,,,,,,,,,,,,,,,"2006-09-08"
"72518014735","2021-06-24T20:51:00","FM-15","7",,,,,"PRECIP","260",,"PLASTIC","42.6918","-73.83109","NWS ALBANY, NY",,,,,,,,,,,,,,,,,,,,,,,,,,,"30.32","47","66","0.00",,,,"50","30.32","FEW:02 260","30.00","10.00","56","160",,"8",,,,,,,,,,,,,,,,,,,,,,,,,,,,,,,,,,,,,"MET09306/24/21 20:51:01 METAR KALB 250151Z 16007KT 10SM FEW260 19/08 A3032 RMK AO2 SLP267 T01890083","FM-15","7",,,,,,,,,,,,,,,,,,,,,,,,,,,,"2006-09-08"
"72518014735","2021-06-24T21:51:00","FM-15","7",,,,,"PRECIP","260",,"PLASTIC","42.6918","-73.83109","NWS ALBANY, NY",,,,,,,,,,,,,,,,,,,,,,,,,,,"30.33","48","64","0.00",,"-0.05","1","56","30.33","FEW:02 260","30.01","10.00","55","160",,"9",,,,,,,,,,,,,,,,,,,,,,,,,,,,,,,,,,,,,"MET09906/24/21 21:51:01 METAR KALB 250251Z 16008KT 10SM FEW260 18/09 A3033 RMK AO2 SLP272 T01780089 51017","FM-15","7",,,,,,,,,,,,,,,,,,,,,,,,,,,,"2006-09-08"
"72518014735","2021-06-24T22:00:00","FM-12","4",,,,,"PRECIP","260",,"PLASTIC","42.6918","-73.83109","NWS ALBANY, NY",,,,,,,,,,,,,,,,,,,,,,,,,,,,"48","64",,,"-0.05","1","56","30.33",,"30.01","9.94","55","160",,"9",,,,,,,,,,,,,,,,,,,,,,,,,,,,,,,,,,,,,"SYN06472518 32966 21608 10178 20089 30163 40272 51017 90251 555 92503=","FM-12","4",,,,,,,,,,,,,,,,,,,,,,,,,,,,"2006-09-08"
"72518014735","2021-06-24T22:51:00","FM-15","7",,,,,"PRECIP","260",,"PLASTIC","42.6918","-73.83109","NWS ALBANY, NY",,,,,,,,,,,,,,,,,,,,,,,,,,,"30.33","49","62","0.00",,,,"62","30.32","FEW:02 260","30.01","10.00","55","150",,"7",,,,,,,,,,,,,,,,,,,,,,,,,,,,,,,,,,,,,"MET09306/24/21 22:51:01 METAR KALB 250351Z 15006KT 10SM FEW260 17/09 A3033 RMK AO2 SLP269 T01670094","FM-15","7",,,,,,,,,,,,,,,,,,,,,,,,,,,,"2006-09-08"
"72518014735","2021-06-24T23:51:00","FM-15","7",,,,,"PRECIP","260",,"PLASTIC","42.6918","-73.83109","NWS ALBANY, NY",,,,,,,,,,,,,,,,,,,,,,,,,,,"30.32","50","60","0.00",,,,"70","30.32","SCT:04 260","30.00","10.00","55","140",,"8",,,,,,,,,,,,,,,,,,,,,,,,,,,,,,,,,,,,,"MET10306/24/21 23:51:01 METAR KALB 250451Z 14007KT 10SM SCT260 16/10 A3032 RMK AO2 SLP266 T01560100 402440072","FM-15","7",,,,,,,,,,,,,,,,,,,,,,,,,,,,"2006-09-08"
"72518014735","2021-06-24T23:59:00","SOD  ","6",,,,,"PRECIP","260",,"PLASTIC","42.6918","-73.83109","NWS ALBANY, NY",,,,,"61",,,"30.01",,"7.5","0","-8.3","4","76","45","200","27","0.00","0","0.0","190","20","FG",,,,,,,,,,,,,,,,,,,,,,,,,,,,,,,,,,,,,,,,,,,,,,,,,,,,,,,,"SOD75624 HR PRECIPITATION (IN): 0.00 SNOW DEPTH (IN):0     24 HR SNOWFALL (IN):0.0  WEATHER(CODE):1  24 HR MAX TEMP (F): 7624 HR MIN TEMP (F): 45AVERAGE STATION PRESSURE:30.010 MINIMUM SEA LEVEL PRESSURE:30.27 TIME OF OCCURRENCE:1816 PEAK WIND SPEED (MPH): 27 PEAK WIND DIR (DEG):200 PEAK WIND TIME (LST):      FASTEST 2MIN SPEED (MPH): 20FASTEST 2MIN DIR (DEG):190 FASTEST 2MIN TIME (LST):     AVERAGE WIND SPEED (MPH): 7.5 24 HR AVG TEMP (F): 61DEPART FROM NORMAL:-10  HEATING DEGREE DAYS:  4 COOLING DEGREE DAYS:  0 LATEST DAY MAX TEMP (0700-1900 LST):76  LATEST NIGHT MIN TEMP(1900-0800 LST):45 HOURLY INCREMENTAL PRECIPITATION VALUES (IN):.00 0.00 0.00 0.00 0.00 0.00 0.00 0.00 0.00 0.00 0.00 0.00 0.00 0.00 0.00 0.00 0.00 0.00 0.00 0.00 0.00 0.00 0.00 0.00","SOD  ","6",,,,,,,,,,,,,,,,,,,,,,,,,"0418","1937",,"2006-09-08"
"72518014735","2021-06-25T00:51:00","FM-15","7",,,,,"PRECIP","260",,"PLASTIC","42.6918","-73.83109","NWS ALBANY, NY",,,,,,,,,,,,,,,,,,,,,,,,,,,"30.31","50","59","0.00",,"+0.03","8","72","30.30","SCT:04 260","29.99","10.00","54","150",,"7",,,,,,,,,,,,,,,,,,,,,,,,,,,,,,,,,,,,,"MET11606/25/21 00:51:02 METAR KALB 250551Z 15006KT 10SM SCT260 15/10 A3031 RMK AO2 SLP262 T01500100 10217 20144 58010 (BA)","FM-15","7",,,,,,,,,,,,,,,,,,,,,,,,,,,,"2006-09-08"
"72518014735","2021-06-25T01:00:00","FM-12","4",,,,,"PRECIP","260",,"PLASTIC","42.6918","-73.83109","NWS ALBANY, NY",,,,,,,,,,,,,,,,,,,,,,,,,,,,"50","59",,,"+0.03","8","72","30.30",,"29.99","9.94","54","150",,"7",,,,,,,,,,,,,,,,,,,,,,,,,,,,,,,,,,,,,"SYN08072518 32966 41506 10150 20100 30156 40262 58010 90551 333 10217 20072 555 92506=","FM-12","4",,,,,,,,,,,,,,,,,,,,,,,,,,,,"2006-09-08"
"72518014735","2021-06-25T01:51:00","FM-15","7",,,,,"PRECIP","260",,"PLASTIC","42.6918","-73.83109","NWS ALBANY, NY",,,,,,,,,,,,,,,,,,,,,,,,,,,"30.31","49","57","0.00",,,,"74","30.30","FEW:02 260","29.99","10.00","53","140",,"5",,,,,,,,,,,,,,,,,,,,,,,,,,,,,,,,,,,,,"MET09806/25/21 01:51:02 METAR KALB 250651Z 14004KT 10SM FEW260 14/09 A3031 RMK AO2 SLP262 T01390094 (BA)","FM-15","7",,,,,,,,,,,,,,,,,,,,,,,,,,,,"2006-09-08"
"72518014735","2021-06-25T02:51:00","FM-15","7",,,,,"PRECIP","260",,"PLASTIC","42.6918","-73.83109","NWS ALBANY, NY",,,,,,,,,,,,,,,,,,,,,,,,,,,"30.30","49","55","0.00",,,,"80","30.30","FEW:02 260","29.98","10.00","52","000",,"0",,,,,,,,,,,,,,,,,,,,,,,,,,,,,,,,,,,,,"MET09806/25/21 02:51:02 METAR KALB 250751Z 00000KT 10SM FEW260 13/09 A3030 RMK AO2 SLP261 T01280094 (BA)","FM-15","7",,,,,,,,,,,,,,,,,,,,,,,,,,,,"2006-09-08"
"72518014735","2021-06-25T03:51:00","FM-15","7",,,,,"PRECIP","260",,"PLASTIC","42.6918","-73.83109","NWS ALBANY, NY",,,,,,,,,,,,,,,,,,,,,,,,,,,"30.30","48","51","0.00",,"+0.00","8","89","30.30","FEW:02 40 FEW:02 260","29.98","10.00","49","000",,"0",,,,,,,,,,,,,,,,,,,,,,,,,,,,,,,,,,,,,"MET11106/25/21 03:51:02 METAR KALB 250851Z 00000KT 10SM FEW040 FEW260 11/09 A3030 RMK AO2 SLP260 T01060089 58001 (BA)","FM-15","7",,,,,,,,,,,,,,,,,,,,,,,,,,,,"2006-09-08"
"72518014735","2021-06-25T04:00:00","FM-12","4",,,,,"PRECIP","260",,"PLASTIC","42.6918","-73.83109","NWS ALBANY, NY",,,,,,,,,,,,,,,,,,,,,,,,,,,,"48","51",,,"+0.00","8","89","30.30","41","29.98","9.94","49","000",,"0",,,,,,,,,,,,,,,,,,,,,,,,,,,,,,,,,,,,,"SYN06472518 32666 20000 10106 20089 30153 40260 58001 90851 555 92509=","FM-12","4",,,,,,,,,,,,,,,,,,,,,,,,,,,,"2006-09-08"
"72518014735","2021-06-25T04:51:00","FM-15","7",,,,,"PRECIP","260",,"PLASTIC","42.6918","-73.83109","NWS ALBANY, NY",,,,,,,,,,,,,,,,,,,,,,,,,,,"30.31","49","52","0.00",,,,"89","30.30","FEW:02 40 FEW:02 180 SCT:04 250","29.99","10.00","50","000",,"0",,,,,,,,,,,,,,,,,,,,,,,,,,,,,,,,,,,,,"MET11206/25/21 04:51:02 METAR KALB 250951Z 00000KT 10SM FEW040 FEW180 SCT250 11/09 A3031 RMK AO2 SLP262 T01110094 (BA)","FM-15","7",,,,,,,,,,,,,,,,,,,,,,,,,,,,"2006-09-08"
"72518014735","2021-06-25T05:51:00","FM-15","7",,,,,"PRECIP","260",,"PLASTIC","42.6918","-73.83109","NWS ALBANY, NY",,,,,,,,,,,,,,,,,,,,,,,,,,,"30.33","50","55","0.00",,,,"83","30.33","FEW:02 20 FEW:02 150 SCT:04 250","30.01","10.00","52","210",,"3",,,,,,,,,,,,,,,,,,,,,,,,,,,,,,,,,,,,,"MET11206/25/21 05:51:02 METAR KALB 251051Z 21003KT 10SM FEW020 FEW150 SCT250 13/10 A3033 RMK AO2 SLP271 T01280100 (BA)","FM-15","7",,,,,,,,,,,,,,,,,,,,,,,,,,,,"2006-09-08"
"72518014735","2021-06-25T06:51:00","FM-15","7",,,,,"PRECIP","260",,"PLASTIC","42.6918","-73.83109","NWS ALBANY, NY",,,,,,,,,,,,,,,,,,,,,,,,,,,"30.34","50","59","0.00",,"-0.04","1","72","30.34","FEW:02 24 SCT:04 150 SCT:04 250","30.02","10.00","54","VRB",,"5",,,,,,,,,,,,,,,,,,,,,,,,,,,,,,,,,,,,,"MET13006/25/21 06:51:02 METAR KALB 251151Z VRB04KT 10SM FEW024 SCT150 SCT250 15/10 A3034 RMK AO2 SLP273 T01500100 10150 20106 51013 (BA)","FM-15","7",,,,,,,,,,,,,,,,,,,,,,,,,,,,"2006-09-08"
"72518014735","2021-06-25T07:00:00","FM-12","4",,,,,"PRECIP","260",,"PLASTIC","42.6918","-73.83109","NWS ALBANY, NY",,,,,,,,,,,,,,,,,,,,,,,,,,,,"50","59",,,"-0.04","1","72","30.34","26","30.02","9.94","54",,,"5",,,,,,,,,,,,,,,,,,,,,,,,,,,,,,,,,,,,,"SYN08072518 32566 4//04 10150 20100 30166 40273 51013 91151 333 10244 20106 555 92512=","FM-12","4",,,,,,,,,,,,,,,,,,,,,,,,,,,,"2006-09-08"
"72518014735","2021-06-25T07:51:00","FM-15","7",,,,,"PRECIP","260",,"PLASTIC","42.6918","-73.83109","NWS ALBANY, NY",,,,,,,,,,,,,,,,,,,,,,,,,,,"30.33","50","62","0.00",,,,"65","30.32","FEW:02 25 FEW:02 150 BKN:07 250","30.01","10.00","56","160",,"7",,,,,,,,,,,,,,,,,,,,,,,,,,,,,,,,,,,,,"MET11206/25/21 07:51:02 METAR KALB 251251Z 16006KT 10SM FEW025 FEW150 BKN250 17/10 A3033 RMK AO2 SLP269 T01670100 (JB)","FM-15","7",,,,,,,,,,,,,,,,,,,,,,,,,,,,"2006-09-08"
"72518014735","2021-06-25T08:51:00","FM-15","7",,,,,"PRECIP","260",,"PLASTIC","42.6918","-73.83109","NWS ALBANY, NY",,,,,,,,,,,,,,,,,,,,,,,,,,,"30.30","50","65","0.00",,,,"59","30.29","FEW:02 30 SCT:04 150 BKN:07 250","29.98","10.00","57","150",,"6",,,,,,,,,,,,,,,,,,,,,,,,,,,,,,,,,,,,,"MET11206/25/21 08:51:02 METAR KALB 251351Z 15005KT 10SM FEW030 SCT150 BKN250 18/10 A3030 RMK AO2 SLP259 T01830100 (JB)","FM-15","7",,,,,,,,,,,,,,,,,,,,,,,,,,,,"2006-09-08"
"72518014735","2021-06-25T09:51:00","FM-15","7",,,,,"PRECIP","260",,"PLASTIC","42.6918","-73.83109","NWS ALBANY, NY",,,,,,,,,,,,,,,,,,,,,,,,,,,"30.29","51","70","0.00",,"+0.05","6","51","30.28","FEW:02 30 FEW:02 180 BKN:07 250","29.97","10.00","59","130",,"8",,,,,,,,,,,,,,,,,,,,,,,,,,,,,,,,,,,,,"MET11806/25/21 09:51:02 METAR KALB 251451Z 13007KT 10SM FEW030 FEW180 BKN250 21/11 A3029 RMK AO2 SLP255 T02110106 56017 (JB)","FM-15","7",,,,,,,,,,,,,,,,,,,,,,,,,,,,"2006-09-08"
"72518014735","2021-06-25T10:00:00","FM-12","4",,,,,"PRECIP","260",,"PLASTIC","42.6918","-73.83109","NWS ALBANY, NY",,,,,,,,,,,,,,,,,,,,,,,,,,,,"51","70",,,"+0.05","6","51","30.28","26","29.97","9.94","59","130",,"8",,,,,,,,,,,,,,,,,,,,,,,,,,,,,,,,,,,,,"SYN06472518 32566 61307 10211 20106 30149 40255 56017 91451 555 92515=","FM-12","4",,,,,,,,,,,,,,,,,,,,,,,,,,,,"2006-09-08"
"72518014735","2021-06-25T10:51:00","FM-15","7",,,,,"PRECIP","260",,"PLASTIC","42.6918","-73.83109","NWS ALBANY, NY",,,,,,,,,,,,,,,,,,,,,,,,,,,"30.27","51","71","0.00",,,,"49","30.27","FEW:02 30 FEW:02 180 BKN:07 250","29.95","10.00","60","190",,"6",,,,,,,,,,,,,,,,,,,,,,,,,,,,,,,,,,,,,"MET11206/25/21 10:51:02 METAR KALB 251551Z 19005KT 10SM FEW030 FEW180 BKN250 22/11 A3027 RMK AO2 SLP251 T02170106 (JB)","FM-15","7",,,,,,,,,,,,,,,,,,,,,,,,,,,,"2006-09-08"
"72518014735","2021-06-25T11:51:00","FM-15","7",,,,,"PRECIP","260",,"PLASTIC","42.6918","-73.83109","NWS ALBANY, NY",,,,,,,,,,,,,,,,,,,,,,,,,,,"30.24","54","74","0.00",,,,"50","30.24","FEW:02 35 FEW:02 180 BKN:07 250","29.92","10.00","62","VRB",,"6",,,,,,,,,,,,,,,,,,,,,,,,,,,,,,,,,,,,,"MET11206/25/21 11:51:02 METAR KALB 251651Z VRB05KT 10SM FEW035 FEW180 BKN250 23/12 A3024 RMK AO2 SLP241 T02330122 (JB)","FM-15","7",,,,,,,,,,,,,,,,,,,,,,,,,,,,"2006-09-08"
"72518014735","2021-06-25T12:51:00","FM-15","7",,,,,"PRECIP","260",,"PLASTIC","42.6918","-73.83109","NWS ALBANY, NY",,,,,,,,,,,,,,,,,,,,,,,,,,,"30.23","53","76","0.00",,"+0.05","6","45","30.23","FEW:02 40 FEW:02 160 FEW:02 200","29.91","10.00","63","VRB",,"8",,,,,,,,,,,,,,,,,,,,,,,,,,,,,,,,,,,,,"MET13006/25/21 12:51:02 METAR KALB 251751Z 15007KT 10SM FEW040 FEW160 FEW200 24/12 A3023 RMK AO2 SLP238 T02440117 10244 20150 56017 (JB)","FM-15","7",,,,,,,,,,,,,,,,,,,,,,,,,,,,"2006-09-08"
"72518014735","2021-06-25T13:00:00","FM-12","4",,,,,"PRECIP","260",,"PLASTIC","42.6918","-73.83109","NWS ALBANY, NY",,,,,,,,,,,,,,,,,,,,,,,,,,,,"53","76",,,"+0.05","6","45","30.23","41","29.91","9.94","63","150",,"8",,,,,,,,,,,,,,,,,,,,,,,,,,,,,,,,,,,,,"SYN08072518 32666 61507 10244 20117 30129 40238 56017 91751 333 10244 20150 555 92518=","FM-12","4",,,,,,,,,,,,,,,,,,,,,,,,,,,,"2006-09-08"
"72518014735","2021-06-25T13:51:00","FM-15","7",,,,,"PRECIP","260",,"PLASTIC","42.6918","-73.83109","NWS ALBANY, NY",,,,,,,,,,,,,,,,,,,,,,,,,,,"30.22","54","75","0.00",,,,"48","30.22","FEW:02 40 SCT:04 160 BKN:07 250","29.90","10.00","63","180",,"10",,,,,,,,,,,,,,,,,,,,,,,,,,,,,,,,,,,,,"MET11206/25/21 13:51:02 METAR KALB 251851Z 18009KT 10SM FEW040 SCT160 BKN250 24/12 A3022 RMK AO2 SLP234 T02390122 (JB)","FM-15","7",,,,,,,,,,,,,,,,,,,,,,,,,,,,"2006-09-08"
"72518014735","2021-06-25T14:51:00","FM-15","7",,,,,"PRECIP","260",,"PLASTIC","42.6918","-73.83109","NWS ALBANY, NY",,,,,,,,,,,,,,,,,,,,,,,,,,,"30.20","54","77","0.00",,,,"45","30.20","FEW:02 40 FEW:02 160 BKN:07 250","29.88","10.00","63","170",,"8",,,,,,,,,,,,,,,,,,,,,,,,,,,,,,,,,,,,,"MET11206/25/21 14:51:02 METAR KALB 251951Z 17007KT 10SM FEW040 FEW160 BKN250 25/12 A3020 RMK AO2 SLP227 T02500122 (JF)","FM-15","7",,,,,,,,,,,,,,,,,,,,,,,,,,,,"2006-09-08"
"72518014735","2021-06-25T15:51:00","FM-15","7",,,,,"PRECIP","260",,"PLASTIC","42.6918","-73.83109","NWS ALBANY, NY",,,,,,,,,,,,,,,,,,,,,,,,,,,"30.19","54","77","0.00",,"+0.04","6","45","30.19","FEW:02 160 BKN:07 250","29.87","10.00","63","160",,"13",,,,,,,,,,,,,,,,,,,,,,,,,,,,,,,,,,,,,"MET11106/25/21 15:51:02 METAR KALB 252051Z 16011KT 10SM FEW160 BKN250 25/12 A3019 RMK AO2 SLP223 T02500122 56015 (JF)","FM-15","7",,,,,,,,,,,,,,,,,,,,,,,,,,,,"2006-09-08"
"72518014735","2021-06-25T16:00:00","FM-12","4",,,,,"PRECIP","260",,"PLASTIC","42.6918","-73.83109","NWS ALBANY, NY",,,,,,,,,,,,,,,,,,,,,,,,,,,,"54","77",,,"+0.04","6","45","30.19",,"29.87","9.94","63","160",,"13",,,,,,,,,,,,,,,,,,,,,,,,,,,,,,,,,,,,,"SYN06472518 32966 61611 10250 20122 30116 40223 56015 92051 555 92521=","FM-12","4",,,,,,,,,,,,,,,,,,,,,,,,,,,,"2006-09-08"
"72518014735","2021-06-25T16:51:00","FM-15","7",,,,,"PRECIP","260",,"PLASTIC","42.6918","-73.83109","NWS ALBANY, NY",,,,,,,,,,,,,,,,,,,,,,,,,,,"30.19","56","77","0.00",,,,"48","30.19","FEW:02 160 BKN:07 250","29.87","10.00","64","160","20","9",,,,,,,,,,,,,,,,,,,,,,,,,,,,,,,,,,,,,"MET10806/25/21 16:51:02 METAR KALB 252151Z 16008G17KT 10SM FEW160 BKN250 25/13 A3019 RMK AO2 SLP223 T02500133 (JF)","FM-15","7",,,,,,,,,,,,,,,,,,,,,,,,,,,,"2006-09-08"
"72518014735","2021-06-25T17:51:00","FM-15","7",,,,,"PRECIP","260",,"PLASTIC","42.6918","-73.83109","NWS ALBANY, NY",,,,,,,,,,,,,,,,,,,,,,,,,,,"30.19","55","75","0.00",,,,"50","30.19","FEW:02 160 BKN:07 250","29.87","10.00","63","150","21","16",,,,,,,,,,,,,,,,,,,,,,,,,,,,,,,,,,,,,"MET10806/25/21 17:51:02 METAR KALB 252251Z 15014G18KT 10SM FEW160 BKN250 24/13 A3019 RMK AO2 SLP222 T02390128 (JF)","FM-15","7",,,,,,,,,,,,,,,,,,,,,,,,,,,,"2006-09-08"
"72518014735","2021-06-25T18:51:00","FM-15","7",,,,,"PRECIP","260",,"PLASTIC","42.6918","-73.83109","NWS ALBANY, NY",,,,,,,,,,,,,,,,,,,,,,,,,,,"30.18","54","74","0.00",,"+0.01","8","50","30.18","SCT:04 160 BKN:07 250","29.86","10.00","62","160","20","11",,,,,,,,,,,,,,,,,,,,,,,,,,,,,,,,,,,,,"MET12606/25/21 18:51:02 METAR KALB 252351Z 16010G17KT 10SM SCT160 BKN250 23/12 A3018 RMK AO2 SLP220 T02330122 10256 20233 58003 (JF)","FM-15","7",,,,,,,,,,,,,,,,,,,,,,,,,,,,"2006-09-08"
"72518014735","2021-06-25T19:00:00","FM-12","4",,,,,"PRECIP","260",,"PLASTIC","42.6918","-73.83109","NWS ALBANY, NY",,,,,,,,,,,,,,,,,,,,,,,,,,,,"54","74",,,"+0.01","8","50","30.18",,"29.86","9.94","62","160",,"11",,,,,,,,,,,,,,,,,,,,,,,,,,,,,,,,,,,,,"SYN08672518 32966 61610 10233 20122 30112 40220 58003 92351 333 10256 20106 91017 555 92600=","FM-12","4",,,,,,,,,,,,,,,,,,,,,,,,,,,,"2006-09-08"
"72518014735","2021-06-25T19:51:00","FM-15","7",,,,,"PRECIP","260",,"PLASTIC","42.6918","-73.83109","NWS ALBANY, NY",,,,,,,,,,,,,,,,,,,,,,,,,,,"30.18","55","73","0.00",,,,"53","30.18","SCT:04 160 BKN:07 250","29.86","10.00","62","160",,"13",,,,,,,,,,,,,,,,,,,,,,,,,,,,,,,,,,,,,"MET10006/25/21 19:51:01 METAR KALB 260051Z 16011KT 10SM SCT160 BKN250 23/13 A3018 RMK AO2 SLP220 T02280128","FM-15","7",,,,,,,,,,,,,,,,,,,,,,,,,,,,"2006-09-08"
"72518014735","2021-06-25T20:51:00","FM-15","7",,,,,"PRECIP","260",,"PLASTIC","42.6918","-73.83109","NWS ALBANY, NY",,,,,,,,,,,,,,,,,,,,,,,,,,,"30.19","57","70","0.00",,,,"64","30.19","FEW:02 160 BKN:07 250","29.87","10.00","62","150",,"8",,,,,,,,,,,,,,,,,,,,,,,,,,,,,,,,,,,,,"MET10006/25/21 20:51:01 METAR KALB 260151Z 15007KT 10SM FEW160 BKN250 21/14 A3019 RMK AO2 SLP223 T02110139","FM-15","7",,,,,,,,,,,,,,,,,,,,,,,,,,,,"2006-09-08"
"72518014735","2021-06-25T21:51:00","FM-15","7",,,,,"PRECIP","260",,"PLASTIC","42.6918","-73.83109","NWS ALBANY, NY",,,,,,,,,,,,,,,,,,,,,,,,,,,"30.19","58","69","0.00",,"-0.01","3","68","30.19","FEW:02 160 BKN:07 250","29.87","10.00","62","160",,"13",,,,,,,,,,,,,,,,,,,,,,,,,,,,,,,,,,,,,"MET10606/25/21 21:51:01 METAR KALB 260251Z 16011KT 10SM FEW160 BKN250 21/14 A3019 RMK AO2 SLP222 T02060144 53003","FM-15","7",,,,,,,,,,,,,,,,,,,,,,,,,,,,"2006-09-08"
"72518014735","2021-06-25T22:00:00","FM-12","4",,,,,"PRECIP","260",,"PLASTIC","42.6918","-73.83109","NWS ALBANY, NY",,,,,,,,,,,,,,,,,,,,,,,,,,,,"58","69",,,"-0.01","3","68","30.19",,"29.87","9.94","62","160",,"13",,,,,,,,,,,,,,,,,,,,,,,,,,,,,,,,,,,,,"SYN06472518 32966 61611 10206 20144 30116 40222 53003 90251 555 92603=","FM-12","4",,,,,,,,,,,,,,,,,,,,,,,,,,,,"2006-09-08"
"72518014735","2021-06-25T22:51:00","FM-15","7",,,,,"PRECIP","260",,"PLASTIC","42.6918","-73.83109","NWS ALBANY, NY",,,,,,,,,,,,,,,,,,,,,,,,,,,"30.19","58","67","0.00",,,,"73","30.19","SCT:04 130 BKN:07 250","29.87","10.00","62","170",,"9",,,,,,,,,,,,,,,,,,,,,,,,,,,,,,,,,,,,,"MET10006/25/21 22:51:02 METAR KALB 260351Z 17008KT 10SM SCT130 BKN250 19/14 A3019 RMK AO2 SLP222 T01940144","FM-15","7",,,,,,,,,,,,,,,,,,,,,,,,,,,,"2006-09-08"
"72518014735","2021-06-25T23:51:00","FM-15","7",,,,,"PRECIP","260",,"PLASTIC","42.6918","-73.83109","NWS ALBANY, NY",,,,,,,,,,,,,,,,,,,,,,,,,,,"30.19","60","66","0.00",,,,"81","30.19","SCT:04 120 BKN:07 170 OVC:08 250","29.87","10.00","62","170",,"10",,,,,,,,,,,,,,,,,,,,,,,,,,,,,,,,,,,,,"MET11706/25/21 23:51:02 METAR KALB 260451Z 17009KT 10SM SCT120 BKN170 OVC250 19/16 A3019 RMK AO2 SLP222 T01890156 402560106","FM-15","7",,,,,,,,,,,,,,,,,,,,,,,,,,,,"2006-09-08"
"72518014735","2021-06-25T23:59:00","SOD  ","6",,,,,"PRECIP","260",,"PLASTIC","42.6918","-73.83109","NWS ALBANY, NY",,,,,"65",,,"29.95",,"7.5","0","-4.5","0","78","51","150","23","0.00","0","0.0","160","17",,,,,,,,,,,,,,,,,,,,,,,,,,,,,,,,,,,,,,,,,,,,,,,,,,,,,,,,,"SOD73924 HR PRECIPITATION (IN): 0.00 SNOW DEPTH (IN):0     24 HR SNOWFALL (IN):0.0  24 HR MAX TEMP (F): 7824 HR MIN TEMP (F): 51AVERAGE STATION PRESSURE:29.945 MINIMUM SEA LEVEL PRESSURE:30.18 TIME OF OCCURRENCE:2351 PEAK WIND SPEED (MPH): 23 PEAK WIND DIR (DEG):150 PEAK WIND TIME (LST):      FASTEST 2MIN SPEED (MPH): 17FASTEST 2MIN DIR (DEG):160 FASTEST 2MIN TIME (LST):     AVERAGE WIND SPEED (MPH): 7.5 24 HR AVG TEMP (F): 65DEPART FROM NORMAL: -6  HEATING DEGREE DAYS:  0 COOLING DEGREE DAYS:  0 LATEST DAY MAX TEMP (0700-1900 LST):78  LATEST NIGHT MIN TEMP(1900-0800 LST):51 HOURLY INCREMENTAL PRECIPITATION VALUES (IN):.00 0.00 0.00 0.00 0.00 0.00 0.00 0.00 0.00 0.00 0.00 0.00 0.00 0.00 0.00 0.00 0.00 0.00 0.00 0.00 0.00 0.00 0.00 0.00","SOD  ","6",,,,,,,,,,,,,,,,,,,,,,,,,"0418","1937",,"2006-09-08"
"72518014735","2021-06-26T00:51:00","FM-15","7",,,,,"PRECIP","260",,"PLASTIC","42.6918","-73.83109","NWS ALBANY, NY",,,,,,,,,,,,,,,,,,,,,,,,,,,"30.19","61","65","0.00",,"+0.00","5","87","30.19","SCT:04 120 BKN:07 170 OVC:08 250","29.87","10.00","63","160",,"10",,,,,,,,,,,,,,,,,,,,,,,,,,,,,,,,,,,,,"MET13006/26/21 00:51:02 METAR KALB 260551Z 16009KT 10SM SCT120 BKN170 OVC250 18/16 A3019 RMK AO2 SLP222 T01830161 10233 20178 55000 (CL)","FM-15","7",,,,,,,,,,,,,,,,,,,,,,,,,,,,"2006-09-08"
"72518014735","2021-06-26T01:00:00","FM-12","4",,,,,"PRECIP","260",,"PLASTIC","42.6918","-73.83109","NWS ALBANY, NY",,,,,,,,,,,,,,,,,,,,,,,,,,,,"61","65",,,"+0.00","5","87","30.19",,"29.87","9.94","63","160",,"10",,,,,,,,,,,,,,,,,,,,,,,,,,,,,,,,,,,,,"SYN08072518 32966 81609 10183 20161 30116 40222 55000 90551 333 10233 20106 555 92606=","FM-12","4",,,,,,,,,,,,,,,,,,,,,,,,,,,,"2006-09-08"
"72518014735","2021-06-26T01:51:00","FM-15","7",,,,,"PRECIP","260",,"PLASTIC","42.6918","-73.83109","NWS ALBANY, NY",,,,,,,,,,,,,,,,,,,,,,,,,,,"30.19","61","64","0.00",,,,"90","30.18","FEW:02 37 SCT:04 120 BKN:07 220","29.87","10.00","62","160",,"11",,,,,,,,,,,,,,,,,,,,,,,,,,,,,,,,,,,,,"MET11206/26/21 01:51:02 METAR KALB 260651Z 16010KT 10SM FEW037 SCT120 BKN220 18/16 A3019 RMK AO2 SLP221 T01780161 (CL)","FM-15","7",,,,,,,,,,,,,,,,,,,,,,,,,,,,"2006-09-08"
"72518014735","2021-06-26T02:51:00","FM-15","7",,,,,"PRECIP","260",,"PLASTIC","42.6918","-73.83109","NWS ALBANY, NY",,,,,,,,,,,,,,,,,,,,,,,,,,,"30.19","62","64","0.00",,,,"93","30.19","FEW:02 13 BKN:07 220","29.87","10.00","63","160",,"9",,,,,,,,,,,,,,,,,,,,,,,,,,,,,,,,,,,,,"MET10506/26/21 02:51:02 METAR KALB 260751Z 16008KT 10SM FEW013 BKN220 18/17 A3019 RMK AO2 SLP222 T01780167 (CL)","FM-15","7",,,,,,,,,,,,,,,,,,,,,,,,,,,,"2006-09-08"
"72518014735","2021-06-26T03:51:00","FM-15","7",,,,,"PRECIP","260",,"PLASTIC","42.6918","-73.83109","NWS ALBANY, NY",,,,,,,,,,,,,,,,,,,,,,,,,,,"30.20","63","64","0.00",,"-0.01","3","96","30.19","SCT:04 12 SCT:04 37 BKN:07 220","29.88","10.00","63","160","21","9",,,,,,,,,,,,,,,,,,,,,,,,,,,,,,,,,,,,,"MET12106/26/21 03:51:02 METAR KALB 260851Z 16008G18KT 10SM SCT012 SCT037 BKN220 18/17 A3020 RMK AO2 SLP225 T01780172 53003 (CL)","FM-15","7",,,,,,,,,,,,,,,,,,,,,,,,,,,,"2006-09-08"
"72518014735","2021-06-26T04:00:00","FM-12","4",,,,,"PRECIP","260",,"PLASTIC","42.6918","-73.83109","NWS ALBANY, NY",,,,,,,,,,,,,,,,,,,,,,,,,,,,"63","64",,,"-0.01","3","96","30.19","15","29.88","9.94","63","160",,"9",,,,,,,,,,,,,,,,,,,,,,,,,,,,,,,,,,,,,"SYN07472518 32466 61608 10178 20172 30119 40225 53003 90851 333 91018 555 92609=","FM-12","4",,,,,,,,,,,,,,,,,,,,,,,,,,,,"2006-09-08"
"72518014735","2021-06-26T04:00:00","FM-16","7",,,,,"PRECIP","260",,"PLASTIC","42.6918","-73.83109","NWS ALBANY, NY",,,,,,,,,,,,,,,,,,,,,,,,,,,"30.20","63","64",,,,,"96",,"BKN:07 12","29.88","10.00","63","150",,"13",,,,,,,,,,,,,,,,,,,,,,,,,,,,,,,,,,,,,"MET09106/26/21 04:00:02 SPECI KALB 260900Z 15011KT 10SM BKN012 18/17 A3020 RMK AO2 T01780172 (CL)","FM-16","7",,,,,,,,,,,,,,,,,,,,,,,,,,,,"2006-09-08"
"72518014735","2021-06-26T04:51:00","FM-15","7",,,,,"PRECIP","260",,"PLASTIC","42.6918","-73.83109","NWS ALBANY, NY",,,,,,,,,,,,,,,,,,,,,,,,,,,"30.20","63","64","0.00",,,,"96","30.19","BKN:07 12","29.88","10.00","63","160",,"9",,,,,,,,,,,,,,,,,,,,,,,,,,,,,,,,,,,,,"MET09806/26/21 04:51:02 METAR KALB 260951Z 16008KT 10SM BKN012 18/17 A3020 RMK AO2 SLP223 T01780172 (CL)","FM-15","7",,,,,,,,,,,,,,,,,,,,,,,,,,,,"2006-09-08"
"72518014735","2021-06-26T05:51:00","FM-15","7",,,,,"PRECIP","260",,"PLASTIC","42.6918","-73.83109","NWS ALBANY, NY",,,,,,,,,,,,,,,,,,,,,,,,,,,"30.20","63","65","0.00",,,,"93","30.20","BKN:07 12 BKN:07 250","29.88","10.00","64","160",,"10",,,,,,,,,,,,,,,,,,,,,,,,,,,,,,,,,,,,,"MET10506/26/21 05:51:02 METAR KALB 261051Z 16009KT 10SM BKN012 BKN250 18/17 A3020 RMK AO2 SLP227 T01830172 (CL)","FM-15","7",,,,,,,,,,,,,,,,,,,,,,,,,,,,"2006-09-08"
"72518014735","2021-06-26T06:17:00","FM-16","7",,,,,"PRECIP","260",,"PLASTIC","42.6918","-73.83109","NWS ALBANY, NY",,,,,,,,,,,,,,,,,,,,,,,,,,,"30.20","64","66",,,,,"93",,"SCT:04 12 BKN:07 200 BKN:07 250","29.88","10.00","65","150","18","11",,,,,,,,,,,,,,,,,,,,,,,,,,,,,,,,,,,,,"MET10806/26/21 06:17:02 SPECI KALB 261117Z 15010G16KT 10SM SCT012 BKN200 BKN250 19/18 A3020 RMK AO2 T01890178 (CL)","FM-16","7",,,,,,,,,,,,,,,,,,,,,,,,,,,,"2006-09-08"
"72518014735","2021-06-26T06:51:00","FM-15","7",,,,,"PRECIP","260",,"PLASTIC","42.6918","-73.83109","NWS ALBANY, NY",,,,,,,,,,,,,,,,,,,,,,,,,,,"30.19","64","68","0.00",,"+0.01","8","87","30.18","FEW:02 12 BKN:07 180 BKN:07 250","29.87","10.00","66","160","21","13",,,,,,,,,,,,,,,,,,,,,,,,,,,,,,,,,,,,,"MET13306/26/21 06:51:02 METAR KALB 261151Z 16011G18KT 10SM FEW012 BKN180 BKN250 20/18 A3019 RMK AO2 SLP221 T02000178 10200 20178 58004 (JB)","FM-15","7",,,,,,,,,,,,,,,,,,,,,,,,,,,,"2006-09-08"
"72518014735","2021-06-26T07:00:00","FM-12","4",,,,,"PRECIP","260",,"PLASTIC","42.6918","-73.83109","NWS ALBANY, NY",,,,,,,,,,,,,,,,,,,,,,,,,,,,"64","68",,,"+0.01","8","87","30.18","15","29.87","9.94","66","160",,"13",,,,,,,,,,,,,,,,,,,,,,,,,,,,,,,,,,,,,"SYN08672518 32466 61611 10200 20178 30116 40221 58004 91151 333 10256 20178 91018 555 92612=","FM-12","4",,,,,,,,,,,,,,,,,,,,,,,,,,,,"2006-09-08"
"72518014735","2021-06-26T07:51:00","FM-15","7",,,,,"PRECIP","260",,"PLASTIC","42.6918","-73.83109","NWS ALBANY, NY",,,,,,,,,,,,,,,,,,,,,,,,,,,"30.20","65","70","0.00",,,,"84","30.19","FEW:02 16 BKN:07 180 BKN:07 250","29.88","10.00","67","170",,"14",,,,,,,,,,,,,,,,,,,,,,,,,,,,,,,,,,,,,"MET11206/26/21 07:51:02 METAR KALB 261251Z 17012KT 10SM FEW016 BKN180 BKN250 21/18 A3020 RMK AO2 SLP224 T02110183 (JB)","FM-15","7",,,,,,,,,,,,,,,,,,,,,,,,,,,,"2006-09-08"
"72518014735","2021-06-26T08:51:00","FM-15","7",,,,,"PRECIP","260",,"PLASTIC","42.6918","-73.83109","NWS ALBANY, NY",,,,,,,,,,,,,,,,,,,,,,,,,,,"30.17","66","72","0.00",,,,"82","30.16","FEW:02 18 BKN:07 180 BKN:07 250","29.85","10.00","68","170",,"13",,,,,,,,,,,,,,,,,,,,,,,,,,,,,,,,,,,,,"MET11206/26/21 08:51:02 METAR KALB 261351Z 17011KT 10SM FEW018 BKN180 BKN250 22/19 A3017 RMK AO2 SLP215 T02220189 (JB)","FM-15","7",,,,,,,,,,,,,,,,,,,,,,,,,,,,"2006-09-08"
"72518014735","2021-06-26T09:51:00","FM-15","7",,,,,"PRECIP","260",,"PLASTIC","42.6918","-73.83109","NWS ALBANY, NY",,,,,,,,,,,,,,,,,,,,,,,,,,,"30.16","67","74","0.00",,"+0.02","8","79","30.16","FEW:02 25 FEW:02 50 BKN:07 190","29.84","10.00","69","160","24","18",,,,,,,,,,,,,,,,,,,,,,,,,,,,,,,,,,,,,"MET12106/26/21 09:51:02 METAR KALB 261451Z 16016G21KT 10SM FEW025 FEW050 BKN190 23/19 A3016 RMK AO2 SLP213 T02330194 58008 (JB)","FM-15","7",,,,,,,,,,,,,,,,,,,,,,,,,,,,"2006-09-08"
"72518014735","2021-06-26T10:00:00","FM-12","4",,,,,"PRECIP","260",,"PLASTIC","42.6918","-73.83109","NWS ALBANY, NY",,,,,,,,,,,,,,,,,,,,,,,,,,,,"67","74",,,"+0.02","8","79","30.16","26","29.84","9.94","69","160",,"18",,,,,,,,,,,,,,,,,,,,,,,,,,,,,,,,,,,,,"SYN07472518 32566 61616 10233 20194 30106 40213 58008 91451 333 91021 555 92615=","FM-12","4",,,,,,,,,,,,,,,,,,,,,,,,,,,,"2006-09-08"
"72518014735","2021-06-26T10:51:00","FM-15","7",,,,,"PRECIP","260",,"PLASTIC","42.6918","-73.83109","NWS ALBANY, NY",,,,,,,,,,,,,,,,,,,,,,,,,,,"30.16","66","75","0.00",,,,"74","30.16","FEW:02 35 BKN:07 160 BKN:07 250","29.84","10.00","69","160","24","17",,,,,,,,,,,,,,,,,,,,,,,,,,,,,,,,,,,,,"MET11506/26/21 10:51:02 METAR KALB 261551Z 16015G21KT 10SM FEW035 BKN160 BKN250 24/19 A3016 RMK AO2 SLP212 T02390189 (JB)","FM-15","7",,,,,,,,,,,,,,,,,,,,,,,,,,,,"2006-09-08"
"72518014735","2021-06-26T11:51:00","FM-15","7",,,,,"PRECIP","260",,"PLASTIC","42.6918","-73.83109","NWS ALBANY, NY",,,,,,,,,,,,,,,,,,,,,,,,,,,"30.15","67","75","0.00",,,,"76","30.14","FEW:02 35 BKN:07 160 OVC:08 250","29.83","10.00","70","160","23","15",,,,,,,,,,,,,,,,,,,,,,,,,,,,,,,,,,,,,"MET11506/26/21 11:51:02 METAR KALB 261651Z 16013G20KT 10SM FEW035 BKN160 OVC250 24/19 A3015 RMK AO2 SLP207 T02390194 (JB)","FM-15","7",,,,,,,,,,,,,,,,,,,,,,,,,,,,"2006-09-08"
"72518014735","2021-06-26T12:51:00","FM-15","7",,,,,"PRECIP","260",,"PLASTIC","42.6918","-73.83109","NWS ALBANY, NY",,,,,,,,,,,,,,,,,,,,,,,,,,,"30.13","67","77","0.00",,"+0.03","8","71","30.13","FEW:02 43 BKN:07 160 OVC:08 250","29.81","10.00","70","160","24","14",,,,,,,,,,,,,,,,,,,,,,,,,,,,,,,,,,,,,"MET13306/26/21 12:51:02 METAR KALB 261751Z 16012G21KT 10SM FEW043 BKN160 OVC250 25/19 A3013 RMK AO2 SLP203 T02500194 10250 20194 58010 (JB)","FM-15","7",,,,,,,,,,,,,,,,,,,,,,,,,,,,"2006-09-08"
"72518014735","2021-06-26T13:00:00","FM-12","4",,,,,"PRECIP","260",,"PLASTIC","42.6918","-73.83109","NWS ALBANY, NY",,,,,,,,,,,,,,,,,,,,,,,,,,,,"67","77",,,"+0.03","8","71","30.13","41","29.81","9.94","70","160",,"14",,,,,,,,,,,,,,,,,,,,,,,,,,,,,,,,,,,,,"SYN08672518 32666 81612 10250 20194 30096 40203 58010 91751 333 10250 20194 91021 555 92618=","FM-12","4",,,,,,,,,,,,,,,,,,,,,,,,,,,,"2006-09-08"
"72518014735","2021-06-26T13:51:00","FM-15","7",,,,,"PRECIP","260",,"PLASTIC","42.6918","-73.83109","NWS ALBANY, NY",,,,,,,,,,,,,,,,,,,,,,,,,,,"30.12","67","77","0.00",,,,"71","30.11","FEW:02 45 FEW:02 110 BKN:07 160","29.80","10.00","70","150","29","13",,,,,,,,,,,,,,,,,,,,,,,,,,,,,,,,,,,,,"MET11506/26/21 13:51:02 METAR KALB 261851Z 15011G25KT 10SM FEW045 FEW110 BKN160 25/19 A3012 RMK AO2 SLP198 T02500194 (JB)","FM-15","7",,,,,,,,,,,,,,,,,,,,,,,,,,,,"2006-09-08"
"72518014735","2021-06-26T14:51:00","FM-15","7",,,,,"PRECIP","260",,"PLASTIC","42.6918","-73.83109","NWS ALBANY, NY",,,,,,,,,,,,,,,,,,,,,,,,,,,"30.11","68","78","0.00",,,,"71","30.11","FEW:02 45 FEW:02 110 BKN:07 190","29.79","10.00","71","160","25","14",,,,,,,,,,,,,,,,,,,,,,,,,,,,,,,,,,,,,"MET13006/26/21 14:51:02 METAR KALB 261951Z 16012G22KT 10SM FEW045 FEW110 BKN190 26/20 A3011 RMK AO2 SLP195 VIRGA W BINOVC T02560200 (JF)","FM-15","7",,,,,,,,,,,,,,,,,,,,,,,,,,,,"2006-09-08"
"72518014735","2021-06-26T15:51:00","FM-15","7",,,,,"PRECIP","260",,"PLASTIC","42.6918","-73.83109","NWS ALBANY, NY",,,,,,,,,,,,,,,,,,,,,,,,,,,"30.09","68","80","0.00",,"+0.04","8","67","30.09","FEW:02 45 FEW:02 110 SCT:04 190","29.78","10.00","72","150","30","20",,,,,,,,,,,,,,,,,,,,,,,,,,,,,,,,,,,,,"MET13906/26/21 15:51:02 METAR KALB 262051Z 15017G26KT 10SM FEW045 FEW110 SCT190 27/20 A3009 RMK AO2 PK WND 18026/2042 SLP188 T02670200 58014 (JF)","FM-15","7",,,,,,,,,,,,,,,,,,,,,,,,,,,,"2006-09-08"
"72518014735","2021-06-26T16:00:00","FM-12","4",,,,,"PRECIP","260",,"PLASTIC","42.6918","-73.83109","NWS ALBANY, NY",,,,,,,,,,,,,,,,,,,,,,,,,,,,"68","80",,,"+0.04","8","67","30.09","41","29.77","9.94","72","150",,"20",,,,,,,,,,,,,,,,,,,,,,,,,,,,,,,,,,,,,"SYN07472518 32666 61517 10267 20200 30082 40188 58014 92051 333 91026 555 92621=","FM-12","4",,,,,,,,,,,,,,,,,,,,,,,,,,,,"2006-09-08"
"72518014735","2021-06-26T16:51:00","FM-15","7",,,,,"PRECIP","260",,"PLASTIC","42.6918","-73.83109","NWS ALBANY, NY",,,,,,,,,,,,,,,,,,,,,,,,,,,"30.08","68","80","0.00",,,,"67","30.08","FEW:02 45 FEW:02 110 SCT:04 190","29.76","10.00","72","160","29","20",,,,,,,,,,,,,,,,,,,,,,,,,,,,,,,,,,,,,"MET11506/26/21 16:51:02 METAR KALB 262151Z 16017G25KT 10SM FEW045 FEW110 SCT190 27/20 A3008 RMK AO2 SLP185 T02670200 (JF)","FM-15","7",,,,,,,,,,,,,,,,,,,,,,,,,,,,"2006-09-08"
"72518014735","2021-06-26T17:51:00","FM-15","7",,,,,"PRECIP","260",,"PLASTIC","42.6918","-73.83109","NWS ALBANY, NY",,,,,,,,,,,,,,,,,,,,,,,,,,,"30.08","69","79","0.00",,,,"72","30.07","FEW:02 45 FEW:02 110 SCT:04 190","29.76","10.00","72","170","24","15",,,,,,,,,,,,,,,,,,,,,,,,,,,,,,,,,,,,,"MET11506/26/21 17:51:02 METAR KALB 262251Z 17013G21KT 10SM FEW045 FEW110 SCT190 26/21 A3008 RMK AO2 SLP183 T02610206 (JF)","FM-15","7",,,,,,,,,,,,,,,,,,,,,,,,,,,,"2006-09-08"
"72518014735","2021-06-26T18:51:00","FM-15","7",,,,,"PRECIP","260",,"PLASTIC","42.6918","-73.83109","NWS ALBANY, NY",,,,,,,,,,,,,,,,,,,,,,,,,,,"30.08","69","78","0.00",,"+0.01","6","74","30.07","FEW:02 45 FEW:02 110 SCT:04 190","29.76","10.00","72","160","24","17",,,,,,,,,,,,,,,,,,,,,,,,,,,,,,,,,,,,,"MET14206/26/21 18:51:02 METAR KALB 262351Z 16015G21KT 10SM FEW045 FEW110 SCT190 26/21 A3008 RMK AO2 SLP183 ACSL S-W T02560206 10272 20244 56005 (JF)","FM-15","7",,,,,,,,,,,,,,,,,,,,,,,,,,,,"2006-09-08"
"72518014735","2021-06-26T19:00:00","FM-12","4",,,,,"PRECIP","260",,"PLASTIC","42.6918","-73.83109","NWS ALBANY, NY",,,,,,,,,,,,,,,,,,,,,,,,,,,,"69","78",,,"+0.01","6","74","30.07","41","29.76","9.94","72","160",,"17",,,,,,,,,,,,,,,,,,,,,,,,,,,,,,,,,,,,,"SYN08672518 32666 61615 10256 20206 30079 40183 56005 92351 333 10272 20178 91021 555 92700=","FM-12","4",,,,,,,,,,,,,,,,,,,,,,,,,,,,"2006-09-08"
"72518014735","2021-06-26T19:51:00","FM-15","7",,,,,"PRECIP","260",,"PLASTIC","42.6918","-73.83109","NWS ALBANY, NY",,,,,,,,,,,,,,,,,,,,,,,,,,,"30.09","70","76","0.00",,,,"82","30.08","FEW:02 45 FEW:02 110 SCT:04 190","29.78","10.00","72","160","23","16",,,,,,,,,,,,,,,,,,,,,,,,,,,,,,,,,,,,,"MET11006/26/21 19:51:01 METAR KALB 270051Z 16014G20KT 10SM FEW045 FEW110 SCT190 24/21 A3009 RMK AO2 SLP187 T02440211","FM-15","7",,,,,,,,,,,,,,,,,,,,,,,,,,,,"2006-09-08"
"72518014735","2021-06-26T20:51:00","FM-15","7",,,,,"PRECIP","260",,"PLASTIC","42.6918","-73.83109","NWS ALBANY, NY",,,,,,,,,,,,,,,,,,,,,,,,,,,"30.10","70","75","0.00",,,,"84","30.10","FEW:02 110 FEW:02 190 BKN:07 250","29.78","10.00","72","170","24","16",,,,,,,,,,,,,,,,,,,,,,,,,,,,,,,,,,,,,"MET11006/26/21 20:51:01 METAR KALB 270151Z 17014G21KT 10SM FEW110 FEW190 BKN250 24/21 A3010 RMK AO2 SLP192 T02390211","FM-15","7",,,,,,,,,,,,,,,,,,,,,,,,,,,,"2006-09-08"
"72518014735","2021-06-26T21:51:00","FM-15","7",,,,,"PRECIP","260",,"PLASTIC","42.6918","-73.83109","NWS ALBANY, NY",,,,,,,,,,,,,,,,,,,,,,,,,,,"30.10","70","74","0.00",,"-0.02","0","88","30.09","FEW:02 190 SCT:04 250","29.78","10.00","71","170",,"11",,,,,,,,,,,,,,,,,,,,,,,,,,,,,,,,,,,,,"MET10606/26/21 21:51:01 METAR KALB 270251Z 17010KT 10SM FEW190 SCT250 23/21 A3010 RMK AO2 SLP191 T02330211 50008","FM-15","7",,,,,,,,,,,,,,,,,,,,,,,,,,,,"2006-09-08"
"72518014735","2021-06-26T22:00:00","FM-12","4",,,,,"PRECIP","260",,"PLASTIC","42.6918","-73.83109","NWS ALBANY, NY",,,,,,,,,,,,,,,,,,,,,,,,,,,,"70","74",,,"0.02","9","88","30.09",,"29.78","9.94","71","170",,"11",,,,,,,,,,,,,,,,,,,,,,,,,,,,,,,,,,,,,"SYN06472518 32966 41710 10233 20211 30086 40191 50008 90251 555 92703=","FM-12","4",,,,,,,,,,,,,,,,,,,,,,,,,,,,"2006-09-08"
"72518014735","2021-06-26T22:51:00","FM-15","7",,,,,"PRECIP","260",,"PLASTIC","42.6918","-73.83109","NWS ALBANY, NY",,,,,,,,,,,,,,,,,,,,,,,,,,,"30.10","70","74","0.00",,,,"88","30.09","FEW:02 120 FEW:02 200 SCT:04 250","29.78","10.00","71","150",,"11",,,,,,,,,,,,,,,,,,,,,,,,,,,,,,,,,,,,,"MET10706/26/21 22:51:02 METAR KALB 270351Z 15010KT 10SM FEW120 FEW200 SCT250 23/21 A3010 RMK AO2 SLP190 T02330211","FM-15","7",,,,,,,,,,,,,,,,,,,,,,,,,,,,"2006-09-08"
"72518014735","2021-06-26T23:51:00","FM-15","7",,,,,"PRECIP","260",,"PLASTIC","42.6918","-73.83109","NWS ALBANY, NY",,,,,,,,,,,,,,,,,,,,,,,,,,,"30.09","70","74","0.00",,,,"88","30.09","BKN:07 55","29.78","10.00","71","160","20","13",,,,,,,,,,,,,,,,,,,,,,,,,,,,,,,,,,,,,"MET10606/26/21 23:51:02 METAR KALB 270451Z 16011G17KT 10SM BKN055 23/21 A3009 RMK AO2 SLP188 T02330211 402720178","FM-15","7",,,,,,,,,,,,,,,,,,,,,,,,,,,,"2006-09-08"
"72518014735","2021-06-26T23:59:00","SOD  ","6",,,,,"PRECIP","260",,"PLASTIC","42.6918","-73.83109","NWS ALBANY, NY",,,,,"73",,,"29.83",,"13.7","8","3.3","0","81","64","180","30","0.00","0","0.0","170","24",,,,,,,,,,,,,,,,,,,,,,,,,,,,,,,,,,,,,,,,,,,,,,,,,,,,,,,,,"SOD73924 HR PRECIPITATION (IN): 0.00 SNOW DEPTH (IN):0     24 HR SNOWFALL (IN):0.0  24 HR MAX TEMP (F): 8124 HR MIN TEMP (F): 64AVERAGE STATION PRESSURE:29.825 MINIMUM SEA LEVEL PRESSURE:30.07 TIME OF OCCURRENCE:1911 PEAK WIND SPEED (MPH): 30 PEAK WIND DIR (DEG):180 PEAK WIND TIME (LST):      FASTEST 2MIN SPEED (MPH): 24FASTEST 2MIN DIR (DEG):170 FASTEST 2MIN TIME (LST):     AVERAGE WIND SPEED (MPH):13.7 24 HR AVG TEMP (F): 73DEPART FROM NORMAL:  2  HEATING DEGREE DAYS:  0 COOLING DEGREE DAYS:  8 LATEST DAY MAX TEMP (0700-1900 LST):81  LATEST NIGHT MIN TEMP(1900-0800 LST):64 HOURLY INCREMENTAL PRECIPITATION VALUES (IN):.00 0.00 0.00 0.00 0.00 0.00 0.00 0.00 0.00 0.00 0.00 0.00 0.00 0.00 0.00 0.00 0.00 0.00 0.00 0.00 0.00 0.00 0.00 0.00","SOD  ","6",,,,,,,,,,,,,,,,,,,,,,,,,"0418","1938",,"2006-09-08"
"72518014735","2021-06-27T00:51:00","FM-15","7",,,,,"PRECIP","260",,"PLASTIC","42.6918","-73.83109","NWS ALBANY, NY",,,,,,,,,,,,,,,,,,,,,,,,,,,"30.09","70","73","0.00",,"+0.00","5","90","30.09","BKN:07 48","29.78","10.00","71","170",,"9",,,,,,,,,,,,,,,,,,,,,,,,,,,,,,,,,,,,,"MET11606/27/21 00:51:02 METAR KALB 270551Z 17008KT 10SM BKN048 23/21 A3009 RMK AO2 SLP189 T02280211 10256 20228 55001 (CL)","FM-15","7",,,,,,,,,,,,,,,,,,,,,,,,,,,,"2006-09-08"
"72518014735","2021-06-27T01:00:00","FM-12","4",,,,,"PRECIP","260",,"PLASTIC","42.6918","-73.83109","NWS ALBANY, NY",,,,,,,,,,,,,,,,,,,,,,,,,,,,"70","73",,,"+0.00","5","90","30.09","41","29.77","9.94","71","170",,"9",,,,,,,,,,,,,,,,,,,,,,,,,,,,,,,,,,,,,"SYN08072518 32666 61708 10228 20211 30082 40189 55001 90551 333 10256 20178 555 92706=","FM-12","4",,,,,,,,,,,,,,,,,,,,,,,,,,,,"2006-09-08"
"72518014735","2021-06-27T01:51:00","FM-15","7",,,,,"PRECIP","260",,"PLASTIC","42.6918","-73.83109","NWS ALBANY, NY",,,,,,,,,,,,,,,,,,,,,,,,,,,"30.09","70","72","0.00",,,,"94","30.08","FEW:02 50 BKN:07 250","29.78","10.00","71","160",,"13",,,,,,,,,,,,,,,,,,,,,,,,,,,,,,,,,,,,,"MET10506/27/21 01:51:02 METAR KALB 270651Z 16011KT 10SM FEW050 BKN250 22/21 A3009 RMK AO2 SLP187 T02220211 (CL)","FM-15","7",,,,,,,,,,,,,,,,,,,,,,,,,,,,"2006-09-08"
"72518014735","2021-06-27T02:51:00","FM-15","7",,,,,"PRECIP","260",,"PLASTIC","42.6918","-73.83109","NWS ALBANY, NY",,,,,,,,,,,,,,,,,,,,,,,,,,,"30.08","70","71","0.00",,,,"96","30.08","FEW:02 48 BKN:07 250","29.76","10.00","70","160",,"9",,,,,,,,,,,,,,,,,,,,,,,,,,,,,,,,,,,,,"MET10506/27/21 02:51:02 METAR KALB 270751Z 16008KT 10SM FEW048 BKN250 22/21 A3008 RMK AO2 SLP186 T02170211 (CL)","FM-15","7",,,,,,,,,,,,,,,,,,,,,,,,,,,,"2006-09-08"
"72518014735","2021-06-27T03:51:00","FM-15","7",,,,,"PRECIP","260",,"PLASTIC","42.6918","-73.83109","NWS ALBANY, NY",,,,,,,,,,,,,,,,,,,,,,,,,,,"30.09","69","70","0.00",,"+0.01","5","97","30.08","SCT:04 28 SCT:04 250","29.78","10.00","69","160",,"9",,,,,,,,,,,,,,,,,,,,,,,,,,,,,,,,,,,,,"MET11106/27/21 03:51:02 METAR KALB 270851Z 16008KT 10SM SCT028 SCT250 21/21 A3009 RMK AO2 SLP187 T02110206 55002 (CL)","FM-15","7",,,,,,,,,,,,,,,,,,,,,,,,,,,,"2006-09-08"
"72518014735","2021-06-27T04:00:00","FM-12","4",,,,,"PRECIP","260",,"PLASTIC","42.6918","-73.83109","NWS ALBANY, NY",,,,,,,,,,,,,,,,,,,,,,,,,,,,"69","70",,,"+0.01","5","97","30.08","26","29.77","9.94","69","160",,"9",,,,,,,,,,,,,,,,,,,,,,,,,,,,,,,,,,,,,"SYN06472518 32566 41608 10211 20206 30082 40187 55002 90851 555 92709=","FM-12","4",,,,,,,,,,,,,,,,,,,,,,,,,,,,"2006-09-08"
"72518014735","2021-06-27T04:51:00","FM-15","7",,,,,"PRECIP","260",,"PLASTIC","42.6918","-73.83109","NWS ALBANY, NY",,,,,,,,,,,,,,,,,,,,,,,,,,,"30.10","70","70","0.00",,,,"100","30.10","FEW:02 28 BKN:07 200 BKN:07 250","29.78","10.00","70","150",,"7",,,,,,,,,,,,,,,,,,,,,,,,,,,,,,,,,,,,,"MET11206/27/21 04:51:02 METAR KALB 270951Z 15006KT 10SM FEW028 BKN200 BKN250 21/21 A3010 RMK AO2 SLP192 T02110211 (CL)","FM-15","7",,,,,,,,,,,,,,,,,,,,,,,,,,,,"2006-09-08"
"72518014735","2021-06-27T05:51:00","FM-15","7",,,,,"PRECIP","260",,"PLASTIC","42.6918","-73.83109","NWS ALBANY, NY",,,,,,,,,,,,,,,,,,,,,,,,,,,"30.10","70","71","0.00",,,,"96","30.10","SCT:04 28 BKN:07 190 BKN:07 250","29.78","10.00","70","160",,"9",,,,,,,,,,,,,,,,,,,,,,,,,,,,,,,,,,,,,"MET11206/27/21 05:51:02 METAR KALB 271051Z 16008KT 10SM SCT028 BKN190 BKN250 22/21 A3010 RMK AO2 SLP192 T02170211 (CL)","FM-15","7",,,,,,,,,,,,,,,,,,,,,,,,,,,,"2006-09-08"
"72518014735","2021-06-27T06:51:00","FM-15","7",,,,,"PRECIP","260",,"PLASTIC","42.6918","-73.83109","NWS ALBANY, NY",,,,,,,,,,,,,,,,,,,,,,,,,,,"30.10","70","74","0.00",,"-0.01","0","88","30.09","FEW:02 28 SCT:04 190 BKN:07 250","29.78","10.00","71","160",,"9",,,,,,,,,,,,,,,,,,,,,,,,,,,,,,,,,,,,,"MET13106/27/21 06:51:02 METAR KALB 271151Z 16008KT 10SM FEW028 SCT190 BKN250 23/21 A3010 RMK AO2 SLP191 T02330211 10233 20211 50004 (JDO)","FM-15","7",,,,,,,,,,,,,,,,,,,,,,,,,,,,"2006-09-08"
"72518014735","2021-06-27T07:00:00","FM-12","4",,,,,"PRECIP","260",,"PLASTIC","42.6918","-73.83109","NWS ALBANY, NY",,,,,,,,,,,,,,,,,,,,,,,,,,,,"70","74",,,"0.01","9","88","30.09","26","29.78","9.94","71","160",,"9",,,,,,,,,,,,,,,,,,,,,,,,,,,,,,,,,,,,,"SYN08072518 32566 61608 10233 20211 30086 40191 50004 91151 333 10272 20211 555 92712=","FM-12","4",,,,,,,,,,,,,,,,,,,,,,,,,,,,"2006-09-08"
"72518014735","2021-06-27T07:51:00","FM-15","7",,,,,"PRECIP","260",,"PLASTIC","42.6918","-73.83109","NWS ALBANY, NY",,,,,,,,,,,,,,,,,,,,,,,,,,,"30.10","70","76","0.00",,,,"82","30.10","FEW:02 28 FEW:02 190 SCT:04 250","29.78","10.00","72","160",,"11",,,,,,,,,,,,,,,,,,,,,,,,,,,,,,,,,,,,,"MET11306/27/21 07:51:02 METAR KALB 271251Z 16010KT 10SM FEW028 FEW190 SCT250 24/21 A3010 RMK AO2 SLP192 T02440211 (JDO)","FM-15","7",,,,,,,,,,,,,,,,,,,,,,,,,,,,"2006-09-08"
"72518014735","2021-06-27T08:51:00","FM-15","7",,,,,"PRECIP","260",,"PLASTIC","42.6918","-73.83109","NWS ALBANY, NY",,,,,,,,,,,,,,,,,,,,,,,,,,,"30.09","70","79","0.00",,,,"74","30.09","FEW:02 30 FEW:02 190 SCT:04 250","29.78","10.00","73","150",,"11",,,,,,,,,,,,,,,,,,,,,,,,,,,,,,,,,,,,,"MET11306/27/21 08:51:02 METAR KALB 271351Z 15010KT 10SM FEW030 FEW190 SCT250 26/21 A3009 RMK AO2 SLP189 T02610211 (JDO)","FM-15","7",,,,,,,,,,,,,,,,,,,,,,,,,,,,"2006-09-08"
"72518014735","2021-06-27T09:51:00","FM-15","7",,,,,"PRECIP","260",,"PLASTIC","42.6918","-73.83109","NWS ALBANY, NY",,,,,,,,,,,,,,,,,,,,,,,,,,,"30.10","71","82","0.00",,"+0.00","8","69","30.09","FEW:02 35 FEW:02 190 SCT:04 250","29.78","10.00","74","170",,"13",,,,,,,,,,,,,,,,,,,,,,,,,,,,,,,,,,,,,"MET11906/27/21 09:51:02 METAR KALB 271451Z 17011KT 10SM FEW035 FEW190 SCT250 28/22 A3010 RMK AO2 SLP190 T02780217 58001 (JDO)","FM-15","7",,,,,,,,,,,,,,,,,,,,,,,,,,,,"2006-09-08"
"72518014735","2021-06-27T10:00:00","FM-12","4",,,,,"PRECIP","260",,"PLASTIC","42.6918","-73.83109","NWS ALBANY, NY",,,,,,,,,,,,,,,,,,,,,,,,,,,,"71","82",,,"+0.00","8","69","30.09","41","29.78","9.94","74","170",,"13",,,,,,,,,,,,,,,,,,,,,,,,,,,,,,,,,,,,,"SYN06472518 32666 41711 10278 20217 30086 40190 58001 91451 555 92715=","FM-12","4",,,,,,,,,,,,,,,,,,,,,,,,,,,,"2006-09-08"
"72518014735","2021-06-27T10:51:00","FM-15","7",,,,,"PRECIP","260",,"PLASTIC","42.6918","-73.83109","NWS ALBANY, NY",,,,,,,,,,,,,,,,,,,,,,,,,,,"30.09","71","83","0.00",,,,"67","30.08","SCT:04 60 SCT:04 190 BKN:07 250","29.78","10.00","75","160","20","13",,,,,,,,,,,,,,,,,,,,,,,,,,,,,,,,,,,,,"MET11606/27/21 10:51:02 METAR KALB 271551Z 16011G17KT 10SM SCT060 SCT190 BKN250 28/22 A3009 RMK AO2 SLP186 T02830217 (JDO)","FM-15","7",,,,,,,,,,,,,,,,,,,,,,,,,,,,"2006-09-08"
"72518014735","2021-06-27T11:51:00","FM-15","7",,,,,"PRECIP","260",,"PLASTIC","42.6918","-73.83109","NWS ALBANY, NY",,,,,,,,,,,,,,,,,,,,,,,,,,,"30.08","70","83","0.00",,,,"65","30.07","SCT:04 39 SCT:04 45 BKN:07 60","29.76","10.00","74","150","21","13",,,,,,,,,,,,,,,,,,,,,,,,,,,,,,,,,,,,,"MET11606/27/21 11:51:02 METAR KALB 271651Z 15011G18KT 10SM SCT039 SCT045 BKN060 28/21 A3008 RMK AO2 SLP183 T02830211 (JDO)","FM-15","7",,,,,,,,,,,,,,,,,,,,,,,,,,,,"2006-09-08"
"72518014735","2021-06-27T12:51:00","FM-15","7",,,,,"PRECIP","260",,"PLASTIC","42.6918","-73.83109","NWS ALBANY, NY",,,,,,,,,,,,,,,,,,,,,,,,,,,"30.07","70","85","0.00",,"+0.03","8","61","30.06","SCT:04 70 BKN:07 200 BKN:07 250","29.75","10.00","75","150","22","14",,,,,,,,,,,,,,,,,,,,,,,,,,,,,,,,,,,,,"MET13406/27/21 12:51:02 METAR KALB 271751Z 15012G19KT 10SM SCT070 BKN200 BKN250 29/21 A3007 RMK AO2 SLP179 T02940211 10306 20233 58009 (JDO)","FM-15","7",,,,,,,,,,,,,,,,,,,,,,,,,,,,"2006-09-08"
"72518014735","2021-06-27T13:00:00","FM-12","4",,,,,"PRECIP","260",,"PLASTIC","42.6918","-73.83109","NWS ALBANY, NY",,,,,,,,,,,,,,,,,,,,,,,,,,,,"70","85",,,"+0.03","8","61","30.06","74","29.75","9.94","75","150",,"14",,,,,,,,,,,,,,,,,,,,,,,,,,,,,,,,,,,,,"SYN08672518 32866 61512 10294 20211 30075 40179 58009 91751 333 10306 20233 91019 555 92718=","FM-12","4",,,,,,,,,,,,,,,,,,,,,,,,,,,,"2006-09-08"
"72518014735","2021-06-27T13:51:00","FM-15","7",,,,,"PRECIP","260",,"PLASTIC","42.6918","-73.83109","NWS ALBANY, NY",,,,,,,,,,,,,,,,,,,,,,,,,,,"30.06","70","85","0.00",,,,"61","30.05","SCT:04 65 SCT:04 80 BKN:07 200","29.75","10.00","75","150",,"13",,,,,,,,,,,,,,,,,,,,,,,,,,,,,,,,,,,,,"MET11306/27/21 13:51:02 METAR KALB 271851Z 15011KT 10SM SCT065 SCT080 BKN200 29/21 A3006 RMK AO2 SLP177 T02940211 (JDO)","FM-15","7",,,,,,,,,,,,,,,,,,,,,,,,,,,,"2006-09-08"
"72518014735","2021-06-27T14:51:00","FM-15","7",,,,,"PRECIP","260",,"PLASTIC","42.6918","-73.83109","NWS ALBANY, NY",,,,,,,,,,,,,,,,,,,,,,,,,,,"30.06","71","86","0.00",,,,"61","30.05","SCT:04 70 SCT:04 200 BKN:07 250","29.75","10.00","76","150",,"13",,,,,,,,,,,,,,,,,,,,,,,,,,,,,,,,,,,,,"MET11206/27/21 14:51:02 METAR KALB 271951Z 15011KT 10SM SCT070 SCT200 BKN250 30/22 A3006 RMK AO2 SLP175 T03000217 (JB)","FM-15","7",,,,,,,,,,,,,,,,,,,,,,,,,,,,"2006-09-08"
"72518014735","2021-06-27T15:51:00","FM-15","7",,,,,"PRECIP","260",,"PLASTIC","42.6918","-73.83109","NWS ALBANY, NY",,,,,,,,,,,,,,,,,,,,,,,,,,,"30.06","72","86","0.00",,"+0.01","5","63","30.05","FEW:02 75 FEW:02 200 BKN:07 250","29.75","10.00","76","170",,"13",,,,,,,,,,,,,,,,,,,,,,,,,,,,,,,,,,,,,"MET11806/27/21 15:51:02 METAR KALB 272051Z 17011KT 10SM FEW075 FEW200 BKN250 30/22 A3006 RMK AO2 SLP177 T03000222 55004 (JB)","FM-15","7",,,,,,,,,,,,,,,,,,,,,,,,,,,,"2006-09-08"
"72518014735","2021-06-27T16:00:00","FM-12","4",,,,,"PRECIP","260",,"PLASTIC","42.6918","-73.83109","NWS ALBANY, NY",,,,,,,,,,,,,,,,,,,,,,,,,,,,"72","86",,,"+0.01","5","63","30.05","74","29.74","9.94","76","170",,"13",,,,,,,,,,,,,,,,,,,,,,,,,,,,,,,,,,,,,"SYN06472518 32866 61711 10300 20222 30072 40177 55004 92051 555 92721=","FM-12","4",,,,,,,,,,,,,,,,,,,,,,,,,,,,"2006-09-08"
"72518014735","2021-06-27T16:51:00","FM-15","7",,,,,"PRECIP","260",,"PLASTIC","42.6918","-73.83109","NWS ALBANY, NY",,,,,,,,,,,,,,,,,,,,,,,,,,,"30.05","71","86","0.00",,,,"61","30.05","FEW:02 80 FEW:02 200 BKN:07 250","29.73","10.00","76","160",,"14",,,,,,,,,,,,,,,,,,,,,,,,,,,,,,,,,,,,,"MET11206/27/21 16:51:02 METAR KALB 272151Z 16012KT 10SM FEW080 FEW200 BKN250 30/22 A3005 RMK AO2 SLP176 T03000217 (JB)","FM-15","7",,,,,,,,,,,,,,,,,,,,,,,,,,,,"2006-09-08"
"72518014735","2021-06-27T17:51:00","FM-15","7",,,,,"PRECIP","260",,"PLASTIC","42.6918","-73.83109","NWS ALBANY, NY",,,,,,,,,,,,,,,,,,,,,,,,,,,"30.05","71","85","0.00",,,,"63","30.04","FEW:02 80 BKN:07 250","29.73","10.00","75","170",,"11",,,,,,,,,,,,,,,,,,,,,,,,,,,,,,,,,,,,,"MET10506/27/21 17:51:02 METAR KALB 272251Z 17010KT 10SM FEW080 BKN250 29/22 A3005 RMK AO2 SLP174 T02940217 (JB)","FM-15","7",,,,,,,,,,,,,,,,,,,,,,,,,,,,"2006-09-08"
"72518014735","2021-06-27T18:51:00","FM-15","7",,,,,"PRECIP","260",,"PLASTIC","42.6918","-73.83109","NWS ALBANY, NY",,,,,,,,,,,,,,,,,,,,,,,,,,,"30.05","70","84","0.00",,"+0.01","5","63","30.04","FEW:02 85 BKN:07 250","29.73","10.00","74","180",,"14",,,,,,,,,,,,,,,,,,,,,,,,,,,,,,,,,,,,,"MET12306/27/21 18:51:02 METAR KALB 272351Z 18012KT 10SM FEW085 BKN250 29/21 A3005 RMK AO2 SLP174 T02890211 10306 20289 55002 (JB)","FM-15","7",,,,,,,,,,,,,,,,,,,,,,,,,,,,"2006-09-08"
"72518014735","2021-06-27T19:00:00","FM-12","4",,,,,"PRECIP","260",,"PLASTIC","42.6918","-73.83109","NWS ALBANY, NY",,,,,,,,,,,,,,,,,,,,,,,,,,,,"70","84",,,"+0.01","5","63","30.04",,"29.73","9.94","74","180",,"14",,,,,,,,,,,,,,,,,,,,,,,,,,,,,,,,,,,,,"SYN08072518 32966 61812 10289 20211 30069 40174 55002 92351 333 10306 20211 555 92800=","FM-12","4",,,,,,,,,,,,,,,,,,,,,,,,,,,,"2006-09-08"
"72518014735","2021-06-27T19:51:00","FM-15","7",,,,,"PRECIP","260",,"PLASTIC","42.6918","-73.83109","NWS ALBANY, NY",,,,,,,,,,,,,,,,,,,,,,,,,,,"30.06","69","81","0.00",,,,"67","30.05","FEW:02 80 BKN:07 250","29.75","10.00","73","160",,"10",,,,,,,,,,,,,,,,,,,,,,,,,,,,,,,,,,,,,"MET10006/27/21 19:51:01 METAR KALB 280051Z 16009KT 10SM FEW080 BKN250 27/21 A3006 RMK AO2 SLP176 T02720206","FM-15","7",,,,,,,,,,,,,,,,,,,,,,,,,,,,"2006-09-08"
"72518014735","2021-06-27T20:51:00","FM-15","7",,,,,"PRECIP","260",,"PLASTIC","42.6918","-73.83109","NWS ALBANY, NY",,,,,,,,,,,,,,,,,,,,,,,,,,,"30.07","69","80","0.00",,,,"69","30.06","SCT:04 250","29.75","10.00","73","170",,"10",,,,,,,,,,,,,,,,,,,,,,,,,,,,,,,,,,,,,"MET09306/27/21 20:51:01 METAR KALB 280151Z 17009KT 10SM SCT250 27/21 A3007 RMK AO2 SLP181 T02670206","FM-15","7",,,,,,,,,,,,,,,,,,,,,,,,,,,,"2006-09-08"
"72518014735","2021-06-27T21:51:00","FM-15","7",,,,,"PRECIP","260",,"PLASTIC","42.6918","-73.83109","NWS ALBANY, NY",,,,,,,,,,,,,,,,,,,,,,,,,,,"30.08","69","78","0.00",,"-0.02","1","74","30.07","FEW:02 250","29.76","10.00","72","160",,"8",,,,,,,,,,,,,,,,,,,,,,,,,,,,,,,,,,,,,"MET09906/27/21 21:51:02 METAR KALB 280251Z 16007KT 10SM FEW250 26/21 A3008 RMK AO2 SLP182 T02560206 51008","FM-15","7",,,,,,,,,,,,,,,,,,,,,,,,,,,,"2006-09-08"
"72518014735","2021-06-27T22:00:00","FM-12","4",,,,,"PRECIP","260",,"PLASTIC","42.6918","-73.83109","NWS ALBANY, NY",,,,,,,,,,,,,,,,,,,,,,,,,,,,"69","78",,,"-0.02","1","74","30.07",,"29.76","9.94","72","160",,"8",,,,,,,,,,,,,,,,,,,,,,,,,,,,,,,,,,,,,"SYN06472518 32966 21607 10256 20206 30079 40182 51008 90251 555 92803=","FM-12","4",,,,,,,,,,,,,,,,,,,,,,,,,,,,"2006-09-08"
"72518014735","2021-06-27T22:51:00","FM-15","7",,,,,"PRECIP","260",,"PLASTIC","42.6918","-73.83109","NWS ALBANY, NY",,,,,,,,,,,,,,,,,,,,,,,,,,,"30.08","70","77","0.00",,,,"79","30.07","FEW:02 250","29.76","10.00","72","160",,"8",,,,,,,,,,,,,,,,,,,,,,,,,,,,,,,,,,,,,"MET09306/27/21 22:51:02 METAR KALB 280351Z 16007KT 10SM FEW250 25/21 A3008 RMK AO2 SLP183 T02500211","FM-15","7",,,,,,,,,,,,,,,,,,,,,,,,,,,,"2006-09-08"
"72518014735","2021-06-27T23:51:00","FM-15","7",,,,,"PRECIP","260",,"PLASTIC","42.6918","-73.83109","NWS ALBANY, NY",,,,,,,,,,,,,,,,,,,,,,,,,,,"30.08","70","76","0.00",,,,"82","30.08","SCT:04 250","29.76","10.00","72","160",,"8",,,,,,,,,,,,,,,,,,,,,,,,,,,,,,,,,,,,,"MET10306/27/21 23:51:02 METAR KALB 280451Z 16007KT 10SM SCT250 24/21 A3008 RMK AO2 SLP185 T02440211 403060211","FM-15","7",,,,,,,,,,,,,,,,,,,,,,,,,,,,"2006-09-08"
"72518014735","2021-06-27T23:59:00","SOD  ","6",,,,,"PRECIP","260",,"PLASTIC","42.6918","-73.83109","NWS ALBANY, NY",,,,,"79",,,"29.76",,"10.9","14","9.1","0","87","70","170","22","0.00",,"0.0","150","20",,,,,,,,,,,,,,,,,,,,,,,,,,,,,,,,,,,,,,,,,,,,,,,,,,,,,,,,,"SOD71824 HR PRECIPITATION (IN): 0.00  24 HR SNOWFALL (IN):0.0  24 HR MAX TEMP (F): 8724 HR MIN TEMP (F): 70AVERAGE STATION PRESSURE:29.760 MINIMUM SEA LEVEL PRESSURE:30.04 TIME OF OCCURRENCE:1853 PEAK WIND SPEED (MPH): 22 PEAK WIND DIR (DEG):170 PEAK WIND TIME (LST):      FASTEST 2MIN SPEED (MPH): 20FASTEST 2MIN DIR (DEG):150 FASTEST 2MIN TIME (LST):     AVERAGE WIND SPEED (MPH):10.9 24 HR AVG TEMP (F): 79DEPART FROM NORMAL:  8  HEATING DEGREE DAYS:  0 COOLING DEGREE DAYS: 14 LATEST DAY MAX TEMP (0700-1900 LST):87  LATEST NIGHT MIN TEMP(1900-0800 LST):70 HOURLY INCREMENTAL PRECIPITATION VALUES (IN):.00 0.00 0.00 0.00 0.00 0.00 0.00 0.00 0.00 0.00 0.00 0.00 0.00 0.00 0.00 0.00 0.00 0.00 0.00 0.00 0.00 0.00 0.00 0.00","SOD  ","6",,,,,,,,,,,,,,,,,,,,,,,,,"0419","1938",,"2006-09-08"
"72518014735","2021-06-28T00:51:00","FM-15","7",,,,,"PRECIP","260",,"PLASTIC","42.6918","-73.83109","NWS ALBANY, NY",,,,,,,,,,,,,,,,,,,,,,,,,,,"30.09","70","75","0.00",,"-0.02","3","84","30.09","FEW:02 100 SCT:04 250","29.78","10.00","72","140",,"7",,,,,,,,,,,,,,,,,,,,,,,,,,,,,,,,,,,,,"MET12306/28/21 00:51:02 METAR KALB 280551Z 14006KT 10SM FEW100 SCT250 24/21 A3009 RMK AO2 SLP188 T02390211 10289 20239 53006 (BA)","FM-15","7",,,,,,,,,,,,,,,,,,,,,,,,,,,,"2006-09-08"
"72518014735","2021-06-28T01:00:00","FM-12","4",,,,,"PRECIP","260",,"PLASTIC","42.6918","-73.83109","NWS ALBANY, NY",,,,,,,,,,,,,,,,,,,,,,,,,,,,"70","75",,,"-0.02","3","84","30.09",,"29.77","9.94","72","140",,"7",,,,,,,,,,,,,,,,,,,,,,,,,,,,,,,,,,,,,"SYN08072518 32966 41406 10239 20211 30082 40188 53006 90551 333 10289 20211 555 92806=","FM-12","4",,,,,,,,,,,,,,,,,,,,,,,,,,,,"2006-09-08"
"72518014735","2021-06-28T01:51:00","FM-15","7",,,,,"PRECIP","260",,"PLASTIC","42.6918","-73.83109","NWS ALBANY, NY",,,,,,,,,,,,,,,,,,,,,,,,,,,"30.10","70","75","0.00",,,,"84","30.09","FEW:02 100","29.78","10.00","72","150",,"8",,,,,,,,,,,,,,,,,,,,,,,,,,,,,,,,,,,,,"MET09806/28/21 01:51:02 METAR KALB 280651Z 15007KT 10SM FEW100 24/21 A3010 RMK AO2 SLP191 T02390211 (BA)","FM-15","7",,,,,,,,,,,,,,,,,,,,,,,,,,,,"2006-09-08"
"72518014735","2021-06-28T02:51:00","FM-15","7",,,,,"PRECIP","260",,"PLASTIC","42.6918","-73.83109","NWS ALBANY, NY",,,,,,,,,,,,,,,,,,,,,,,,,,,"30.11","70","74","0.00",,,,"88","30.10","CLR:00","29.79","10.00","71","150",,"8",,,,,,,,,,,,,,,,,,,,,,,,,,,,,,,,,,,,,"MET09506/28/21 02:51:02 METAR KALB 280751Z 15007KT 10SM CLR 23/21 A3011 RMK AO2 SLP193 T02330211 (BA)","FM-15","7",,,,,,,,,,,,,,,,,,,,,,,,,,,,"2006-09-08"
"72518014735","2021-06-28T03:51:00","FM-15","7",,,,,"PRECIP","260",,"PLASTIC","42.6918","-73.83109","NWS ALBANY, NY",,,,,,,,,,,,,,,,,,,,,,,,,,,"30.12","70","74","0.00",,"-0.03","3","88","30.11","CLR:00","29.80","10.00","71","150",,"9",,,,,,,,,,,,,,,,,,,,,,,,,,,,,,,,,,,,,"MET10106/28/21 03:51:02 METAR KALB 280851Z 15008KT 10SM CLR 23/21 A3012 RMK AO2 SLP198 T02330211 53010 (BA)","FM-15","7",,,,,,,,,,,,,,,,,,,,,,,,,,,,"2006-09-08"
"72518014735","2021-06-28T04:00:00","FM-12","4",,,,,"PRECIP","260",,"PLASTIC","42.6918","-73.83109","NWS ALBANY, NY",,,,,,,,,,,,,,,,,,,,,,,,,,,,"70","74",,,"-0.03","3","88","30.11",,"29.80","9.94","71","150",,"9",,,,,,,,,,,,,,,,,,,,,,,,,,,,,,,,,,,,,"SYN06472518 32966 01508 10233 20211 30092 40198 53010 90851 555 92809=","FM-12","4",,,,,,,,,,,,,,,,,,,,,,,,,,,,"2006-09-08"
"72518014735","2021-06-28T04:51:00","FM-15","7",,,,,"PRECIP","260",,"PLASTIC","42.6918","-73.83109","NWS ALBANY, NY",,,,,,,,,,,,,,,,,,,,,,,,,,,"30.13","70","73","0.00",,,,"90","30.13","SCT:04 250","29.81","10.00","71","150",,"8",,,,,,,,,,,,,,,,,,,,,,,,,,,,,,,,,,,,,"MET09806/28/21 04:51:02 METAR KALB 280951Z 15007KT 10SM SCT250 23/21 A3013 RMK AO2 SLP202 T02280211 (BA)","FM-15","7",,,,,,,,,,,,,,,,,,,,,,,,,,,,"2006-09-08"
"72518014735","2021-06-28T05:51:00","FM-15","7",,,,,"PRECIP","260",,"PLASTIC","42.6918","-73.83109","NWS ALBANY, NY",,,,,,,,,,,,,,,,,,,,,,,,,,,"30.15","71","74","0.00",,,,"91","30.14","FEW:02 70 SCT:04 250","29.83","10.00","72","160",,"7",,,,,,,,,,,,,,,,,,,,,,,,,,,,,,,,,,,,,"MET10506/28/21 05:51:02 METAR KALB 281051Z 16006KT 10SM FEW070 SCT250 23/22 A3015 RMK AO2 SLP206 T02330217 (BA)","FM-15","7",,,,,,,,,,,,,,,,,,,,,,,,,,,,"2006-09-08"
"72518014735","2021-06-28T06:51:00","FM-15","7",,,,,"PRECIP","260",,"PLASTIC","42.6918","-73.83109","NWS ALBANY, NY",,,,,,,,,,,,,,,,,,,,,,,,,,,"30.15","71","76","0.00",,"-0.03","1","85","30.14","SCT:04 70 SCT:04 250","29.83","10.00","73","160",,"10",,,,,,,,,,,,,,,,,,,,,,,,,,,,,,,,,,,,,"MET12306/28/21 06:51:02 METAR KALB 281151Z 16009KT 10SM SCT070 SCT250 24/22 A3015 RMK AO2 SLP208 T02440217 10244 20228 51010 (CL)","FM-15","7",,,,,,,,,,,,,,,,,,,,,,,,,,,,"2006-09-08"
"72518014735","2021-06-28T07:00:00","FM-12","4",,,,,"PRECIP","260",,"PLASTIC","42.6918","-73.83109","NWS ALBANY, NY",,,,,,,,,,,,,,,,,,,,,,,,,,,,"71","76",,,"-0.03","1","85","30.14","74","29.83","9.94","73","160",,"10",,,,,,,,,,,,,,,,,,,,,,,,,,,,,,,,,,,,,"SYN08072518 32866 41609 10244 20217 30102 40208 51010 91151 333 10306 20228 555 92812=","FM-12","4",,,,,,,,,,,,,,,,,,,,,,,,,,,,"2006-09-08"
"72518014735","2021-06-28T07:51:00","FM-15","7",,,,,"PRECIP","260",,"PLASTIC","42.6918","-73.83109","NWS ALBANY, NY",,,,,,,,,,,,,,,,,,,,,,,,,,,"30.16","72","79","0.00",,,,"79","30.15","SCT:04 70 SCT:04 250","29.84","10.00","74","160",,"8",,,,,,,,,,,,,,,,,,,,,,,,,,,,,,,,,,,,,"MET10506/28/21 07:51:02 METAR KALB 281251Z 16007KT 10SM SCT070 SCT250 26/22 A3016 RMK AO2 SLP211 T02610222 (CL)","FM-15","7",,,,,,,,,,,,,,,,,,,,,,,,,,,,"2006-09-08"
"72518014735","2021-06-28T08:51:00","FM-15","7",,,,,"PRECIP","260",,"PLASTIC","42.6918","-73.83109","NWS ALBANY, NY",,,,,,,,,,,,,,,,,,,,,,,,,,,"30.15","73","83","0.00",,,,"72","30.14","FEW:02 70 BKN:07 250","29.83","10.00","76","150",,"7",,,,,,,,,,,,,,,,,,,,,,,,,,,,,,,,,,,,,"MET10506/28/21 08:51:02 METAR KALB 281351Z 15006KT 10SM FEW070 BKN250 28/23 A3015 RMK AO2 SLP207 T02830228 (CL)","FM-15","7",,,,,,,,,,,,,,,,,,,,,,,,,,,,"2006-09-08"
"72518014735","2021-06-28T09:51:00","FM-15","7",,,,,"PRECIP","260",,"PLASTIC","42.6918","-73.83109","NWS ALBANY, NY",,,,,,,,,,,,,,,,,,,,,,,,,,,"30.15","72","85","0.00",,"-0.00","1","65","30.15","SCT:04 32 SCT:04 65 BKN:07 250","29.83","10.00","76","VRB",,"7",,,,,,,,,,,,,,,,,,,,,,,,,,,,,,,,,,,,,"MET11806/28/21 09:51:02 METAR KALB 281451Z VRB06KT 10SM SCT032 SCT065 BKN250 29/22 A3015 RMK AO2 SLP209 T02940222 51001 (CL)","FM-15","7",,,,,,,,,,,,,,,,,,,,,,,,,,,,"2006-09-08"
"72518014735","2021-06-28T10:00:00","FM-12","4",,,,,"PRECIP","260",,"PLASTIC","42.6918","-73.83109","NWS ALBANY, NY",,,,,,,,,,,,,,,,,,,,,,,,,,,,"72","85",,,"-0.00","1","65","30.15","26","29.83","9.94","76",,,"7",,,,,,,,,,,,,,,,,,,,,,,,,,,,,,,,,,,,,"SYN06472518 32566 6//06 10294 20222 30102 40209 51001 91451 555 92815=","FM-12","4",,,,,,,,,,,,,,,,,,,,,,,,,,,,"2006-09-08"
"72518014735","2021-06-28T10:51:00","FM-15","7",,,,,"PRECIP","260",,"PLASTIC","42.6918","-73.83109","NWS ALBANY, NY",,,,,,,,,,,,,,,,,,,,,,,,,,,"30.15","71","88","0.00",,,,"57","30.14","SCT:04 39 BKN:07 47","29.83","10.00","76","240",,"10",,,,,,,,,,,,,,,,,,,,,,,,,,,,,,,,,,,,,"MET10506/28/21 10:51:02 METAR KALB 281551Z 24009KT 10SM SCT039 BKN047 31/22 A3015 RMK AO2 SLP206 T03110217 (CL)","FM-15","7",,,,,,,,,,,,,,,,,,,,,,,,,,,,"2006-09-08"
"72518014735","2021-06-28T11:51:00","FM-15","7",,,,,"PRECIP","260",,"PLASTIC","42.6918","-73.83109","NWS ALBANY, NY",,,,,,,,,,,,,,,,,,,,,,,,,,,"30.14","71","88","0.00",,,,"57","30.13","BKN:07 47 BKN:07 55","29.82","10.00","76","VRB",,"8",,,,,,,,,,,,,,,,,,,,,,,,,,,,,,,,,,,,,"MET10506/28/21 11:51:02 METAR KALB 281651Z 21007KT 10SM BKN047 BKN055 31/22 A3014 RMK AO2 SLP203 T03110217 (CL)","FM-15","7",,,,,,,,,,,,,,,,,,,,,,,,,,,,"2006-09-08"
"72518014735","2021-06-28T12:51:00","FM-15","7",,,,,"PRECIP","260",,"PLASTIC","42.6918","-73.83109","NWS ALBANY, NY",,,,,,,,,,,,,,,,,,,,,,,,,,,"30.12","73","90","0.00",,"+0.03","8","58","30.11","BKN:07 47 BKN:07 60","29.80","10.00","78","170",,"9",,,,,,,,,,,,,,,,,,,,,,,,,,,,,,,,,,,,,"MET12306/28/21 12:51:02 METAR KALB 281751Z 17008KT 10SM BKN047 BKN060 32/23 A3012 RMK AO2 SLP198 T03220228 10322 20244 58010 (CL)","FM-15","7",,,,,,,,,,,,,,,,,,,,,,,,,,,,"2006-09-08"
"72518014735","2021-06-28T13:00:00","FM-12","4",,,,,"PRECIP","260",,"PLASTIC","42.6918","-73.83109","NWS ALBANY, NY",,,,,,,,,,,,,,,,,,,,,,,,,,,,"73","90",,,"+0.03","8","58","30.11","41","29.80","9.94","78","170",,"9",,,,,,,,,,,,,,,,,,,,,,,,,,,,,,,,,,,,,"SYN08072518 32666 61708 10322 20228 30092 40198 58010 91751 333 10322 20244 555 92818=","FM-12","4",,,,,,,,,,,,,,,,,,,,,,,,,,,,"2006-09-08"
"72518014735","2021-06-28T13:51:00","FM-15","7",,,,,"PRECIP","260",,"PLASTIC","42.6918","-73.83109","NWS ALBANY, NY",,,,,,,,,,,,,,,,,,,,,,,,,,,"30.13","74","86","0.18","-RA:02 s |RA s |RA s",,,"67","30.12","SCT:04 46 BKN:07 55 BKN:07 80","29.81","0.50s","78","210","34","22",,,,,,,,,,,,,,,,,,,,,,,,,,,,,,,,,,,,,"MET17706/28/21 13:51:02 METAR KALB 281851Z 21019G30KT 1/2SM R01/3000VP6000FT -RA SCT046 BKN055 BKN080 30/23 A3013 RMK AO2 PK WND 23030/1851 SFC VIS 6 RAB44 SLP200 P0000 T03000233 (CL)","FM-15","7",,,,,,,,,,,,,,,,,,,,,,,,,,,,"2006-09-08"
"72518014735","2021-06-28T13:56:00","FM-16","7",,,,,"PRECIP","260",,"PLASTIC","42.6918","-73.83109","NWS ALBANY, NY",,,,,,,,,,,,,,,,,,,,,,,,,,,"30.12","73","78","0.08","-RA:02 |RA |RA",,,"85",,"FEW:02 15 BKN:07 60 BKN:07 80","29.80","6.00","75","VRB","34","9",,,,,,,,,,,,,,,,,,,,,,,,,,,,,,,,,,,,,"MET15206/28/21 13:56:02 SPECI KALB 281856Z 11008G30KT 6SM R01/2400VP6000FT -RA FEW015 BKN060 BKN080 26/23 A3012 RMK AO2 PK WND 22030/1852 P0008 T02560228 (CL)","FM-16","7",,,,,,,,,,,,,,,,,,,,,,,,,,,,"2006-09-08"
"72518014735","2021-06-28T14:51:00","FM-15","7",,,,,"PRECIP","260",,"PLASTIC","42.6918","-73.83109","NWS ALBANY, NY",,,,,,,,,,,,,,,,,,,,,,,,,,,"30.11","75","88","T",,,,"66","30.11","SCT:04 60 SCT:04 80 BKN:07 250","29.79","10.00","79","110",,"3",,,,,,,,,,,,,,,,,,,,,,,,,,,,,,,,,,,,,"MET14306/28/21 14:51:02 METAR KALB 281951Z 11003KT 10SM SCT060 SCT080 BKN250 31/24 A3011 RMK AO2 PK WND 22030/1852 SLP195 RAE01 P0018 T03110239 (MAK)","FM-15","7",,,,,,,,,,,,,,,,,,,,,,,,,,,,"2006-09-08"
"72518014735","2021-06-28T15:51:00","FM-15","7",,,,,"PRECIP","260",,"PLASTIC","42.6918","-73.83109","NWS ALBANY, NY",,,,,,,,,,,,,,,,,,,,,,,,,,,"30.10","73","87","0.00",,"+0.02","8","63","30.09","FEW:02s 45s SCT:04s 60s","29.78","10.00","77","160",,"9",,,,,,,,,,,,,,,,,,,,,,,,,,,,,,,,,,,,,"MET15706/28/21 15:51:02 METAR KALB 282051Z 16008KT 10SM FEW045 SCT060CB SCT0 31/23 A3010 RMK AO2 LTG DSNT SE AND S SLP190 CB SE-S MOV E 60018 T03060228 58008 (MAK)","FM-15","7",,,,,,,,,,,,,,,,,,,,,,,,,,,,"2006-09-08"
"72518014735","2021-06-28T16:00:00","FM-12","4",,,,,"PRECIP","260",,"PLASTIC","42.6918","-73.83109","NWS ALBANY, NY",,,,,,,,,,,,,,,,,,,,,,,,,,,,"73","87",,,"+0.02","8","63","30.09","41","29.78","9.94","77","160",,"9",,,,,,,,,,,,,,,,,,,,,,,,,,,,,,,,,,,,,"SYN07072518 12666 61608 10306 20228 30086 40190 58008 60057 92051 555 92821=","FM-12","4",,,,,,,,,,,,,,,,,,,,,,,,,,,,"2006-09-08"
"72518014735","2021-06-28T16:51:00","FM-15","7",,,,,"PRECIP","260",,"PLASTIC","42.6918","-73.83109","NWS ALBANY, NY",,,,,,,,,,,,,,,,,,,,,,,,,,,"30.09","72","86","0.00",,,,"63","30.09","FEW:02 45 SCT:04 60 SCT:04 95","29.78","10.00","76","130",,"7",,,,,,,,,,,,,,,,,,,,,,,,,,,,,,,,,,,,,"MET13106/28/21 16:51:02 METAR KALB 282151Z 13006KT 10SM FEW045 SCT060 SCT095 30/22 A3009 RMK AO2 LTG DSNT W AND NW SLP188 T03000222 (MAK)","FM-15","7",,,,,,,,,,,,,,,,,,,,,,,,,,,,"2006-09-08"
"72518014735","2021-06-28T17:51:00","FM-15","7",,,,,"PRECIP","260",,"PLASTIC","42.6918","-73.83109","NWS ALBANY, NY",,,,,,,,,,,,,,,,,,,,,,,,,,,"30.09","73","87","0.00",,,,"63","30.09","FEW:02 70 SCT:04 90 SCT:04 110","29.78","10.00","77","120",,"5",,,,,,,,,,,,,,,,,,,,,,,,,,,,,,,,,,,,,"MET12506/28/21 17:51:02 METAR KALB 282251Z 12004KT 10SM FEW070 SCT090 SCT110 31/23 A3009 RMK AO2 LTG DSNT NE SLP188 T03060228 (MAK)","FM-15","7",,,,,,,,,,,,,,,,,,,,,,,,,,,,"2006-09-08"
"72518014735","2021-06-28T18:51:00","FM-15","7",,,,,"PRECIP","260",,"PLASTIC","42.6918","-73.83109","NWS ALBANY, NY",,,,,,,,,,,,,,,,,,,,,,,,,,,"30.12","70","83","0.00",,"-0.02","3","65","30.11","FEW:02 70 SCT:04 90","29.80","10.00","74","270",,"13",,,,,,,,,,,,,,,,,,,,,,,,,,,,,,,,,,,,,"MET14806/28/21 18:51:02 METAR KALB 282351Z 27011KT 10SM FEW070 SCT090 28/21 A3012 RMK AO2 LTG DSNT NE AND E SLP197 60018 T02830211 10322 20256 53007 (MAK)","FM-15","7",,,,,,,,,,,,,,,,,,,,,,,,,,,,"2006-09-08"
"72518014735","2021-06-28T19:00:00","FM-12","4",,,,,"PRECIP","260",,"PLASTIC","42.6918","-73.83109","NWS ALBANY, NY",,,,,,,,,,,,,,,,,,,,,,,,,,,,"70","83",,,"-0.02","3","65","30.11","74","29.80","9.94","74","270",,"13",,,,,,,,,,,,,,,,,,,,,,,,,,,,,,,,,,,,,"SYN08672518 12866 42711 10283 20211 30092 40197 53007 60051 92351 333 10322 20228 555 92900=","FM-12","4",,,,,,,,,,,,,,,,,,,,,,,,,,,,"2006-09-08"
"72518014735","2021-06-28T19:51:00","FM-15","7",,,,,"PRECIP","260",,"PLASTIC","42.6918","-73.83109","NWS ALBANY, NY",,,,,,,,,,,,,,,,,,,,,,,,,,,"30.12","69","78","0.00",,,,"74","30.11","SCT:04 80","29.80","10.00","72","000",,"0",,,,,,,,,,,,,,,,,,,,,,,,,,,,,,,,,,,,,"MET09306/28/21 19:51:01 METAR KALB 290051Z 00000KT 10SM SCT080 26/21 A3012 RMK AO2 SLP196 T02560206","FM-15","7",,,,,,,,,,,,,,,,,,,,,,,,,,,,"2006-09-08"
"72518014735","2021-06-28T20:51:00","FM-15","7",,,,,"PRECIP","260",,"PLASTIC","42.6918","-73.83109","NWS ALBANY, NY",,,,,,,,,,,,,,,,,,,,,,,,,,,"30.15","69","78","0.00",,,,"74","30.14","BKN:07 70","29.83","10.00","72","090",,"5",,,,,,,,,,,,,,,,,,,,,,,,,,,,,,,,,,,,,"MET10306/28/21 20:51:01 METAR KALB 290151Z 09004KT 10SM BKN070 26/21 A3015 RMK AO2 SLP206 BKN V SCT T02560206","FM-15","7",,,,,,,,,,,,,,,,,,,,,,,,,,,,"2006-09-08"
"72518014735","2021-06-28T21:51:00","FM-15","7",,,,,"PRECIP","260",,"PLASTIC","42.6918","-73.83109","NWS ALBANY, NY",,,,,,,,,,,,,,,,,,,,,,,,,,,"30.16","70","76","0.00",,"-0.04","3","82","30.15","SCT:04 70 SCT:04 110","29.84","10.00","72","000",,"0",,,,,,,,,,,,,,,,,,,,,,,,,,,,,,,,,,,,,"MET10606/28/21 21:51:01 METAR KALB 290251Z 00000KT 10SM SCT070 SCT110 24/21 A3016 RMK AO2 SLP209 T02440211 53012","FM-15","7",,,,,,,,,,,,,,,,,,,,,,,,,,,,"2006-09-08"
"72518014735","2021-06-28T22:00:00","FM-12","4",,,,,"PRECIP","260",,"PLASTIC","42.6918","-73.83109","NWS ALBANY, NY",,,,,,,,,,,,,,,,,,,,,,,,,,,,"70","76",,,"-0.04","3","82","30.15","74","29.84","9.94","72","000",,"0",,,,,,,,,,,,,,,,,,,,,,,,,,,,,,,,,,,,,"SYN06472518 32866 40000 10244 20211 30106 40209 53012 90251 555 92903=","FM-12","4",,,,,,,,,,,,,,,,,,,,,,,,,,,,"2006-09-08"
"72518014735","2021-06-28T22:51:00","FM-15","7",,,,,"PRECIP","260",,"PLASTIC","42.6918","-73.83109","NWS ALBANY, NY",,,,,,,,,,,,,,,,,,,,,,,,,,,"30.16","70","74","0.00",,,,"88","30.15","FEW:02 70 FEW:02 110","29.84","10.00","71","000",,"0",,,,,,,,,,,,,,,,,,,,,,,,,,,,,,,,,,,,,"MET10006/28/21 22:51:02 METAR KALB 290351Z 00000KT 10SM FEW070 FEW110 23/21 A3016 RMK AO2 SLP211 T02330211","FM-15","7",,,,,,,,,,,,,,,,,,,,,,,,,,,,"2006-09-08"
"72518014735","2021-06-28T23:51:00","FM-15","7",,,,,"PRECIP","260",,"PLASTIC","42.6918","-73.83109","NWS ALBANY, NY",,,,,,,,,,,,,,,,,,,,,,,,,,,"30.17","69","74","0.00",,,,"85","30.16","SCT:04 75 SCT:04 110","29.85","10.00","71","000",,"0",,,,,,,,,,,,,,,,,,,,,,,,,,,,,,,,,,,,,"MET11006/28/21 23:51:02 METAR KALB 290451Z 00000KT 10SM SCT075 SCT110 23/21 A3017 RMK AO2 SLP212 T02330206 403220222","FM-15","7",,,,,,,,,,,,,,,,,,,,,,,,,,,,"2006-09-08"
"72518014735","2021-06-28T23:59:00","SOD  ","6",,,,,"PRECIP","260",,"PLASTIC","42.6918","-73.83109","NWS ALBANY, NY",,,,,"81",,,"29.80",,"7.1","16","10.9","0","90","72","220","35","0.18","0","0.0","220","28","RA",,,,,,,,,,,,,,,,,,,,,,,,,,,,,,,,,,,,,,,,,,,,,,,,,,,,,,,,"SOD75624 HR PRECIPITATION (IN): 0.18 SNOW DEPTH (IN):0     24 HR SNOWFALL (IN):0.0  WEATHER(CODE):3  24 HR MAX TEMP (F): 9024 HR MIN TEMP (F): 72AVERAGE STATION PRESSURE:29.800 MINIMUM SEA LEVEL PRESSURE:30.08 TIME OF OCCURRENCE:1751 PEAK WIND SPEED (MPH): 35 PEAK WIND DIR (DEG):220 PEAK WIND TIME (LST):      FASTEST 2MIN SPEED (MPH): 28FASTEST 2MIN DIR (DEG):220 FASTEST 2MIN TIME (LST):     AVERAGE WIND SPEED (MPH): 7.1 24 HR AVG TEMP (F): 81DEPART FROM NORMAL:  9  HEATING DEGREE DAYS:  0 COOLING DEGREE DAYS: 16 LATEST DAY MAX TEMP (0700-1900 LST):90  LATEST NIGHT MIN TEMP(1900-0800 LST):73 HOURLY INCREMENTAL PRECIPITATION VALUES (IN):.00 0.00 0.00 0.00 0.00 0.00 0.00 0.00 0.00 0.00 0.00 0.00 0.00 0.18 T    0.00 0.00 0.00 0.00 0.00 0.00 0.00 0.00 0.00","SOD  ","6",,,,,,,,,,,,,,,,,,,,,,,,,"0419","1937",,"2006-09-08"
"72518014735","2021-06-29T00:51:00","FM-15","7",,,,,"PRECIP","260",,"PLASTIC","42.6918","-73.83109","NWS ALBANY, NY",,,,,,,,,,,,,,,,,,,,,,,,,,,"30.16","70","72","0.00",,"-0.01","0","94","30.15","FEW:02 75","29.84","10.00","71","000",,"0",,,,,,,,,,,,,,,,,,,,,,,,,,,,,,,,,,,,,"MET11606/29/21 00:51:02 METAR KALB 290551Z 00000KT 10SM FEW075 22/21 A3016 RMK AO2 SLP211 T02220211 10283 20217 50002 (BA)","FM-15","7",,,,,,,,,,,,,,,,,,,,,,,,,,,,"2006-09-08"
"72518014735","2021-06-29T01:00:00","FM-12","4",,,,,"PRECIP","260",,"PLASTIC","42.6918","-73.83109","NWS ALBANY, NY",,,,,,,,,,,,,,,,,,,,,,,,,,,,"70","72",,,"0.01","9","94","30.15","74","29.84","9.94","71","000",,"0",,,,,,,,,,,,,,,,,,,,,,,,,,,,,,,,,,,,,"SYN08072518 32866 20000 10222 20211 30106 40211 50002 90551 333 10283 20217 555 92906=","FM-12","4",,,,,,,,,,,,,,,,,,,,,,,,,,,,"2006-09-08"
"72518014735","2021-06-29T01:51:00","FM-15","7",,,,,"PRECIP","260",,"PLASTIC","42.6918","-73.83109","NWS ALBANY, NY",,,,,,,,,,,,,,,,,,,,,,,,,,,"30.16","70","72","0.00",,,,"94","30.15","BKN:07 65","29.84","10.00","71","000",,"0",,,,,,,,,,,,,,,,,,,,,,,,,,,,,,,,,,,,,"MET09806/29/21 01:51:02 METAR KALB 290651Z 00000KT 10SM BKN065 22/21 A3016 RMK AO2 SLP210 T02220211 (BA)","FM-15","7",,,,,,,,,,,,,,,,,,,,,,,,,,,,"2006-09-08"
"72518014735","2021-06-29T02:51:00","FM-15","7",,,,,"PRECIP","260",,"PLASTIC","42.6918","-73.83109","NWS ALBANY, NY",,,,,,,,,,,,,,,,,,,,,,,,,,,"30.17","70","72","0.00",,,,"94","30.16","SCT:04 60","29.85","10.00","71","000",,"0",,,,,,,,,,,,,,,,,,,,,,,,,,,,,,,,,,,,,"MET09806/29/21 02:51:02 METAR KALB 290751Z 00000KT 10SM SCT060 22/21 A3017 RMK AO2 SLP213 T02220211 (BA)","FM-15","7",,,,,,,,,,,,,,,,,,,,,,,,,,,,"2006-09-08"
"72518014735","2021-06-29T03:51:00","FM-15","7",,,,,"PRECIP","260",,"PLASTIC","42.6918","-73.83109","NWS ALBANY, NY",,,,,,,,,,,,,,,,,,,,,,,,,,,"30.17","70","70","0.00",,"-0.01","3","100","30.16","FEW:02 60 SCT:04 120","29.85","10.00","70","000",,"0",,,,,,,,,,,,,,,,,,,,,,,,,,,,,,,,,,,,,"MET11106/29/21 03:51:02 METAR KALB 290851Z 00000KT 10SM FEW060 SCT120 21/21 A3017 RMK AO2 SLP215 T02110211 53004 (BA)","FM-15","7",,,,,,,,,,,,,,,,,,,,,,,,,,,,"2006-09-08"
"72518014735","2021-06-29T04:00:00","FM-12","4",,,,,"PRECIP","260",,"PLASTIC","42.6918","-73.83109","NWS ALBANY, NY",,,,,,,,,,,,,,,,,,,,,,,,,,,,"70","70",,,"-0.01","3","100","30.16","57","29.85","9.94","70","000",,"0",,,,,,,,,,,,,,,,,,,,,,,,,,,,,,,,,,,,,"SYN06472518 32766 40000 10211 20211 30109 40215 53004 90851 555 92909=","FM-12","4",,,,,,,,,,,,,,,,,,,,,,,,,,,,"2006-09-08"
"72518014735","2021-06-29T04:51:00","FM-15","7",,,,,"PRECIP","260",,"PLASTIC","42.6918","-73.83109","NWS ALBANY, NY",,,,,,,,,,,,,,,,,,,,,,,,,,,"30.18","70","71","0.00",,,,"96","30.17","SCT:04 130","29.86","10.00","70","000",,"0",,,,,,,,,,,,,,,,,,,,,,,,,,,,,,,,,,,,,"MET09806/29/21 04:51:02 METAR KALB 290951Z 00000KT 10SM SCT130 22/21 A3018 RMK AO2 SLP218 T02170211 (BA)","FM-15","7",,,,,,,,,,,,,,,,,,,,,,,,,,,,"2006-09-08"
"72518014735","2021-06-29T05:51:00","FM-15","7",,,,,"PRECIP","260",,"PLASTIC","42.6918","-73.83109","NWS ALBANY, NY",,,,,,,,,,,,,,,,,,,,,,,,,,,"30.20","72","74","0.00",,,,"94","30.19","FEW:02 130 FEW:02 250","29.88","10.00","73","000",,"0",,,,,,,,,,,,,,,,,,,,,,,,,,,,,,,,,,,,,"MET10506/29/21 05:51:02 METAR KALB 291051Z 00000KT 10SM FEW130 FEW250 23/22 A3020 RMK AO2 SLP223 T02330222 (BA)","FM-15","7",,,,,,,,,,,,,,,,,,,,,,,,,,,,"2006-09-08"
"72518014735","2021-06-29T06:51:00","FM-15","7",,,,,"PRECIP","260",,"PLASTIC","42.6918","-73.83109","NWS ALBANY, NY",,,,,,,,,,,,,,,,,,,,,,,,,,,"30.20","72","77","0.00",,"-0.03","1","85","30.19","FEW:02 130","29.88","10.00","74","200",,"5",,,,,,,,,,,,,,,,,,,,,,,,,,,,,,,,,,,,,"MET12206/29/21 06:51:02 METAR KALB 291151Z 20004KT 10SM FEW130 25/22 A3020 RMK AO2 SLP224 70018 T02500222 10250 20206 51009 (JB)","FM-15","7",,,,,,,,,,,,,,,,,,,,,,,,,,,,"2006-09-08"
"72518014735","2021-06-29T07:00:00","FM-12","4",,,,,"PRECIP","260",,"PLASTIC","42.6918","-73.83109","NWS ALBANY, NY",,,,,,,,,,,,,,,,,,,,,,,,,,,,"72","77",,,"-0.03","1","85","30.19",,"29.88","9.94","74","200",,"5",,,,,,,,,,,,,,,,,,,,,,,,,,,,,,,,,,,,,"SYN08672518 32966 22004 10250 20222 30119 40224 51009 91151 333 10322 20206 70046 555 92912=","FM-12","4",,,,,,,,,,,,,,,,,,,,,,,,,,,,"2006-09-08"
"72518014735","2021-06-29T07:51:00","FM-15","7",,,,,"PRECIP","260",,"PLASTIC","42.6918","-73.83109","NWS ALBANY, NY",,,,,,,,,,,,,,,,,,,,,,,,,,,"30.20","71","81","0.00",,,,"72","30.19","FEW:02 25 FEW:02 120 FEW:02 250","29.88","10.00","74","240",,"7",,,,,,,,,,,,,,,,,,,,,,,,,,,,,,,,,,,,,"MET11206/29/21 07:51:02 METAR KALB 291251Z 24006KT 10SM FEW025 FEW120 FEW250 27/22 A3020 RMK AO2 SLP223 T02720217 (JB)","FM-15","7",,,,,,,,,,,,,,,,,,,,,,,,,,,,"2006-09-08"
"72518014735","2021-06-29T08:51:00","FM-15","7",,,,,"PRECIP","260",,"PLASTIC","42.6918","-73.83109","NWS ALBANY, NY",,,,,,,,,,,,,,,,,,,,,,,,,,,"30.18","72","82","0.00",,,,"72","30.17","FEW:02 30 FEW:02 250","29.86","10.00","75","260",,"8",,,,,,,,,,,,,,,,,,,,,,,,,,,,,,,,,,,,,"MET10506/29/21 08:51:02 METAR KALB 291351Z 26007KT 10SM FEW030 FEW250 28/22 A3018 RMK AO2 SLP217 T02780222 (JB)","FM-15","7",,,,,,,,,,,,,,,,,,,,,,,,,,,,"2006-09-08"
"72518014735","2021-06-29T09:51:00","FM-15","7",,,,,"PRECIP","260",,"PLASTIC","42.6918","-73.83109","NWS ALBANY, NY",,,,,,,,,,,,,,,,,,,,,,,,,,,"30.17","72","85","0.00",,"+0.04","8","65","30.16","FEW:02 35 FEW:02 250","29.85","10.00","76","230",,"10",,,,,,,,,,,,,,,,,,,,,,,,,,,,,,,,,,,,,"MET11106/29/21 09:51:02 METAR KALB 291451Z 23009KT 10SM FEW035 FEW250 29/22 A3017 RMK AO2 SLP213 T02940222 58012 (JB)","FM-15","7",,,,,,,,,,,,,,,,,,,,,,,,,,,,"2006-09-08"
"72518014735","2021-06-29T10:00:00","FM-12","4",,,,,"PRECIP","260",,"PLASTIC","42.6918","-73.83109","NWS ALBANY, NY",,,,,,,,,,,,,,,,,,,,,,,,,,,,"72","85",,,"+0.04","8","65","30.16","41","29.85","9.94","76","230",,"10",,,,,,,,,,,,,,,,,,,,,,,,,,,,,,,,,,,,,"SYN06472518 32666 22309 10294 20222 30109 40213 58012 91451 555 92915=","FM-12","4",,,,,,,,,,,,,,,,,,,,,,,,,,,,"2006-09-08"
"72518014735","2021-06-29T10:51:00","FM-15","7",,,,,"PRECIP","260",,"PLASTIC","42.6918","-73.83109","NWS ALBANY, NY",,,,,,,,,,,,,,,,,,,,,,,,,,,"30.15","71","87","0.00",,,,"59","30.14","SCT:04 40","29.83","10.00","76","270",,"6",,,,,,,,,,,,,,,,,,,,,,,,,,,,,,,,,,,,,"MET09806/29/21 10:51:02 METAR KALB 291551Z 27005KT 10SM SCT040 31/22 A3015 RMK AO2 SLP207 T03060217 (JB)","FM-15","7",,,,,,,,,,,,,,,,,,,,,,,,,,,,"2006-09-08"
"72518014735","2021-06-29T11:51:00","FM-15","7",,,,,"PRECIP","260",,"PLASTIC","42.6918","-73.83109","NWS ALBANY, NY",,,,,,,,,,,,,,,,,,,,,,,,,,,"30.14","71","89","0.00",,,,"55","30.13","BKN:07 50","29.82","10.00","76","250",,"11",,,,,,,,,,,,,,,,,,,,,,,,,,,,,,,,,,,,,"MET09806/29/21 11:51:02 METAR KALB 291651Z 25010KT 10SM BKN050 32/22 A3014 RMK AO2 SLP204 T03170217 (JB)","FM-15","7",,,,,,,,,,,,,,,,,,,,,,,,,,,,"2006-09-08"
"72518014735","2021-06-29T12:51:00","FM-15","7",,,,,"PRECIP","260",,"PLASTIC","42.6918","-73.83109","NWS ALBANY, NY",,,,,,,,,,,,,,,,,,,,,,,,,,,"30.12","71","90","0.00",,"+0.04","6","54","30.11","BKN:07 50 BKN:07 70","29.80","10.00","77","330",,"10",,,,,,,,,,,,,,,,,,,,,,,,,,,,,,,,,,,,,"MET12306/29/21 12:51:02 METAR KALB 291751Z 33009KT 10SM BKN050 BKN070 32/22 A3012 RMK AO2 SLP198 T03220217 10328 20250 56015 (JB)","FM-15","7",,,,,,,,,,,,,,,,,,,,,,,,,,,,"2006-09-08"
"72518014735","2021-06-29T13:00:00","FM-12","4",,,,,"PRECIP","260",,"PLASTIC","42.6918","-73.83109","NWS ALBANY, NY",,,,,,,,,,,,,,,,,,,,,,,,,,,,"71","90",,,"+0.04","6","54","30.11","57","29.80","9.94","77","330",,"10",,,,,,,,,,,,,,,,,,,,,,,,,,,,,,,,,,,,,"SYN08072518 32766 63309 10322 20217 30092 40198 56015 91751 333 10328 20250 555 92918=","FM-12","4",,,,,,,,,,,,,,,,,,,,,,,,,,,,"2006-09-08"
"72518014735","2021-06-29T13:51:00","FM-15","7",,,,,"PRECIP","260",,"PLASTIC","42.6918","-73.83109","NWS ALBANY, NY",,,,,,,,,,,,,,,,,,,,,,,,,,,"30.10","71","91","T",,,,"52","30.09","FEW:02 50 FEW:02 70 SCT:04 100","29.78","10.00","77","VRB",,"3",,,,,,,,,,,,,,,,,,,,,,,,,,,,,,,,,,,,,"MET15206/29/21 13:51:02 METAR KALB 291851Z VRB03KT 10SM FEW050CB FEW070 SCT100 33/22 A3010 RMK AO2 RAB10E28 SLP190 CB NE AND DSNT W MOV E P0000 T03280217 (JB)","FM-15","7",,,,,,,,,,,,,,,,,,,,,,,,,,,,"2006-09-08"
"72518014735","2021-06-29T14:51:00","FM-15","7",,,,,"PRECIP","260",,"PLASTIC","42.6918","-73.83109","NWS ALBANY, NY",,,,,,,,,,,,,,,,,,,,,,,,,,,"30.09","73","88","T",,,,"61","30.08","FEW:02 50 SCT:04 85 BKN:07 100","29.78","10.00","77","320",,"10",,,,,,,,,,,,,,,,,,,,,,,,,,,,,,,,,,,,,"MET14706/29/21 14:51:02 METAR KALB 291951Z 32009KT 10SM FEW050 SCT085 BKN100 31/23 A3009 RMK AO2 DZB10E38 SLP187 CB DSNT SW-W MOV E P0000 T03110228 (MAK)","FM-15","7",,,,,,,,,,,,,,,,,,,,,,,,,,,,"2006-09-08"
"72518014735","2021-06-29T15:10:00","FM-16","7",,,,,"PRECIP","260",,"PLASTIC","42.6918","-73.83109","NWS ALBANY, NY",,,,,,,,,,,,,,,,,,,,,,,,,,,"30.09","73","86",,"TS:7 |TS TS |",,,"65",,"SCT:04 50 SCT:04 85 BKN:07 100","29.78","10.00","77","270",,"10",,,,,,,,,,,,,,,,,,,,,,,,,,,,,,,,,,,,,"MET16106/29/21 15:10:02 SPECI KALB 292010Z 27009KT 10SM TS SCT050CB SCT085 BKN100 30/23 A3009 RMK AO2 LTG DSNT SW TSB10 OCNL LTGICCG VC S TS VC S MOV E T03000228 (MAK)","FM-16","7",,,,,,,,,,,,,,,,,,,,,,,,,,,,"2006-09-08"
"72518014735","2021-06-29T15:51:00","FM-15","7",,,,,"PRECIP","260",,"PLASTIC","42.6918","-73.83109","NWS ALBANY, NY",,,,,,,,,,,,,,,,,,,,,,,,,,,"30.08","73","88","0.00","TS:7 |TS TS |","+0.05","6","61","30.07","FEW:02 50 SCT:04 85 SCT:04 100","29.76","10.00","77","260",,"10",,,,,,,,,,,,,,,,,,,,,,,,,,,,,,,,,,,,,"MET18806/29/21 15:51:02 METAR KALB 292051Z 26009KT 10SM TS FEW050 SCT085 SCT100 31/23 A3008 RMK AO2 LTG DSNT E-S TSB10 SLP182 FRQ LTGICCG DSNT SE-S TS DSNT SE-S MOV E 60000 T03110228 56016 (MAK)","FM-15","7",,,,,,,,,,,,,,,,,,,,,,,,,,,,"2006-09-08"
"72518014735","2021-06-29T16:00:00","FM-12","4",,,,,"PRECIP","260",,"PLASTIC","42.6918","-73.83109","NWS ALBANY, NY",,,,,,,,,,,,,,,,,,,,,,,,,,,,"73","88",,"||TS","+0.05","6","61","30.07","57","29.76","9.94","77","260",,"10",,,,,,,,,,,,,,,,,,,,,,,,,,,,,,,,,,,,,"SYN07672518 11766 42609 10311 20228 30079 40182 56016 69907 795// 92051 555 92921=","FM-12","4",,,,,,,,,,,,,,,,,,,,,,,,,,,,"2006-09-08"
"72518014735","2021-06-29T16:33:00","FM-16","7",,,,,"PRECIP","260",,"PLASTIC","42.6918","-73.83109","NWS ALBANY, NY",,,,,,,,,,,,,,,,,,,,,,,,,,,"30.08","71","89",,,,,"55",,"FEW:02 50 SCT:04 85 SCT:04 100","29.76","10.00","76","000",,"0",,,,,,,,,,,,,,,,,,,,,,,,,,,,,,,,,,,,,"MET14606/29/21 16:33:02 SPECI KALB 292133Z 00000KT 10SM FEW050 SCT085 SCT100 32/22 A3008 RMK AO2 LTG DSNT ALQDS TSE33 CB DSNT SE-S MOV E T03170217 (MAK)","FM-16","7",,,,,,,,,,,,,,,,,,,,,,,,,,,,"2006-09-08"
"72518014735","2021-06-29T16:51:00","FM-15","7",,,,,"PRECIP","260",,"PLASTIC","42.6918","-73.83109","NWS ALBANY, NY",,,,,,,,,,,,,,,,,,,,,,,,,,,"30.07","71","89","0.00",,,,"55","30.06","FEW:02 50 SCT:04 85 SCT:04 100","29.75","10.00","76","170",,"5",,,,,,,,,,,,,,,,,,,,,,,,,,,,,,,,,,,,,"MET15106/29/21 16:51:02 METAR KALB 292151Z 17004KT 10SM FEW050 SCT085 SCT100 32/22 A3007 RMK AO2 LTG DSNT E-S TSE33 SLP178 CB DSNT E-SE MOV E T03170217 (MAK)","FM-15","7",,,,,,,,,,,,,,,,,,,,,,,,,,,,"2006-09-08"
"72518014735","2021-06-29T17:51:00","FM-15","7",,,,,"PRECIP","260",,"PLASTIC","42.6918","-73.83109","NWS ALBANY, NY",,,,,,,,,,,,,,,,,,,,,,,,,,,"30.09","72","82","0.00",,,,"72","30.08","FEW:02 50 SCT:04 80 SCT:04 100","29.78","10.00","75","160",,"8",,,,,,,,,,,,,,,,,,,,,,,,,,,,,,,,,,,,,"MET15506/29/21 17:51:02 METAR KALB 292251Z 16007KT 10SM FEW050 SCT080 SCT100 28/22 A3009 RMK AO2 LTG DSNT W AND NW SLP187 CB DSNT SW AND NW MOV E T02780222 (MAK)","FM-15","7",,,,,,,,,,,,,,,,,,,,,,,,,,,,"2006-09-08"
"72518014735","2021-06-29T18:33:00","FM-16","7",,,,,"PRECIP","260",,"PLASTIC","42.6918","-73.83109","NWS ALBANY, NY",,,,,,,,,,,,,,,,,,,,,,,,,,,"30.09","71","81",,"|TS |",,,"72",,"FEW:02s 45s SCT:04s 65s","29.78","10.00","74","160",,"7",,,,,,,,,,,,,,,,,,,,,,,,,,,,,,,,,,,,,"MET16206/29/21 18:33:02 SPECI KALB 292333Z 16006KT 10SM TS FEW045 SCT065CB SCT1 27/22 A3009 RMK AO2 LTG DSNT S-W TSB33 OCNL LTGICCG VC SW TS VC SW MOV E T02720217 (MAK)","FM-16","7",,,,,,,,,,,,,,,,,,,,,,,,,,,,"2006-09-08"
"72518014735","2021-06-29T18:51:00","FM-15","7",,,,,"PRECIP","260",,"PLASTIC","42.6918","-73.83109","NWS ALBANY, NY",,,,,,,,,,,,,,,,,,,,,,,,,,,"30.11","*","*","T","|TS |",,,"*","30.11","FEW:02 47 SCT:04 70","29.79","10.00","*","220",,"10",,,,,,,,,,,,,,,,,,,,,,,,,,,,,,,,,,,,,"MET24306/29/21 18:51:02 METAR KALB 292351Z 22009KT 10SM -TSRA FEW047 SCT070CB BKN1 26/23 A3011 RMK AO2 LTG DSNT NE AND S AND SW RAB40 TSB33 PRESRR SLP195 OCNL LTGICCG VC NE AND S-SW TS VC NE AND S-SW MOV E P0000 60000 T02610233 10333 20261 5301 (MAK","FM-15","7",,,,,,,,,,,,,,,,,,,,,,,,,,,,"2006-09-08"
"72518014735","2021-06-29T19:00:00","FM-12","4",,,,,"PRECIP","260",,"PLASTIC","42.6918","-73.83109","NWS ALBANY, NY",,,,,,,,,,,,,,,,,,,,,,,,,,,,"74","79",,,,,"85","30.11","41","29.79","9.94","76","220",,"10",,,,,,,,,,,,,,,,,,,,,,,,,,,,,,,,,,,,,"SYN08072518 11666 62209 10261 20233 30089 40195 69901 92351 333 10333 20206 555 93000=","FM-12","4",,,,,,,,,,,,,,,,,,,,,,,,,,,,"2006-09-08"
"72518014735","2021-06-29T19:38:00","FM-16","7",,,,,"PRECIP","260",,"PLASTIC","42.6918","-73.83109","NWS ALBANY, NY",,,,,,,,,,,,,,,,,,,,,,,,,,,"30.10","71","76","T",,,,"85",,"FEW:02s 47s BKN:07s 65s","29.78","10.00","73","150",,"8",,,,,,,,,,,,,,,,,,,,,,,,,,,,,,,,,,,,,"MET14906/29/21 19:38:01 SPECI KALB 300038Z 15007KT 10SM FEW047 BKN065CB BKN0 24/22 A3010 RMK AO2 LTG DSNT E-S RAE35 TSE38 CB N AND NE MOV E P0000 T02440217","FM-16","7",,,,,,,,,,,,,,,,,,,,,,,,,,,,"2006-09-08"
"72518014735","2021-06-29T19:51:00","FM-15","7",,,,,"PRECIP","260",,"PLASTIC","42.6918","-73.83109","NWS ALBANY, NY",,,,,,,,,,,,,,,,,,,,,,,,,,,"30.10","72","75","T",,,,"90","30.09","FEW:02 45 SCT:04 65","29.78","10.00","73","150",,"6",,,,,,,,,,,,,,,,,,,,,,,,,,,,,,,,,,,,,"MET15606/29/21 19:51:01 METAR KALB 300051Z 15005KT 10SM FEW045 SCT065CB BKN0 24/22 A3010 RMK AO2 LTG DSNT E-S RAE35 TSE38 SLP190 CB N AND NE MOV E P0000 T02390222","FM-15","7",,,,,,,,,,,,,,,,,,,,,,,,,,,,"2006-09-08"
"72518014735","2021-06-29T20:51:00","FM-15","7",,,,,"PRECIP","260",,"PLASTIC","42.6918","-73.83109","NWS ALBANY, NY",,,,,,,,,,,,,,,,,,,,,,,,,,,"30.09","71","73","0.00",,,,"94","30.09","FEW:02 65 SCT:04 100 BKN:07 250","29.78","10.00","72","150",,"3",,,,,,,,,,,,,,,,,,,,,,,,,,,,,,,,,,,,,"MET10706/29/21 20:51:01 METAR KALB 300151Z 15003KT 10SM FEW065 SCT100 BKN250 23/22 A3009 RMK AO2 SLP188 T02280217","FM-15","7",,,,,,,,,,,,,,,,,,,,,,,,,,,,"2006-09-08"
"72518014735","2021-06-29T21:51:00","FM-15","7",,,,,"PRECIP","260",,"PLASTIC","42.6918","-73.83109","NWS ALBANY, NY",,,,,,,,,,,,,,,,,,,,,,,,,,,"30.10","70","73","0.00",,"+0.01","5","90","30.09","SCT:04 75 BKN:07 250","29.78","10.00","71","160",,"5",,,,,,,,,,,,,,,,,,,,,,,,,,,,,,,,,,,,,"MET12406/29/21 21:51:02 METAR KALB 300251Z 16004KT 10SM SCT075 BKN250 23/21 A3010 RMK AO2 LTG DSNT SW SLP189 60000 T02280211 55005","FM-15","7",,,,,,,,,,,,,,,,,,,,,,,,,,,,"2006-09-08"
"72518014735","2021-06-29T22:00:00","FM-12","4",,,,,"PRECIP","260",,"PLASTIC","42.6918","-73.83109","NWS ALBANY, NY",,,,,,,,,,,,,,,,,,,,,,,,,,,,"70","73",,,"+0.01","5","90","30.09","74","29.78","9.94","71","160",,"5",,,,,,,,,,,,,,,,,,,,,,,,,,,,,,,,,,,,,"SYN07072518 12866 61604 10228 20211 30086 40189 55005 69907 90251 555 93003=","FM-12","4",,,,,,,,,,,,,,,,,,,,,,,,,,,,"2006-09-08"
"72518014735","2021-06-29T22:51:00","FM-15","7",,,,,"PRECIP","260",,"PLASTIC","42.6918","-73.83109","NWS ALBANY, NY",,,,,,,,,,,,,,,,,,,,,,,,,,,"30.10","70","72","0.00",,,,"94","30.09","FEW:02 55 SCT:04 75 OVC:08 200","29.78","10.00","71","200",,"6",,,,,,,,,,,,,,,,,,,,,,,,,,,,,,,,,,,,,"MET19106/29/21 22:51:02 METAR KALB 300351Z 20005KT 10SM FEW055CB SCT075 OVC200 22/21 A3010 RMK AO2 LTG DSNT S AND SW SLP190 FRQ LTGICCCCA DSNT SW CB SE-S AND DSNT SW MOV E PRESENT WX VCSH T02220211","FM-15","7",,,,,,,,,,,,,,,,,,,,,,,,,,,,"2006-09-08"
"72518014735","2021-06-29T22:55:00","FM-16","7",,,,,"PRECIP","260",,"PLASTIC","42.6918","-73.83109","NWS ALBANY, NY",,,,,,,,,,,,,,,,,,,,,,,,,,,"30.10","70","72",,"TS:7 |TS TS |",,,"94",,"FEW:02 55 SCT:04 75 OVC:08 200","29.78","10.00","71","210",,"5",,,,,,,,,,,,,,,,,,,,,,,,,,,,,,,,,,,,,"MET21006/29/21 22:55:02 SPECI KALB 300355Z 21004KT 10SM TS FEW055CB SCT075 OVC200 22/21 A3010 RMK AO2 LTG DSNT S AND SW TSB55 OCNL LTGICCCCGCA VC S AND DSNT SW TS VC S MOV E CB DSNT SW MOV E PRESENT WX VCSH T02220211","FM-16","7",,,,,,,,,,,,,,,,,,,,,,,,,,,,"2006-09-08"
"72518014735","2021-06-29T23:18:00","FM-16","7",,,,,"PRECIP","260",,"PLASTIC","42.6918","-73.83109","NWS ALBANY, NY",,,,,,,,,,,,,,,,,,,,,,,,,,,"30.10","71","72",,,,,"97",,"FEW:02 55 SCT:04 75 OVC:08 200","29.78","10.00","71","190",,"7",,,,,,,,,,,,,,,,,,,,,,,,,,,,,,,,,,,,,"MET17806/29/21 23:18:02 SPECI KALB 300418Z 19006KT 10SM FEW055 SCT075 OVC200 22/22 A3010 RMK AO2 LTG DSNT S TSB0355E18 OCNL LTGICCCCGCA DSNT S CB DSNT S MOV E PRESENT WX VCSH T02220217","FM-16","7",,,,,,,,,,,,,,,,,,,,,,,,,,,,"2006-09-08"
"72518014735","2021-06-29T23:34:00","FM-16","7",,,,,"PRECIP","260",,"PLASTIC","42.6918","-73.83109","NWS ALBANY, NY",,,,,,,,,,,,,,,,,,,,,,,,,,,"30.10","71","72","T","TS:7 -RA:02 |RA TS TS |RA",,,"97",,"SCT:04 55 SCT:04 75 OVC:08 200","29.78","10.00","71","190",,"5",,,,,,,,,,,,,,,,,,,,,,,,,,,,,,,,,,,,,"MET17706/29/21 23:34:02 SPECI KALB 300434Z 19004KT 10SM -TSRA SCT055CB SCT075 OVC200 22/22 A3010 RMK AO2 LTG DSNT S RAB30 TSB0355E18B34 OCNL LTGICCC VC S TS VC S MOV E P0000 T02220217","FM-16","7",,,,,,,,,,,,,,,,,,,,,,,,,,,,"2006-09-08"
"72518014735","2021-06-29T23:51:00","FM-15","7",,,,,"PRECIP","260",,"PLASTIC","42.6918","-73.83109","NWS ALBANY, NY",,,,,,,,,,,,,,,,,,,,,,,,,,,"30.09","72","72","T","|RA |RA",,,"100","30.08","FEW:02 55 SCT:04 90 BKN:07 110","29.78","10.00","72","120",,"7",,,,,,,,,,,,,,,,,,,,,,,,,,,,,,,,,,,,,"MET15006/29/21 23:51:02 METAR KALB 300451Z 12006KT 10SM -RA FEW055 SCT090 BKN110 22/22 A3009 RMK AO2 RAB30 TSB0355E18B34E51 SLP186 P0000 T02220222 403330206","FM-15","7",,,,,,,,,,,,,,,,,,,,,,,,,,,,"2006-09-08"
"72518014735","2021-06-29T23:59:00","SOD  ","6",,,,,"PRECIP","260",,"PLASTIC","42.6918","-73.83109","NWS ALBANY, NY",,,,,"81",,,"29.81",,"5.5","16","10.7","0","92","69","270","20","T","0","0.0","260","15","TS RA",,,,,,,,,,,,,,,,,,,,,,,,,,,,,,,,,,,,,,,,,,,,,,,,,,,,,,,,"SOD75624 HR PRECIPITATION (IN):    T SNOW DEPTH (IN):0     24 HR SNOWFALL (IN):0.0  WEATHER(CODE):3  24 HR MAX TEMP (F): 9224 HR MIN TEMP (F): 69AVERAGE STATION PRESSURE(D):29.809 MINIMUM SEA LEVEL PRESSURE:30.05 TIME OF OCCURRENCE:1718 PEAK WIND SPEED (MPH): 20 PEAK WIND DIR (DEG):270 PEAK WIND TIME (LST):      FASTEST 2MIN SPEED (MPH): 15FASTEST 2MIN DIR (DEG):260 FASTEST 2MIN TIME (LST):     AVERAGE WIND SPEED (MPH): 5.5 24 HR AVG TEMP (F): 81DEPART FROM NORMAL:  9  HEATING DEGREE DAYS:  0 COOLING DEGREE DAYS: 16 LATEST DAY MAX TEMP (0700-1900 LST): 92 LATEST NIGHT MIN TEMP(1900-0800 LST):69 HOURLY INCREMENTAL PRECIPITATION VALUES (IN):0.00 0.00 0.00 0.00 0.00 0.00 0.00 0.00 0.00 0.00 0.00 0.00 0.00T    T     0.00 0.00 0.00T    T     0.00 0.00 0.00T","SOD  ","6",,,,,,,,,,,,,,,,,,,,,,,,,"0420","1937",,"2006-09-08"
"72518014735","2021-06-30T00:51:00","FM-15","7",,,,,"PRECIP","260",,"PLASTIC","42.6918","-73.83109","NWS ALBANY, NY",,,,,,,,,,,,,,,,,,,,,,,,,,,"30.06","71","71","T",,"+0.03","8","100","30.06","FEW:02 90 SCT:04 110 OVC:08 140","29.75","10.00","71","190",,"3",,,,,,,,,,,,,,,,,,,,,,,,,,,,,,,,,,,,,"MET14806/30/21 00:51:02 METAR KALB 300551Z 19003KT 10SM FEW090 SCT110 OVC140 22/22 A3006 RMK AO2 RAE27 SLP178 P0000 60000 T02170217 10261 20217 58011 (BA)","FM-15","7",,,,,,,,,,,,,,,,,,,,,,,,,,,,"2006-09-08"
"72518014735","2021-06-30T01:00:00","FM-12","4",,,,,"PRECIP","260",,"PLASTIC","42.6918","-73.83109","NWS ALBANY, NY",,,,,,,,,,,,,,,,,,,,,,,,,,,,"71","71",,,"+0.03","8","100","30.06",,"29.74","9.94","71","190",,"3",,,,,,,,,,,,,,,,,,,,,,,,,,,,,,,,,,,,,"SYN08672518 12966 81903 10217 20217 30072 40178 58011 69901 90551 333 10261 20206 555 93006=","FM-12","4",,,,,,,,,,,,,,,,,,,,,,,,,,,,"2006-09-08"
"72518014735","2021-06-30T01:51:00","FM-15","7",,,,,"PRECIP","260",,"PLASTIC","42.6918","-73.83109","NWS ALBANY, NY",,,,,,,,,,,,,,,,,,,,,,,,,,,"30.06","71","71","0.00",,,,"100","30.05","FEW:02 80 FEW:02 110 OVC:08 140","29.75","10.00","71","000",,"0",,,,,,,,,,,,,,,,,,,,,,,,,,,,,,,,,,,,,"MET11206/30/21 01:51:02 METAR KALB 300651Z 00000KT 10SM FEW080 FEW110 OVC140 22/22 A3006 RMK AO2 SLP175 T02170217 (BA)","FM-15","7",,,,,,,,,,,,,,,,,,,,,,,,,,,,"2006-09-08"
"72518014735","2021-06-30T02:51:00","FM-15","7",,,,,"PRECIP","260",,"PLASTIC","42.6918","-73.83109","NWS ALBANY, NY",,,,,,,,,,,,,,,,,,,,,,,,,,,"30.02","70","70","0.00",,,,"100","30.01","FEW:02 110 OVC:08 140","29.70","10.00","70","150",,"5",,,,,,,,,,,,,,,,,,,,,,,,,,,,,,,,,,,,,"MET10506/30/21 02:51:02 METAR KALB 300751Z 15004KT 10SM FEW110 OVC140 21/21 A3002 RMK AO2 SLP163 T02110211 (BA)","FM-15","7",,,,,,,,,,,,,,,,,,,,,,,,,,,,"2006-09-08"
"72518014735","2021-06-30T03:51:00","FM-15","7",,,,,"PRECIP","260",,"PLASTIC","42.6918","-73.83109","NWS ALBANY, NY",,,,,,,,,,,,,,,,,,,,,,,,,,,"30.01","70","70","0.00",,"+0.05","6","100","30.00","FEW:02 110 OVC:08 180","29.70","10.00","70","000",,"0",,,,,,,,,,,,,,,,,,,,,,,,,,,,,,,,,,,,,"MET11106/30/21 03:51:02 METAR KALB 300851Z 00000KT 10SM FEW110 OVC180 21/21 A3001 RMK AO2 SLP160 T02110211 56017 (BA)","FM-15","7",,,,,,,,,,,,,,,,,,,,,,,,,,,,"2006-09-08"
"72518014735","2021-06-30T04:00:00","FM-12","4",,,,,"PRECIP","260",,"PLASTIC","42.6918","-73.83109","NWS ALBANY, NY",,,,,,,,,,,,,,,,,,,,,,,,,,,,"70","70",,,"+0.05","6","100","30.00",,"29.69","9.94","70","000",,"0",,,,,,,,,,,,,,,,,,,,,,,,,,,,,,,,,,,,,"SYN06472518 32966 80000 10211 20211 30055 40160 56017 90851 555 93009=","FM-12","4",,,,,,,,,,,,,,,,,,,,,,,,,,,,"2006-09-08"
"72518014735","2021-06-30T04:51:00","FM-15","7",,,,,"PRECIP","260",,"PLASTIC","42.6918","-73.83109","NWS ALBANY, NY",,,,,,,,,,,,,,,,,,,,,,,,,,,"30.02","69","70","0.00",,,,"97","30.01","FEW:02 110 SCT:04 150 BKN:07 180","29.70","10.00","69","130",,"5",,,,,,,,,,,,,,,,,,,,,,,,,,,,,,,,,,,,,"MET11206/30/21 04:51:02 METAR KALB 300951Z 13004KT 10SM FEW110 SCT150 BKN180 21/21 A3002 RMK AO2 SLP163 T02110206 (BA)","FM-15","7",,,,,,,,,,,,,,,,,,,,,,,,,,,,"2006-09-08"
"72518014735","2021-06-30T05:51:00","FM-15","7",,,,,"PRECIP","260",,"PLASTIC","42.6918","-73.83109","NWS ALBANY, NY",,,,,,,,,,,,,,,,,,,,,,,,,,,"30.02","69","70","0.00",,,,"97","30.02","FEW:02 110 FEW:02 180 SCT:04 250","29.70","10.00","69","150",,"3",,,,,,,,,,,,,,,,,,,,,,,,,,,,,,,,,,,,,"MET11206/30/21 05:51:02 METAR KALB 301051Z 15003KT 10SM FEW110 FEW180 SCT250 21/21 A3002 RMK AO2 SLP166 T02110206 (BA)","FM-15","7",,,,,,,,,,,,,,,,,,,,,,,,,,,,"2006-09-08"
"72518014735","2021-06-30T06:51:00","FM-15","7",,,,,"PRECIP","260",,"PLASTIC","42.6918","-73.83109","NWS ALBANY, NY",,,,,,,,,,,,,,,,,,,,,,,,,,,"30.02","70","73","0.00",,"-0.01","0","90","30.01","FEW:02 110 BKN:07 170 BKN:07 250","29.70","10.00","71","160",,"5",,,,,,,,,,,,,,,,,,,,,,,,,,,,,,,,,,,,,"MET13006/30/21 06:51:02 METAR KALB 301151Z 16004KT 10SM FEW110 BKN170 BKN250 23/21 A3002 RMK AO2 SLP163 T02280211 10228 20206 50002 (JB)","FM-15","7",,,,,,,,,,,,,,,,,,,,,,,,,,,,"2006-09-08"
"72518014735","2021-06-30T07:00:00","FM-12","4",,,,,"PRECIP","260",,"PLASTIC","42.6918","-73.83109","NWS ALBANY, NY",,,,,,,,,,,,,,,,,,,,,,,,,,,,"70","73",,,"0.01","9","90","30.01",,"29.70","9.94","71","160",,"5",,,,,,,,,,,,,,,,,,,,,,,,,,,,,,,,,,,,,"SYN08072518 32966 61604 10228 20211 30059 40163 50002 91151 333 10333 20206 555 93012=","FM-12","4",,,,,,,,,,,,,,,,,,,,,,,,,,,,"2006-09-08"
"72518014735","2021-06-30T07:45:00","FM-16","7",,,,,"PRECIP","260",,"PLASTIC","42.6918","-73.83109","NWS ALBANY, NY",,,,,,,,,,,,,,,,,,,,,,,,,,,"30.01","72","75",,,,,"89",,"FEW:02 4 BKN:07 180 BKN:07 250","29.70","10.00","73","140",,"6",,,,,,,,,,,,,,,,,,,,,,,,,,,,,,,,,,,,,"MET09506/30/21 07:45:02 SPECI KALB 301245Z 14005KT 10SM FEW004 BKN180 BKN250 24/22 A3001 RMK AO2 (JB)","FM-16","7",,,,,,,,,,,,,,,,,,,,,,,,,,,,"2006-09-08"
"72518014735","2021-06-30T07:51:00","FM-15","7",,,,,"PRECIP","260",,"PLASTIC","42.6918","-73.83109","NWS ALBANY, NY",,,,,,,,,,,,,,,,,,,,,,,,,,,"30.01","71","76","0.00",,,,"85","30.01","FEW:02 4 BKN:07 180 BKN:07 250","29.70","10.00","73","140",,"9",,,,,,,,,,,,,,,,,,,,,,,,,,,,,,,,,,,,,"MET11206/30/21 07:51:02 METAR KALB 301251Z 14008KT 10SM FEW004 BKN180 BKN250 24/22 A3001 RMK AO2 SLP161 T02440217 (JB)","FM-15","7",,,,,,,,,,,,,,,,,,,,,,,,,,,,"2006-09-08"
"72518014735","2021-06-30T08:51:00","FM-15","7",,,,,"PRECIP","260",,"PLASTIC","42.6918","-73.83109","NWS ALBANY, NY",,,,,,,,,,,,,,,,,,,,,,,,,,,"30.00","72","79","0.00",,,,"79","29.99","FEW:02 25 FEW:02 180 FEW:02 250","29.68","10.00","74","150",,"5",,,,,,,,,,,,,,,,,,,,,,,,,,,,,,,,,,,,,"MET11206/30/21 08:51:02 METAR KALB 301351Z 15004KT 10SM FEW025 FEW180 FEW250 26/22 A3000 RMK AO2 SLP156 T02610222 (JB)","FM-15","7",,,,,,,,,,,,,,,,,,,,,,,,,,,,"2006-09-08"
"72518014735","2021-06-30T09:51:00","FM-15","7",,,,,"PRECIP","260",,"PLASTIC","42.6918","-73.83109","NWS ALBANY, NY",,,,,,,,,,,,,,,,,,,,,,,,,,,"29.98","70","83","0.00",,"+0.04","8","65","29.97","FEW:02 35 FEW:02 180 FEW:02 250","29.67","10.00","74","210",,"7",,,,,,,,,,,,,,,,,,,,,,,,,,,,,,,,,,,,,"MET11806/30/21 09:51:02 METAR KALB 301451Z 21006KT 10SM FEW035 FEW180 FEW250 28/21 A2998 RMK AO2 SLP150 T02830211 58012 (JB)","FM-15","7",,,,,,,,,,,,,,,,,,,,,,,,,,,,"2006-09-08"
"72518014735","2021-06-30T10:00:00","FM-12","4",,,,,"PRECIP","260",,"PLASTIC","42.6918","-73.83109","NWS ALBANY, NY",,,,,,,,,,,,,,,,,,,,,,,,,,,,"70","83",,,"+0.04","8","65","29.97","41","29.66","9.94","74","210",,"7",,,,,,,,,,,,,,,,,,,,,,,,,,,,,,,,,,,,,"SYN06472518 32666 22106 10283 20211 30045 40150 58012 91451 555 93015=","FM-12","4",,,,,,,,,,,,,,,,,,,,,,,,,,,,"2006-09-08"
"72518014735","2021-06-30T10:51:00","FM-15","7",,,,,"PRECIP","260",,"PLASTIC","42.6918","-73.83109","NWS ALBANY, NY",,,,,,,,,,,,,,,,,,,,,,,,,,,"29.95","72","85","0.00",,,,"65","29.94","SCT:04 40 SCT:04 180","29.64","10.00","76","180",,"7",,,,,,,,,,,,,,,,,,,,,,,,,,,,,,,,,,,,,"MET10506/30/21 10:51:02 METAR KALB 301551Z 18006KT 10SM SCT040 SCT180 29/22 A2995 RMK AO2 SLP139 T02940222 (JB)","FM-15","7",,,,,,,,,,,,,,,,,,,,,,,,,,,,"2006-09-08"
"72518014735","2021-06-30T11:51:00","FM-15","7",,,,,"PRECIP","260",,"PLASTIC","42.6918","-73.83109","NWS ALBANY, NY",,,,,,,,,,,,,,,,,,,,,,,,,,,"29.93","71","87","0.00",,,,"59","29.92","BKN:07 46 BKN:07 180 BKN:07 250","29.62","10.00","76","200",,"9",,,,,,,,,,,,,,,,,,,,,,,,,,,,,,,,,,,,,"MET11206/30/21 11:51:02 METAR KALB 301651Z 20008KT 10SM BKN046 BKN180 BKN250 31/22 A2993 RMK AO2 SLP131 T03060217 (JB)","FM-15","7",,,,,,,,,,,,,,,,,,,,,,,,,,,,"2006-09-08"
"72518014735","2021-06-30T12:51:00","FM-15","7",,,,,"PRECIP","260",,"PLASTIC","42.6918","-73.83109","NWS ALBANY, NY",,,,,,,,,,,,,,,,,,,,,,,,,,,"29.90","69","88","0.00",,"+0.07","6","54","29.89","BKN:07 50 BKN:07 70 BKN:07 180","29.59","10.00","75","240",,"8",,,,,,,,,,,,,,,,,,,,,,,,,,,,,,,,,,,,,"MET13006/30/21 12:51:02 METAR KALB 301751Z 24007KT 10SM BKN050 BKN070 BKN180 31/21 A2990 RMK AO2 SLP123 T03110206 10317 20228 56025 (JB)","FM-15","7",,,,,,,,,,,,,,,,,,,,,,,,,,,,"2006-09-08"
"72518014735","2021-06-30T13:00:00","FM-12","4",,,,,"PRECIP","260",,"PLASTIC","42.6918","-73.83109","NWS ALBANY, NY",,,,,,,,,,,,,,,,,,,,,,,,,,,,"69","88",,,"+0.07","6","54","29.89","57","29.58","9.94","75","240",,"8",,,,,,,,,,,,,,,,,,,,,,,,,,,,,,,,,,,,,"SYN08072518 32766 62407 10311 20206 30018 40123 56025 91751 333 10317 20228 555 93018=","FM-12","4",,,,,,,,,,,,,,,,,,,,,,,,,,,,"2006-09-08"
"72518014735","2021-06-30T13:51:00","FM-15","7",,,,,"PRECIP","260",,"PLASTIC","42.6918","-73.83109","NWS ALBANY, NY",,,,,,,,,,,,,,,,,,,,,,,,,,,"29.89","71","79","0.19","+RA:02 BR:1 |RA |RA",,,"77","29.89","BKN:07 60 BKN:07 85 BKN:07 180","29.57","3.00","74","260","25","21",,,,,,,,,,,,,,,,,,,,,,,,,,,,,,,,,,,,,"MET18206/30/21 13:51:02 METAR KALB 301851Z 26018G22KT 3SM R01/4000VP6000FT +RA BR BKN060CB BKN085 BKN180 26/22 A2989 RMK AO2 LTG DSNT ALQDS RAB43 SLP121 CB OHD-W MOV E P0006 T02610217 (JB)","FM-15","7",,,,,,,,,,,,,,,,,,,,,,,,,,,,"2006-09-08"
"72518014735","2021-06-30T13:54:00","FM-16","7",,,,,"PRECIP","260",,"PLASTIC","42.6918","-73.83109","NWS ALBANY, NY",,,,,,,,,,,,,,,,,,,,,,,,,,,"29.89","71","77","0.05","+RA:02 BR:1 |RA |RA",,,"82",,"BKN:07 44 BKN:07 85 BKN:07 180","29.57","2.00V","73","280","28","21",,,,,,,,,,,,,,,,,,,,,,,,,,,,,,,,,,,,,"MET18506/30/21 13:54:02 SPECI KALB 301854Z 28018G24KT 2SM R01/4000VP6000FT +RA BR BKN044CB BKN085 BKN180 25/22 A2989 RMK AO2 LTG DSNT ALQDS VIS 1 1/2V2 1/2 CB OHD-W MOV E P0005 T02500217 (JB)","FM-16","7",,,,,,,,,,,,,,,,,,,,,,,,,,,,"2006-09-08"
"72518014735","2021-06-30T13:58:00","FM-16","7",,,,,"PRECIP","260",,"PLASTIC","42.6918","-73.83109","NWS ALBANY, NY",,,,,,,,,,,,,,,,,,,,,,,,,,,"29.88","70","75","0.13","RA:02 BR:1 |RA |RA",,,"84",,"BKN:07 42 BKN:07 85 BKN:07 180","29.57","3.00","72","290",,"18",,,,,,,,,,,,,,,,,,,,,,,,,,,,,,,,,,,,,"MET17606/30/21 13:58:02 SPECI KALB 301858Z 29016KT 3SM R01/4000VP6000FT RA BR BKN042CB BKN085 BKN180 24/21 A2988 RMK AO2 WSHFT 1844 LTG DSNT ALQDS CB ALQDS MOV E P0013 T02390211 (JB)","FM-16","7",,,,,,,,,,,,,,,,,,,,,,,,,,,,"2006-09-08"
"72518014735","2021-06-30T14:19:00","FM-16","7",,,,,"PRECIP","260",,"PLASTIC","42.6918","-73.83109","NWS ALBANY, NY",,,,,,,,,,,,,,,,,,,,,,,,,,,"29.89","72","76","0.14","TS:7 -RA:02 |RA TS TS |RA",,,"88",,"BKN:07 42 BKN:07 65","29.57","10.00","73","300","30","20",,,,,,,,,,,,,,,,,,,,,,,,,,,,,,,,,,,,,"MET21006/30/21 14:19:02 SPECI KALB 301919Z 30017G26KT 10SM -TSRA BKN042CB BKN065 BKN1 24/22 A2989 RMK AO2 PK WND 29026/1915 WSHFT 1844 LTG DSNT ALQDS TSB19 OCNL LTGICCC NE-SE-SW TS NE-SE-SW MOV E P0014 T02440222 (JB)","FM-16","7",,,,,,,,,,,,,,,,,,,,,,,,,,,,"2006-09-08"
"72518014735","2021-06-30T14:38:00","FM-16","7",,,,,"PRECIP","260",,"PLASTIC","42.6918","-73.83109","NWS ALBANY, NY",,,,,,,,,,,,,,,,,,,,,,,,,,,"29.88","72","79","0.14",,,,"79",,"BKN:07 42 BKN:07 65 BKN:07 100","29.57","10.00","74","300",,"16",,,,,,,,,,,,,,,,,,,,,,,,,,,,,,,,,,,,,"MET20106/30/21 14:38:02 SPECI KALB 301938Z 30014KT 10SM BKN042 BKN065 BKN100 26/22 A2988 RMK AO2 PK WND 29026/1915 WSHFT 1844 LTG DSNT NE-SE RAE31 TSB19E38 CB DSNT NE-SE AND W-NW MOV E TCU DSNT SW P0014 T025","FM-16","7",,,,,,,,,,,,,,,,,,,,,,,,,,,,"2006-09-08"
"72518014735","2021-06-30T14:51:00","FM-15","7",,,,,"PRECIP","260",,"PLASTIC","42.6918","-73.83109","NWS ALBANY, NY",,,,,,,,,,,,,,,,,,,,,,,,,,,"29.88","70","79","0.01",,,,"74","29.88","SCT:04 42 BKN:07 65 BKN:07 95","29.57","10.00","73","300","25","17",,,,,,,,,,,,,,,,,,,,,,,,,,,,,,,,,,,,,"MET20406/30/21 14:51:02 METAR KALB 301951Z 30015G22KT 10SM SCT042 BKN065 BKN095 26/21 A2988 RMK AO2 PK WND 29026/1915 WSHFT 1844 LTG DSNT NE-SE RAE31 TSB19E38 SLP117 CB DSNT NE-SE AND W-NW MOV E P0014 T02610211","FM-15","7",,,,,,,,,,,,,,,,,,,,,,,,,,,,"2006-09-08"
"72518014735","2021-06-30T15:51:00","FM-15","7",,,,,"PRECIP","260",,"PLASTIC","42.6918","-73.83109","NWS ALBANY, NY",,,,,,,,,,,,,,,,,,,,,,,,,,,"29.89","68","78","T",,"+0.02","5","71","29.88","FEW:02 42 BKN:07 65","29.57","10.00","71","290",,"9",,,,,,,,,,,,,,,,,,,,,,,,,,,,,,,,,,,,,"MET16206/30/21 15:51:02 METAR KALB 302051Z 29008KT 10SM FEW042CB BKN065 BKN0 26/20 A2989 RMK AO2 LTG DSNT S-W SLP119 CB SW-NW MOV E VCSH SW-N 60020 T02560200 55006 (JF)","FM-15","7",,,,,,,,,,,,,,,,,,,,,,,,,,,,"2006-09-08"
"72518014735","2021-06-30T15:57:00","FM-16","7",,,,,"PRECIP","260",,"PLASTIC","42.6918","-73.83109","NWS ALBANY, NY",,,,,,,,,,,,,,,,,,,,,,,,,,,"29.89","68","77","T","TS:7 -RA:02 |RA TS TS |RA",,,"74",,"SCT:04 42 BKN:07 65","29.57","10.00","71","290",,"10",,,,,,,,,,,,,,,,,,,,,,,,,,,,,,,,,,,,,"MET17706/30/21 15:57:02 SPECI KALB 302057Z 29009KT 10SM -TSRA SCT042CB BKN065 BKN0 25/20 A2989 RMK AO2 LTG DSNT SE-W RAB54 TSB57 OCNL LTGICCG SW-NW TS SW-NW MOV E P0000 T02500200 (JF)","FM-16","7",,,,,,,,,,,,,,,,,,,,,,,,,,,,"2006-09-08"
"72518014735","2021-06-30T16:00:00","FM-12","4",,,,,"PRECIP","260",,"PLASTIC","42.6918","-73.83109","NWS ALBANY, NY",,,,,,,,,,,,,,,,,,,,,,,,,,,,"68","78",,,"+0.02","5","71","29.88","41","29.57","9.94","71","290",,"9",,,,,,,,,,,,,,,,,,,,,,,,,,,,,,,,,,,,,"SYN07072518 12666 62908 10256 20200 30015 40119 55006 60057 92051 555 93021=","FM-12","4",,,,,,,,,,,,,,,,,,,,,,,,,,,,"2006-09-08"
"72518014735","2021-06-30T16:20:00","FM-16","7",,,,,"PRECIP","260",,"PLASTIC","42.6918","-73.83109","NWS ALBANY, NY",,,,,,,,,,,,,,,,,,,,,,,,,,,"29.90","71","74","T","TS:7 RA:02 BR:1 |RA TS |RA",,,"91",,"SCT:04 42 BKN:07 65","29.59","2.00","72","290","22","15",,,,,,,,,,,,,,,,,,,,,,,,,,,,,,,,,,,,,"MET19806/30/21 16:20:02 SPECI KALB 302120Z 29013G19KT 2SM TSRA BR SCT042CB BKN065 BKN0 23/22 A2990 RMK AO2 SFC VIS 3 LTG DSNT SW AND W RAB2054 TSB2057 FRQ LTGICCG ALQDS TS ALQDS MOV E P0000 T02330217 (JF)","FM-16","7",,,,,,,,,,,,,,,,,,,,,,,,,,,,"2006-09-08"
"72518014735","2021-06-30T16:34:00","FM-16","7",,,,,"PRECIP","260",,"PLASTIC","42.6918","-73.83109","NWS ALBANY, NY",,,,,,,,,,,,,,,,,,,,,,,,,,,"29.91","72","73","0.03","TS:7 -RA:02 BR:1 |RA TS |RA",,,"96",,"SCT:04 44 SCT:04 55 OVC:08 75","29.59","5.00","72","250",,"9",,,,,,,,,,,,,,,,,,,,,,,,,,,,,,,,,,,,,"MET18806/30/21 16:34:02 SPECI KALB 302134Z 25008KT 5SM -TSRA BR SCT044CB SCT055 OVC075 23/22 A2991 RMK AO2 LTG DSNT NE AND SW RAB2054 TSB2057 OCNL LTGICCCCG E-S TS E-S MOV E P0003 T02280222 (JF)","FM-16","7",,,,,,,,,,,,,,,,,,,,,,,,,,,,"2006-09-08"
"72518014735","2021-06-30T16:51:00","FM-15","7",,,,,"PRECIP","260",,"PLASTIC","42.6918","-73.83109","NWS ALBANY, NY",,,,,,,,,,,,,,,,,,,,,,,,,,,"29.91","70","73","0.04","TS:7 -RA:02 |RA TS TS |RA",,,"90","29.91","FEW:02 44 SCT:04 55 OVC:08 100","29.59","10.00","71","250",,"8",,,,,,,,,,,,,,,,,,,,,,,,,,,,,,,,,,,,,"MET19606/30/21 16:51:02 METAR KALB 302151Z 25007KT 10SM -TSRA FEW044CB SCT055 OVC100 23/21 A2991 RMK AO2 LTG DSNT E-SW RAB2054 TSB2057 SLP127 OCNL LTGICCCCG VC E-S TS VC E-S MOV E P0004 T02280211 $ (JF)","FM-15","7",,,,,,,,,,,,,,,,,,,,,,,,,,,,"2006-09-08"
"72518014735","2021-06-30T16:58:00","FM-16","7",,,,,"PRECIP","260",,"PLASTIC","42.6918","-73.83109","NWS ALBANY, NY",,,,,,,,,,,,,,,,,,,,,,,,,,,"29.91","70","72","T","-RA:02 |RA |RA",,,"94",,"FEW:02 44 SCT:04 55 OVC:08 110","29.59","10.00","71","230",,"7",,,,,,,,,,,,,,,,,,,,,,,,,,,,,,,,,,,,,"MET15506/30/21 16:58:02 SPECI KALB 302158Z 23006KT 10SM -RA FEW044 SCT055 OVC110 22/21 A2991 RMK AO2 LTG DSNT E-S TSE58 CB DSNT E-SW MOV E P0000 T02220211 $ (JF)","FM-16","7",,,,,,,,,,,,,,,,,,,,,,,,,,,,"2006-09-08"
"72518014735","2021-06-30T17:06:00","FM-16","7",,,,,"PRECIP","260",,"PLASTIC","42.6918","-73.83109","NWS ALBANY, NY",,,,,,,,,,,,,,,,,,,,,,,,,,,"29.92","70","72","T","TS:7 -RA:02 |RA TS TS |RA",,,"94",,"FEW:02 44 SCT:04 55","29.61","10.00","71","230",,"8",,,,,,,,,,,,,,,,,,,,,,,,,,,,,,,,,,,,,"MET18806/30/21 17:06:02 SPECI KALB 302206Z 23007KT 10SM -TSRA FEW044CB SCT055 BKN1 22/21 A2992 RMK AO2 LTG DSNT SE-SW TSE2158B06 OCNL LTGIC S-SW TS S-SW MOV E PCPN VRY LGT P0000 T02220211 $ (JF)","FM-16","7",,,,,,,,,,,,,,,,,,,,,,,,,,,,"2006-09-08"
"72518014735","2021-06-30T17:51:00","FM-15","7",,,,,"PRECIP","260",,"PLASTIC","42.6918","-73.83109","NWS ALBANY, NY",,,,,,,,,,,,,,,,,,,,,,,,,,,"29.92","70","71","0.01","TS:7 -RA:02 |RA TS TS |RA",,,"96","29.91","FEW:02 20 FEW:02 49","29.61","10.00","70","190",,"5",,,,,,,,,,,,,,,,,,,,,,,,,,,,,,,,,,,,,"MET19106/30/21 17:51:02 METAR KALB 302251Z 19004KT 10SM -TSRA FEW020 FEW049CB BKN1 22/21 A2992 RMK AO2 LTG DSNT S TSE2158B06 SLP129 OCNL LTGICCG VC E-S TS VC E-S MOV E BINOVC P0001 T02170211 $ (JF)","FM-15","7",,,,,,,,,,,,,,,,,,,,,,,,,,,,"2006-09-08"
"72518014735","2021-06-30T18:15:00","FM-16","7",,,,,"PRECIP","260",,"PLASTIC","42.6918","-73.83109","NWS ALBANY, NY",,,,,,,,,,,,,,,,,,,,,,,,,,,"29.93","70","71","T",,,,"96",,"FEW:02 40 FEW:02 110 BKN:07 140","29.62","10.00","70","160",,"6",,,,,,,,,,,,,,,,,,,,,,,,,,,,,,,,,,,,,"MET15106/30/21 18:15:02 SPECI KALB 302315Z 16005KT 10SM FEW040 FEW110 BKN140 22/21 A2993 RMK AO2 RAE04 TSE15 CB DSNT E-SW MOV E BINOVC P0000 T02170211 $ (JF)","FM-16","7",,,,,,,,,,,,,,,,,,,,,,,,,,,,"2006-09-08"
"72518014735","2021-06-30T18:51:00","FM-15","7",,,,,"PRECIP","260",,"PLASTIC","42.6918","-73.83109","NWS ALBANY, NY",,,,,,,,,,,,,,,,,,,,,,,,,,,"29.91","71","71","T",,"-0.02","0","100","29.90","FEW:02 40 FEW:02 110 BKN:07 160","29.59","10.00","71","150",,"7",,,,,,,,,,,,,,,,,,,,,,,,,,,,,,,,,,,,,"MET20106/30/21 18:51:02 METAR KALB 302351Z 15006KT 10SM FEW040 FEW110 BKN160 22/22 A2991 RMK AO2 LTG DSNT SE RAE04 TSE15 SLP126 CB DSNT E-S AND W-NW MOV SE ACSL DSNT W BINOVC P0000 60025 T02170217 10322 2021","FM-15","7",,,,,,,,,,,,,,,,,,,,,,,,,,,,"2006-09-08"
"72518014735","2021-06-30T19:00:00","FM-12","4",,,,,"PRECIP","260",,"PLASTIC","42.6918","-73.83109","NWS ALBANY, NY",,,,,,,,,,,,,,,,,,,,,,,,,,,,"71","71",,,"0.02","9","100","29.90","41","29.59","9.94","71","150",,"7",,,,,,,,,,,,,,,,,,,,,,,,,,,,,,,,,,,,,"SYN08672518 12666 81506 10217 20217 30022 40126 50007 60061 92351 333 10322 20217 555 90100=","FM-12","4",,,,,,,,,,,,,,,,,,,,,,,,,,,,"2006-09-08"
"72518014735","2021-06-30T19:51:00","FM-15","7",,,,,"PRECIP","260",,"PLASTIC","42.6918","-73.83109","NWS ALBANY, NY",,,,,,,,,,,,,,,,,,,,,,,,,,,"29.91","70","70","0.00",,,,"100","29.90","FEW:02 40 FEW:02 110 SCT:04 140","29.59","10.00","70","150",,"5",,,,,,,,,,,,,,,,,,,,,,,,,,,,,,,,,,,,,"MET13106/30/21 19:51:03 METAR KALB 010051Z 15004KT 10SM FEW040 FEW110 SCT140 21/21 A2991 RMK AO2 SLP125 CB DSNT W MOV SE T02110211 $ (JF)","FM-15","7",,,,,,,,,,,,,,,,,,,,,,,,,,,,"2006-09-08"
"72518014735","2021-06-30T20:51:00","FM-15","7",,,,,"PRECIP","260",,"PLASTIC","42.6918","-73.83109","NWS ALBANY, NY",,,,,,,,,,,,,,,,,,,,,,,,,,,"29.91","69","69","0.00",,,,"100","29.91","FEW:02 35 FEW:02 110 BKN:07 160","29.59","10.00","69","140",,"7",,,,,,,,,,,,,,,,,,,,,,,,,,,,,,,,,,,,,"MET13006/30/21 20:51:03 METAR KALB 010151Z 14006KT 10SM FEW035 FEW110 BKN160 21/21 A2991 RMK AO2 SLP127 PRESENT WX VCSH T02060206 $ (JF)","FM-15","7",,,,,,,,,,,,,,,,,,,,,,,,,,,,"2006-09-08"
"72518014735","2021-06-30T21:51:00","FM-15","7",,,,,"PRECIP","260",,"PLASTIC","42.6918","-73.83109","NWS ALBANY, NY",,,,,,,,,,,,,,,,,,,,,,,,,,,"29.91","69","69","0.00",,"+0.00","8","100","29.90","FEW:02 35 BKN:07 60 BKN:07 90","29.59","10.00","69","000",,"0",,,,,,,,,,,,,,,,,,,,,,,,,,,,,,,,,,,,,"MET13606/30/21 21:51:03 METAR KALB 010251Z 00000KT 10SM FEW035 BKN060 BKN090 21/21 A2991 RMK AO2 SLP126 PRESENT WX VCSH T02060206 58000 $ (JF)","FM-15","7",,,,,,,,,,,,,,,,,,,,,,,,,,,,"2006-09-08"
"72518014735","2021-06-30T22:00:00","FM-12","4",,,,,"PRECIP","260",,"PLASTIC","42.6918","-73.83109","NWS ALBANY, NY",,,,,,,,,,,,,,,,,,,,,,,,,,,,"69","69",,,"0.00","4","100","29.90","41","29.59","9.94","69","000",,"0",,,,,,,,,,,,,,,,,,,,,,,,,,,,,,,,,,,,,"SYN06472518 32666 80000 10206 20206 30022 40126 58000 90251 555 90103=","FM-12","4",,,,,,,,,,,,,,,,,,,,,,,,,,,,"2006-09-08"
"72518014735","2021-06-30T22:51:00","FM-15","7",,,,,"PRECIP","260",,"PLASTIC","42.6918","-73.83109","NWS ALBANY, NY",,,,,,,,,,,,,,,,,,,,,,,,,,,"29.90","69","69","T",,,,"100","29.90","FEW:02 40 OVC:08 75","29.59","10.00","69","150",,"6",,,,,,,,,,,,,,,,,,,,,,,,,,,,,,,,,,,,,"MET10706/30/21 22:51:03 METAR KALB 010351Z 15005KT 10SM FEW040 OVC075 21/21 A2990 RMK AO2 SLP124 T02060206 $ (JF)","FM-15","7",,,,,,,,,,,,,,,,,,,,,,,,,,,,"2006-09-08"
"72518014735","2021-06-30T23:51:00","FM-15","7",,,,,"PRECIP","260",,"PLASTIC","42.6918","-73.83109","NWS ALBANY, NY",,,,,,,,,,,,,,,,,,,,,,,,,,,"29.89","69","69","0.01","-RA:02 |RA |RA",,,"100","29.89","SCT:04 60 BKN:07 85 OVC:08 100","29.57","10.00","69","160",,"5",,,,,,,,,,,,,,,,,,,,,,,,,,,,,,,,,,,,,"MET14206/30/21 23:51:03 METAR KALB 010451Z 16004KT 10SM -RA SCT060 BKN085 OVC100 21/21 A2989 RMK AO2 RAB0358 SLP121 P0000 T02060206 403220206 $ (JF)","FM-15","7",,,,,,,,,,,,,,,,,,,,,,,,,,,,"2006-09-08"
"72518014735","2021-06-30T23:59:00","SOD  ","6",,,,,"PRECIP","260",,"PLASTIC","42.6918","-73.83109","NWS ALBANY, NY",,,,,"80",,,"29.65",,"6.4","15","9.5","0","90","69","290s","29s","0.26",,"0.0","300","23","TS RA BR",,,,,,,,,,,,,,,,,,,,,,,,,,,,,,,,,,,,,,,,,,,,,,,,,,,,,,,,"SOD73624 HR PRECIPITATION (IN): 0.26  24 HR SNOWFALL (IN):0.0  WEATHER(CODE):13  24 HR MAX TEMP (F): 9024 HR MIN TEMP (F): 69AVERAGE STATION PRESSURE:29.655 MINIMUM SEA LEVEL PRESSURE:29.87 TIME OF OCCURRENCE:1538 PEAK WIND SPEED (MPH): 29 PEAK WIND DIR (DEG):290 PEAK WIND TIME (LST):      FASTEST 2MIN SPEED (MPH): 23FASTEST 2MIN DIR (DEG):300 FASTEST 2MIN TIME (LST):     AVERAGE WIND SPEED (MPH): 6.4 24 HR AVG TEMP (F): 80DEPART FROM NORMAL:  8  HEATING DEGREE DAYS:  0 COOLING DEGREE DAYS: 15 LATEST DAY MAX TEMP (0700-1900 LST):90  LATEST NIGHT MIN TEMP(1900-0800 LST):69 HOURLY INCREMENTAL PRECIPITATION VALUES (IN):    0.00 0.00 0.00 0.00 0.00 0.00 0.00 0.00 0.00 0.00 0.00 0.00 0.19 0.01 T    0.04 0.01 T    0.00 0.00 0.00 T    0.01","SOD  ","6",,,,,,,,,,,,,,,,,,,,,,,,,"0420","1937",,"2006-09-08"
"72518014735","2021-06-30T23:59:00","SOM  ","6","7.2",,,,"PRECIP","260",,"PLASTIC","42.6918","-73.83109","NWS ALBANY, NY","177","149","0",,,,,,,,,,,,,,,,,,,,,"6751","52",,,,,,,,,,,,,,,,,,,"9s","9s","0","4","0","0","0.8","31","0","1.1","0.4","-1.09",,"0.89","14-14",,,,,"30.39","24","0808","79.0","68.0","29.49","21","1744","56.9","29.97","29.65","2.70",,,"118","52","SOM793PCP MTOT:2.70 PCP GT 24HRS:0.89 DATE(S):14 DAYS W/PCP >=.01:9  DAYS W/PCP >=.10:9  DAYS W/ PCP >=.50:1 DAYS W/PCP >=1.00:0 MSDP AMTS W/DATE-TIME TAGS:MIN:5 0.18  28/1358 MIN:10 0.23  14/0812 MIN:15 0.25  14/0814 MIN:20 0.25  14/0814 MIN:30 0.25  14/0814 MIN:45 0.26  14/0814 MIN:60 0.43  14/0812 MIN:80 0.44  14/0814 MIN:100 0.44  14/0814 MIN:120 0.44  14/0814 MIN:150 0.56  14/0814 MIN:180 0.56  14/0814 AVG DLY MIN:56.9  AVG DLY MAX:79.0  AVG MLY TMP:68.0  MIN TMP:43 DATE(S):01 MAX TMP:92  DATE(S):29 DAYS MAX <=32:0 DAYS MAX >=90:4  DAYS MIN <=32:0  DAYS MIN  <=0:0  AVG STP:29.655 LWST SLP:29.49 DATE/TIME:211744 HGST SLP:30.39 DATE/TIME:240808 HDD MTH TOT:50 DEP NORM:-2553 SEASON(JUL 1-JUN 30):6688 DEP NORM:-25536 CDD MTH TOT:148 DEP NORM:-2553 SEASON(JAN 1-DEC 31):176 DEP NORM:-25536","SOM  ","6","2021-06-28 13:58","2021-06-14 08:12","2021-06-14 08:14","2021-06-14 08:14","2021-06-14 08:14","2021-06-14 08:14","2021-06-14 08:12","2021-06-14 08:14","2021-06-14 08:14","2021-06-14 08:14","2021-06-14 08:14","2021-06-14 08:14","0.18","0.23","0.25","0.25","0.25","0.26","0.43","0.44","0.44","0.44","0.56","0.56",,,,"2006-09-08"
