"STATION","DATE","REPORT_TYPE","SOURCE","AWND","BackupDirection","BackupDistance","BackupDistanceUnit","BackupElements","BackupElevation","BackupElevationUnit","BackupEquipment","BackupLatitude","BackupLongitude","BackupName","CDSD","CLDD","DSNW","DailyAverageDewPointTemperature","DailyAverageDryBulbTemperature","DailyAverageRelativeHumidity","DailyAverageSeaLevelPressure","DailyAverageStationPressure","DailyAverageWetBulbTemperature","DailyAverageWindSpeed","DailyCoolingDegreeDays","DailyDepartureFromNormalAverageTemperature","DailyHeatingDegreeDays","DailyMaximumDryBulbTemperature","DailyMinimumDryBulbTemperature","DailyPeakWindDirection","DailyPeakWindSpeed","DailyPrecipitation","DailySnowDepth","DailySnowfall","DailySustainedWindDirection","DailySustainedWindSpeed","DailyWeather","HDSD","HTDD","HeavyFog","HourlyAltimeterSetting","HourlyDewPointTemperature","HourlyDryBulbTemperature","HourlyPrecipitation","HourlyPresentWeatherType","HourlyPressureChange","HourlyPressureTendency","HourlyRelativeHumidity","HourlySeaLevelPressure","HourlySkyConditions","HourlyStationPressure","HourlyVisibility","HourlyWetBulbTemperature","HourlyWindDirection","HourlyWindGustSpeed","HourlyWindSpeed","MonthlyAverageRH","MonthlyDaysWithGT001Precip","MonthlyDaysWithGT010Precip","MonthlyDaysWithGT32Temp","MonthlyDaysWithGT90Temp","MonthlyDaysWithLT0Temp","MonthlyDaysWithLT32Temp","MonthlyDepartureFromNormalAverageTemperature","MonthlyDepartureFromNormalCoolingDegreeDays","MonthlyDepartureFromNormalHeatingDegreeDays","MonthlyDepartureFromNormalMaximumTemperature","MonthlyDepartureFromNormalMinimumTemperature","MonthlyDepartureFromNormalPrecipitation","MonthlyDewpointTemperature","MonthlyGreatestPrecip","MonthlyGreatestPrecipDate","MonthlyGreatestSnowDepth","MonthlyGreatestSnowDepthDate","MonthlyGreatestSnowfall","MonthlyGreatestSnowfallDate","MonthlyMaxSeaLevelPressureValue","MonthlyMaxSeaLevelPressureValueDate","MonthlyMaxSeaLevelPressureValueTime","MonthlyMaximumTemperature","MonthlyMeanTemperature","MonthlyMinSeaLevelPressureValue","MonthlyMinSeaLevelPressureValueDate","MonthlyMinSeaLevelPressureValueTime","MonthlyMinimumTemperature","MonthlySeaLevelPressure","MonthlyStationPressure","MonthlyTotalLiquidPrecipitation","MonthlyTotalSnowfall","MonthlyWetBulb","NormalsCoolingDegreeDay","NormalsHeatingDegreeDay","REM","REPORT_TYPE","SOURCE","ShortDurationEndDate005","ShortDurationEndDate010","ShortDurationEndDate015","ShortDurationEndDate020","ShortDurationEndDate030","ShortDurationEndDate045","ShortDurationEndDate060","ShortDurationEndDate080","ShortDurationEndDate100","ShortDurationEndDate120","ShortDurationEndDate150","ShortDurationEndDate180","ShortDurationPrecipitationValue005","ShortDurationPrecipitationValue010","ShortDurationPrecipitationValue015","ShortDurationPrecipitationValue020","ShortDurationPrecipitationValue030","ShortDurationPrecipitationValue045","ShortDurationPrecipitationValue060","ShortDurationPrecipitationValue080","ShortDurationPrecipitationValue100","ShortDurationPrecipitationValue120","ShortDurationPrecipitationValue150","ShortDurationPrecipitationValue180","Sunrise","Sunset","TStorms","WindEquipmentChangeDate"
"72622794790","2021-06-01T00:56:00","FM-15","7",,,,,,,,,,,,,,,,,,,,,,,,,,,,,,,,,,,,,,"30.18","41","57","0.00",,"+0.01","8","55","30.17","CLR:00","29.82","10.00","49","200",,"7",,,,,,,,,,,,,,,,,,,,,,,,,,,,,,,,,,,,,"MET10806/01/21 00:56:02 METAR KART 010556Z 20006KT 10SM CLR 14/05 A3018 RMK AO2 SLP217 T01390050 10161 20128 58004","FM-15","7",,,,,,,,,,,,,,,,,,,,,,,,,,,,"2005-11-07"
"72622794790","2021-06-01T01:56:00","FM-15","7",,,,,,,,,,,,,,,,,,,,,,,,,,,,,,,,,,,,,,"30.18","41","58","0.00",,,,"53","30.18","FEW:02 120","29.82","10.00","50","230",,"8",,,,,,,,,,,,,,,,,,,,,,,,,,,,,,,,,,,,,"MET09306/01/21 01:56:02 METAR KART 010656Z 23007KT 10SM FEW120 14/05 A3018 RMK AO2 SLP219 T01440050","FM-15","7",,,,,,,,,,,,,,,,,,,,,,,,,,,,"2005-11-07"
"72622794790","2021-06-01T02:56:00","FM-15","7",,,,,,,,,,,,,,,,,,,,,,,,,,,,,,,,,,,,,,"30.19","42","57","0.00",,,,"58","30.18","SCT:04 120","29.83","10.00","50","210",,"6",,,,,,,,,,,,,,,,,,,,,,,,,,,,,,,,,,,,,"MET09306/01/21 02:56:02 METAR KART 010756Z 21005KT 10SM SCT120 14/06 A3019 RMK AO2 SLP221 T01390056","FM-15","7",,,,,,,,,,,,,,,,,,,,,,,,,,,,"2005-11-07"
"72622794790","2021-06-01T03:56:00","FM-15","7",,,,,,,,,,,,,,,,,,,,,,,,,,,,,,,,,,,,,,"30.20","43","55","0.00",,"-0.02","3","64","30.19","BKN:07 110","29.84","10.00","49","200",,"5",,,,,,,,,,,,,,,,,,,,,,,,,,,,,,,,,,,,,"MET09906/01/21 03:56:02 METAR KART 010856Z 20004KT 10SM BKN110 13/06 A3020 RMK AO2 SLP224 T01280061 53007","FM-15","7",,,,,,,,,,,,,,,,,,,,,,,,,,,,"2005-11-07"
"72622794790","2021-06-01T04:56:00","FM-15","7",,,,,,,,,,,,,,,,,,,,,,,,,,,,,,,,,,,,,,"30.22","44","55","0.00",,,,"67","30.21","OVC:08 100","29.86","10.00","50","210",,"3",,,,,,,,,,,,,,,,,,,,,,,,,,,,,,,,,,,,,"MET09306/01/21 04:56:02 METAR KART 010956Z 21003KT 10SM OVC100 13/07 A3022 RMK AO2 SLP230 T01280067","FM-15","7",,,,,,,,,,,,,,,,,,,,,,,,,,,,"2005-11-07"
"72622794790","2021-06-01T05:56:00","FM-15","7",,,,,,,,,,,,,,,,,,,,,,,,,,,,,,,,,,,,,,"30.22","45","57","0.00",,,,"64","30.21","BKN:07 90 OVC:08 110","29.86","10.00","51","210",,"5",,,,,,,,,,,,,,,,,,,,,,,,,,,,,,,,,,,,,"MET10006/01/21 05:56:02 METAR KART 011056Z 21004KT 10SM BKN090 OVC110 14/07 A3022 RMK AO2 SLP230 T01390072","FM-15","7",,,,,,,,,,,,,,,,,,,,,,,,,,,,"2005-11-07"
"72622794790","2021-06-01T06:56:00","FM-15","7",,,,,,,,,,,,,,,,,,,,,,,,,,,,,,,,,,,,,,"30.23","47","57","T","-RA:02 |RA |RA","-0.03","1","69","30.22","BKN:07 80 OVC:08 95","29.87","10.00","52","140",,"3",,,,,,,,,,,,,,,,,,,,,,,,,,,,,,,,,,,,,"MET14006/01/21 06:56:02 METAR KART 011156Z 14003KT 10SM -RA BKN080 OVC095 14/08 A3023 RMK AO2 RAB24 SLP234 P0000 60000 T01390083 10144 20128 51010","FM-15","7",,,,,,,,,,,,,,,,,,,,,,,,,,,,"2005-11-07"
"72622794790","2021-06-01T07:56:00","FM-15","7",,,,,,,,,,,,,,,,,,,,,,,,,,,,,,,,,,,,,,"30.22","48","62","T",,,,"60","30.22","FEW:02 49 SCT:04 75 BKN:07 95","29.86","10.00","55","210",,"6",,,,,,,,,,,,,,,,,,,,,,,,,,,,,,,,,,,,,"MET12506/01/21 07:56:02 METAR KART 011256Z 21005KT 10SM FEW049 SCT075 BKN095 17/09 A3022 RMK AO2 RAE00B32E47 SLP233 P0000 T01670089","FM-15","7",,,,,,,,,,,,,,,,,,,,,,,,,,,,"2005-11-07"
"72622794790","2021-06-01T08:56:00","FM-15","7",,,,,,,,,,,,,,,,,,,,,,,,,,,,,,,,,,,,,,"30.21","46","67","0.00",,,,"47","30.20","FEW:02 110","29.85","10.00","56","VRB",,"5",,,,,,,,,,,,,,,,,,,,,,,,,,,,,,,,,,,,,"MET09306/01/21 08:56:02 METAR KART 011356Z VRB04KT 10SM FEW110 19/08 A3021 RMK AO2 SLP228 T01940078","FM-15","7",,,,,,,,,,,,,,,,,,,,,,,,,,,,"2005-11-07"
"72622794790","2021-06-01T09:56:00","FM-15","7",,,,,,,,,,,,,,,,,,,,,,,,,,,,,,,,,,,,,,"30.21","46","68","0.00",,"+0.01","5","45","30.21","BKN:07 100","29.85","10.00","56","250",,"13",,,,,,,,,,,,,,,,,,,,,,,,,,,,,,,,,,,,,"MET10506/01/21 09:56:02 METAR KART 011456Z 25011KT 10SM BKN100 20/08 A3021 RMK AO2 SLP229 60000 T02000078 55004","FM-15","7",,,,,,,,,,,,,,,,,,,,,,,,,,,,"2005-11-07"
"72622794790","2021-06-01T10:56:00","FM-15","7",,,,,,,,,,,,,,,,,,,,,,,,,,,,,,,,,,,,,,"30.21","46","69","0.00",,,,"44","30.20","CLR:00","29.85","10.00","57","230","18","14",,,,,,,,,,,,,,,,,,,,,,,,,,,,,,,,,,,,,"MET09306/01/21 10:56:02 METAR KART 011556Z 23012G16KT 10SM CLR 21/08 A3021 RMK AO2 SLP227 T02060078","FM-15","7",,,,,,,,,,,,,,,,,,,,,,,,,,,,"2005-11-07"
"72622794790","2021-06-01T11:56:00","FM-15","7",,,,,,,,,,,,,,,,,,,,,,,,,,,,,,,,,,,,,,"30.21","43","71","0.00",,,,"36","30.20","CLR:00","29.85","10.00","56","240","24","16",,,,,,,,,,,,,,,,,,,,,,,,,,,,,,,,,,,,,"MET09306/01/21 11:56:02 METAR KART 011656Z 24014G21KT 10SM CLR 22/06 A3021 RMK AO2 SLP227 T02170061","FM-15","7",,,,,,,,,,,,,,,,,,,,,,,,,,,,"2005-11-07"
"72622794790","2021-06-01T12:56:00","FM-15","7",,,,,,,,,,,,,,,,,,,,,,,,,,,,,,,,,,,,,,"30.20","44","72","0.00",,"+0.02","8","37","30.18","SCT:04 120","29.84","10.00","57","230",,"15",,,,,,,,,,,,,,,,,,,,,,,,,,,,,,,,,,,,,"MET11706/01/21 12:56:02 METAR KART 011756Z 23013KT 10SM SCT120 22/07 A3020 RMK AO2 SLP221 60000 T02220067 10222 20139 58006","FM-15","7",,,,,,,,,,,,,,,,,,,,,,,,,,,,"2005-11-07"
"72622794790","2021-06-01T13:56:00","FM-15","7",,,,,,,,,,,,,,,,,,,,,,,,,,,,,,,,,,,,,,"30.18","44","74","0.00",,,,"34","30.16","CLR:00","29.82","10.00","58","240",,"10",,,,,,,,,,,,,,,,,,,,,,,,,,,,,,,,,,,,,"MET09006/01/21 13:56:02 METAR KART 011856Z 24009KT 10SM CLR 23/07 A3018 RMK AO2 SLP215 T02330067","FM-15","7",,,,,,,,,,,,,,,,,,,,,,,,,,,,"2005-11-07"
"72622794790","2021-06-01T14:56:00","FM-15","7",,,,,,,,,,,,,,,,,,,,,,,,,,,,,,,,,,,,,,"30.16","44","73","0.00",,,,"35","30.15","CLR:00","29.80","10.00","57","230","24","16",,,,,,,,,,,,,,,,,,,,,,,,,,,,,,,,,,,,,"MET09306/01/21 14:56:02 METAR KART 011956Z 23014G21KT 10SM CLR 23/07 A3016 RMK AO2 SLP211 T02280067","FM-15","7",,,,,,,,,,,,,,,,,,,,,,,,,,,,"2005-11-07"
"72622794790","2021-06-01T15:56:00","FM-15","7",,,,,,,,,,,,,,,,,,,,,,,,,,,,,,,,,,,,,,"30.16","42","73","0.00",,"+0.04","6","33","30.15","CLR:00","29.80","10.00","57","240","21","11",,,,,,,,,,,,,,,,,,,,,,,,,,,,,,,,,,,,,"MET09906/01/21 15:56:02 METAR KART 012056Z 24010G18KT 10SM CLR 23/06 A3016 RMK AO2 SLP210 T02280056 56013","FM-15","7",,,,,,,,,,,,,,,,,,,,,,,,,,,,"2005-11-07"
"72622794790","2021-06-01T16:56:00","FM-15","7",,,,,,,,,,,,,,,,,,,,,,,,,,,,,,,,,,,,,,"30.15","41","73","0.00",,,,"32","30.14","CLR:00","29.79","10.00","56","230",,"11",,,,,,,,,,,,,,,,,,,,,,,,,,,,,,,,,,,,,"MET09006/01/21 16:56:02 METAR KART 012156Z 23010KT 10SM CLR 23/05 A3015 RMK AO2 SLP208 T02280050","FM-15","7",,,,,,,,,,,,,,,,,,,,,,,,,,,,"2005-11-07"
"72622794790","2021-06-01T17:56:00","FM-15","7",,,,,,,,,,,,,,,,,,,,,,,,,,,,,,,,,,,,,,"30.15","43","71","0.00",,,,"36","30.14","CLR:00","29.79","10.00","56","240",,"8",,,,,,,,,,,,,,,,,,,,,,,,,,,,,,,,,,,,,"MET09006/01/21 17:56:02 METAR KART 012256Z 24007KT 10SM CLR 22/06 A3015 RMK AO2 SLP208 T02170061","FM-15","7",,,,,,,,,,,,,,,,,,,,,,,,,,,,"2005-11-07"
"72622794790","2021-06-01T18:56:00","FM-15","7",,,,,,,,,,,,,,,,,,,,,,,,,,,,,,,,,,,,,,"30.16","44","67","0.00",,"-0.00","3","44","30.15","CLR:00","29.80","10.00","55","230",,"8",,,,,,,,,,,,,,,,,,,,,,,,,,,,,,,,,,,,,"MET10806/01/21 18:56:02 METAR KART 012356Z 23007KT 10SM CLR 19/07 A3016 RMK AO2 SLP211 T01940067 10239 20194 53001","FM-15","7",,,,,,,,,,,,,,,,,,,,,,,,,,,,"2005-11-07"
"72622794790","2021-06-01T19:56:00","FM-15","7",,,,,,,,,,,,,,,,,,,,,,,,,,,,,,,,,,,,,,"30.16","43","64","0.00",,,,"46","30.16","CLR:00","29.80","10.00","53","210",,"5",,,,,,,,,,,,,,,,,,,,,,,,,,,,,,,,,,,,,"MET09006/01/21 19:56:01 METAR KART 020056Z 21004KT 10SM CLR 18/06 A3016 RMK AO2 SLP212 T01780061","FM-15","7",,,,,,,,,,,,,,,,,,,,,,,,,,,,"2005-11-07"
"72622794790","2021-06-01T20:56:00","FM-15","7",,,,,,,,,,,,,,,,,,,,,,,,,,,,,,,,,,,,,,"30.17","43","61","0.00",,,,"52","30.16","CLR:00","29.81","10.00","52","180",,"5",,,,,,,,,,,,,,,,,,,,,,,,,,,,,,,,,,,,,"MET09006/01/21 20:56:01 METAR KART 020156Z 18004KT 10SM CLR 16/06 A3017 RMK AO2 SLP215 T01610061","FM-15","7",,,,,,,,,,,,,,,,,,,,,,,,,,,,"2005-11-07"
"72622794790","2021-06-01T21:56:00","FM-15","7",,,,,,,,,,,,,,,,,,,,,,,,,,,,,,,,,,,,,,"30.18","43","60","0.00",,"-0.02","3","53","30.17","CLR:00","29.82","10.00","51","190",,"6",,,,,,,,,,,,,,,,,,,,,,,,,,,,,,,,,,,,,"MET09606/01/21 21:56:02 METAR KART 020256Z 19005KT 10SM CLR 16/06 A3018 RMK AO2 SLP217 T01560061 53006","FM-15","7",,,,,,,,,,,,,,,,,,,,,,,,,,,,"2005-11-07"
"72622794790","2021-06-01T22:56:00","FM-15","7",,,,,,,,,,,,,,,,,,,,,,,,,,,,,,,,,,,,,,"30.18","43","55","0.00",,,,"64","30.17","CLR:00","29.82","10.00","49","000",,"0",,,,,,,,,,,,,,,,,,,,,,,,,,,,,,,,,,,,,"MET09006/01/21 22:56:02 METAR KART 020356Z 00000KT 10SM CLR 13/06 A3018 RMK AO2 SLP217 T01280061","FM-15","7",,,,,,,,,,,,,,,,,,,,,,,,,,,,"2005-11-07"
"72622794790","2021-06-01T23:56:00","FM-15","7",,,,,,,,,,,,,,,,,,,,,,,,,,,,,,,,,,,,,,"30.18","43","52","0.00",,,,"72","30.17","CLR:00","29.82","10.00","48","000",,"0",,,,,,,,,,,,,,,,,,,,,,,,,,,,,,,,,,,,,"MET10006/01/21 23:56:02 METAR KART 020456Z 00000KT 10SM CLR 11/06 A3018 RMK AO2 SLP217 T01110061 402390111","FM-15","7",,,,,,,,,,,,,,,,,,,,,,,,,,,,"2005-11-07"
"72622794790","2021-06-01T23:59:00","SOD  ","6",,,,,,,,,,,,,,,,"64",,,"29.83",,"7.7","0","4.9","1","75","52","260","25","T",,,"270","18","RA",,,,,,,,,,,,,,,,,,,,,,,,,,,,,,,,,,,,,,,,,,,,,,,,,,,,,,,,"SOD69224 HR PRECIPITATION (IN):    T 24 HR MAX TEMP (F): 7524 HR MIN TEMP (F): 52AVERAGE STATION PRESSURE:29.825 MINIMUM SEA LEVEL PRESSURE:30.14 TIME OF OCCURRENCE:1744 PEAK WIND SPEED (MPH): 25 PEAK WIND DIR (DEG):260 PEAK WIND TIME (LST):      FASTEST 2MIN SPEED (MPH): 18FASTEST 2MIN DIR (DEG):270 FASTEST 2MIN TIME (LST):     AVERAGE WIND SPEED (MPH): 7.7 24 HR AVG TEMP (F): 64DEPART FROM NORMAL:  4  HEATING DEGREE DAYS:  1 COOLING DEGREE DAYS:  0 LATEST DAY MAX TEMP (0700-1900 LST):75  LATEST NIGHT MIN TEMP(1900-0800 LST):55 HOURLY INCREMENTAL PRECIPITATION VALUES (IN):.00 0.00 0.00 0.00 0.00 0.00 T    T    0.00 0.00 0.00 0.00 0.00 0.00 0.00 0.00 0.00 0.00 0.00 0.00 0.00 0.00 0.00 0.00","SOD  ","6",,,,,,,,,,,,,,,,,,,,,,,,,"0424","1940",,"2005-11-07"
"72622794790","2021-06-02T00:56:00","FM-15","7",,,,,,,,,,,,,,,,,,,,,,,,,,,,,,,,,,,,,,"30.18","43","54","0.00",,"-0.00","3","67","30.17","CLR:00","29.82","10.00","49","000",,"0",,,,,,,,,,,,,,,,,,,,,,,,,,,,,,,,,,,,,"MET10806/02/21 00:56:02 METAR KART 020556Z 00000KT 10SM CLR 12/06 A3018 RMK AO2 SLP218 T01220061 10194 20094 53001","FM-15","7",,,,,,,,,,,,,,,,,,,,,,,,,,,,"2005-11-07"
"72622794790","2021-06-02T01:56:00","FM-15","7",,,,,,,,,,,,,,,,,,,,,,,,,,,,,,,,,,,,,,"30.18","43","56","0.00",,,,"62","30.17","CLR:00","29.82","10.00","50","180",,"3",,,,,,,,,,,,,,,,,,,,,,,,,,,,,,,,,,,,,"MET09006/02/21 01:56:02 METAR KART 020656Z 18003KT 10SM CLR 13/06 A3018 RMK AO2 SLP216 T01330061","FM-15","7",,,,,,,,,,,,,,,,,,,,,,,,,,,,"2005-11-07"
"72622794790","2021-06-02T02:56:00","FM-15","7",,,,,,,,,,,,,,,,,,,,,,,,,,,,,,,,,,,,,,"30.17","42","52","0.00",,,,"69","30.16","CLR:00","29.81","10.00","47","000",,"0",,,,,,,,,,,,,,,,,,,,,,,,,,,,,,,,,,,,,"MET09006/02/21 02:56:02 METAR KART 020756Z 00000KT 10SM CLR 11/06 A3017 RMK AO2 SLP214 T01110056","FM-15","7",,,,,,,,,,,,,,,,,,,,,,,,,,,,"2005-11-07"
"72622794790","2021-06-02T03:56:00","FM-15","7",,,,,,,,,,,,,,,,,,,,,,,,,,,,,,,,,,,,,,"30.17","42","47","0.00",,"+0.01","5","83","30.17","CLR:00","29.81","10.00","45","000",,"0",,,,,,,,,,,,,,,,,,,,,,,,,,,,,,,,,,,,,"MET09606/02/21 03:56:02 METAR KART 020856Z 00000KT 10SM CLR 08/06 A3017 RMK AO2 SLP216 T00830056 55003","FM-15","7",,,,,,,,,,,,,,,,,,,,,,,,,,,,"2005-11-07"
"72622794790","2021-06-02T04:56:00","FM-15","7",,,,,,,,,,,,,,,,,,,,,,,,,,,,,,,,,,,,,,"30.18","42","47","0.00",,,,"83","30.17","CLR:00","29.82","10.00","45","000",,"0",,,,,,,,,,,,,,,,,,,,,,,,,,,,,,,,,,,,,"MET09006/02/21 04:56:02 METAR KART 020956Z 00000KT 10SM CLR 08/06 A3018 RMK AO2 SLP218 T00830056","FM-15","7",,,,,,,,,,,,,,,,,,,,,,,,,,,,"2005-11-07"
"72622794790","2021-06-02T05:56:00","FM-15","7",,,,,,,,,,,,,,,,,,,,,,,,,,,,,,,,,,,,,,"30.18","49","55","0.00",,,,"80","30.17","CLR:00","29.82","10.00","52","000",,"0",,,,,,,,,,,,,,,,,,,,,,,,,,,,,,,,,,,,,"MET09006/02/21 05:56:02 METAR KART 021056Z 00000KT 10SM CLR 13/09 A3018 RMK AO2 SLP218 T01280094","FM-15","7",,,,,,,,,,,,,,,,,,,,,,,,,,,,"2005-11-07"
"72622794790","2021-06-02T06:54:00","FM-16","7",,,,,,,,,,,,,,,,,,,,,,,,,,,,,,,,,,,,,,"30.18","48","63",,,,,"59",,"FEW:02 2","29.82","10.00","55","000",,"0",,,,,,,,,,,,,,,,,,,,,,,,,,,,,,,,,,,,,"MET07606/02/21 06:54:02 SPECI KART 021154Z 00000KT 10SM FEW002 17/09 A3018 RMK AO2","FM-16","7",,,,,,,,,,,,,,,,,,,,,,,,,,,,"2005-11-07"
"72622794790","2021-06-02T06:56:00","FM-15","7",,,,,,,,,,,,,,,,,,,,,,,,,,,,,,,,,,,,,,"30.18","49","62","0.00",,"-0.01","1","62","30.17","FEW:02 2","29.82","10.00","55","000",,"0",,,,,,,,,,,,,,,,,,,,,,,,,,,,,,,,,,,,,"MET11106/02/21 06:56:02 METAR KART 021156Z 00000KT 10SM FEW002 17/09 A3018 RMK AO2 SLP218 T01670094 10167 20072 51002","FM-15","7",,,,,,,,,,,,,,,,,,,,,,,,,,,,"2005-11-07"
"72622794790","2021-06-02T07:56:00","FM-15","7",,,,,,,,,,,,,,,,,,,,,,,,,,,,,,,,,,,,,,"30.18","52","70","0.00",,,,"53","30.17","CLR:00","29.82","10.00","60","290",,"3",,,,,,,,,,,,,,,,,,,,,,,,,,,,,,,,,,,,,"MET09006/02/21 07:56:02 METAR KART 021256Z 29003KT 10SM CLR 21/11 A3018 RMK AO2 SLP217 T02110111","FM-15","7",,,,,,,,,,,,,,,,,,,,,,,,,,,,"2005-11-07"
"72622794790","2021-06-02T08:56:00","FM-15","7",,,,,,,,,,,,,,,,,,,,,,,,,,,,,,,,,,,,,,"30.18","51","70","0.00",,,,"51","30.16","CLR:00","29.82","10.00","59","270",,"8",,,,,,,,,,,,,,,,,,,,,,,,,,,,,,,,,,,,,"MET09006/02/21 08:56:02 METAR KART 021356Z 27007KT 10SM CLR 21/11 A3018 RMK AO2 SLP215 T02110106","FM-15","7",,,,,,,,,,,,,,,,,,,,,,,,,,,,"2005-11-07"
"72622794790","2021-06-02T09:56:00","FM-15","7",,,,,,,,,,,,,,,,,,,,,,,,,,,,,,,,,,,,,,"30.16","50","74","0.00",,"+0.02","8","43","30.15","CLR:00","29.80","10.00","60","270",,"7",,,,,,,,,,,,,,,,,,,,,,,,,,,,,,,,,,,,,"MET09606/02/21 09:56:02 METAR KART 021456Z 27006KT 10SM CLR 23/10 A3016 RMK AO2 SLP210 T02330100 58007","FM-15","7",,,,,,,,,,,,,,,,,,,,,,,,,,,,"2005-11-07"
"72622794790","2021-06-02T10:56:00","FM-15","7",,,,,,,,,,,,,,,,,,,,,,,,,,,,,,,,,,,,,,"30.15","49","77","0.00",,,,"37","30.14","CLR:00","29.79","10.00","61","260",,"7",,,,,,,,,,,,,,,,,,,,,,,,,,,,,,,,,,,,,"MET09006/02/21 10:56:02 METAR KART 021556Z 26006KT 10SM CLR 25/09 A3015 RMK AO2 SLP205 T02500094","FM-15","7",,,,,,,,,,,,,,,,,,,,,,,,,,,,"2005-11-07"
"72622794790","2021-06-02T11:56:00","FM-15","7",,,,,,,,,,,,,,,,,,,,,,,,,,,,,,,,,,,,,,"30.13","49","79","0.00",,,,"35","30.11","CLR:00","29.77","10.00","62","280",,"9",,,,,,,,,,,,,,,,,,,,,,,,,,,,,,,,,,,,,"MET09006/02/21 11:56:02 METAR KART 021656Z 28008KT 10SM CLR 26/09 A3013 RMK AO2 SLP198 T02610094","FM-15","7",,,,,,,,,,,,,,,,,,,,,,,,,,,,"2005-11-07"
"72622794790","2021-06-02T12:56:00","FM-15","7",,,,,,,,,,,,,,,,,,,,,,,,,,,,,,,,,,,,,,"30.11","50","77","0.00",,"+0.05","6","39","30.10","BKN:07 95","29.75","10.00","61","260",,"10",,,,,,,,,,,,,,,,,,,,,,,,,,,,,,,,,,,,,"MET11306/02/21 12:56:02 METAR KART 021756Z 26009KT 10SM BKN095 25/10 A3011 RMK AO2 SLP194 T02500100 10267 20167 56016 $","FM-15","7",,,,,,,,,,,,,,,,,,,,,,,,,,,,"2005-11-07"
"72622794790","2021-06-02T13:56:00","FM-15","7",,,,,,,,,,,,,,,,,,,,,,,,,,,,,,,,,,,,,,"30.09","50","79","0.00",,,,"36","30.08","FEW:02 100","29.73","10.00","62","270",,"9",,,,,,,,,,,,,,,,,,,,,,,,,,,,,,,,,,,,,"MET09506/02/21 13:56:02 METAR KART 021856Z 27008KT 10SM FEW100 26/10 A3009 RMK AO2 SLP187 T02610100 $","FM-15","7",,,,,,,,,,,,,,,,,,,,,,,,,,,,"2005-11-07"
"72622794790","2021-06-02T14:56:00","FM-15","7",,,,,,,,,,,,,,,,,,,,,,,,,,,,,,,,,,,,,,"30.08","53","78","0.00",,,,"42","30.06","FEW:02 85","29.72","10.00","63","260",,"7",,,,,,,,,,,,,,,,,,,,,,,,,,,,,,,,,,,,,"MET09506/02/21 14:56:02 METAR KART 021956Z 26006KT 10SM FEW085 26/12 A3008 RMK AO2 SLP181 T02560117 $","FM-15","7",,,,,,,,,,,,,,,,,,,,,,,,,,,,"2005-11-07"
"72622794790","2021-06-02T15:56:00","FM-15","7",,,,,,,,,,,,,,,,,,,,,,,,,,,,,,,,,,,,,,"30.06","54","76","0.00",,"+0.05","6","47","30.06","FEW:02 50","29.70","10.00","63","170",,"6",,,,,,,,,,,,,,,,,,,,,,,,,,,,,,,,,,,,,"MET10106/02/21 15:56:02 METAR KART 022056Z 17005KT 10SM FEW050 24/12 A3006 RMK AO2 SLP178 T02440122 56017 $","FM-15","7",,,,,,,,,,,,,,,,,,,,,,,,,,,,"2005-11-07"
"72622794790","2021-06-02T16:56:00","FM-15","7",,,,,,,,,,,,,,,,,,,,,,,,,,,,,,,,,,,,,,"30.06","55","75","0.00",,,,"50","30.05","CLR:00","29.70","10.00","63","170",,"9",,,,,,,,,,,,,,,,,,,,,,,,,,,,,,,,,,,,,"MET09206/02/21 16:56:02 METAR KART 022156Z 17008KT 10SM CLR 24/13 A3006 RMK AO2 SLP176 T02390128 $","FM-15","7",,,,,,,,,,,,,,,,,,,,,,,,,,,,"2005-11-07"
"72622794790","2021-06-02T17:38:00","FM-16","7",,,,,,,,,,,,,,,,,,,,,,,,,,,,,,,,,,,,,,"30.06","60","67","0.06","+RA:02 |RA |RA",,,"79",,"BKN:07 50 BKN:07 65 OVC:08 85","29.70","1.75","63","200","18","6",,,,,,,,,,,,,,,,,,,,,,,,,,,,,,,,,,,,,"MET12406/02/21 17:38:02 SPECI KART 022238Z 20005G16KT 1 3/4SM +RA BKN050 BKN065 OVC085 19/16 A3006 RMK AO2 RAB31 P0006 T01940156 $","FM-16","7",,,,,,,,,,,,,,,,,,,,,,,,,,,,"2005-11-07"
"72622794790","2021-06-02T17:48:00","FM-16","7",,,,,,,,,,,,,,,,,,,,,,,,,,,,,,,,,,,,,,"30.06","60","66","0.09","RA:02 |RA |RA",,,"81",,"SCT:04 50 BKN:07 65 OVC:08 80","29.70","2.50V","62","VRB",,"3",,,,,,,,,,,,,,,,,,,,,,,,,,,,,,,,,,,,,"MET13206/02/21 17:48:02 SPECI KART 022248Z VRB03KT 2 1/2SM RA SCT050 BKN065 OVC080 19/16 A3006 RMK AO2 VIS 1 3/4V4 RAB31 P0009 T01890156 $","FM-16","7",,,,,,,,,,,,,,,,,,,,,,,,,,,,"2005-11-07"
"72622794790","2021-06-02T17:54:00","FM-16","6",,,,,,,,,,,,,,,,,,,,,,,,,,,,,,,,,,,,,,"30.06","59","66",,"-RA:02 |RA |RA",,,"78",,"SCT:04 60 BKN:07 80 OVC:08 90","29.70","4.00","62","200",,"5",,,,,,,,,,,,,,,,,,,,,,,,,,,,,,,,,,,,,"MET11206/02/21 17:54:02 SPECI KART 022254Z 20004KT 4SM -RA SCT060 BKN080 OVC090 19/15 A3006 RMK AO2 RAB31 P0010 $ FIBI","FM-16","6",,,,,,,,,,,,,,,,,,,,,,,,,,,,"2005-11-07"
"72622794790","2021-06-02T17:56:00","FM-15","7",,,,,,,,,,,,,,,,,,,,,,,,,,,,,,,,,,,,,,"30.06","59","67","0.10","-RA:02 |RA |RA",,,"76","30.05","FEW:02 55 BKN:07 75 OVC:08 90","29.70","5.00","62","220",,"3",,,,,,,,,,,,,,,,,,,,,,,,,,,,,,,,,,,,,"MET12406/02/21 17:56:02 METAR KART 022256Z 22003KT 5SM -RA FEW055 BKN075 OVC090 19/15 A3006 RMK AO2 RAB31 SLP177 P0010 T01940150 $","FM-15","7",,,,,,,,,,,,,,,,,,,,,,,,,,,,"2005-11-07"
"72622794790","2021-06-02T18:56:00","FM-15","7",,,,,,,,,,,,,,,,,,,,,,,,,,,,,,,,,,,,,,"30.05","60","68","0.01",,"+0.01","8","76","30.04","FEW:02 47 SCT:04 90 SCT:04 110","29.69","10.00","63","160",,"6",,,,,,,,,,,,,,,,,,,,,,,,,,,,,,,,,,,,,"MET14506/02/21 18:56:02 METAR KART 022356Z 16005KT 10SM FEW047 SCT090 SCT110 20/16 A3005 RMK AO2 RAE30 SLP173 P0001 60011 T02000156 10267 20189 58004 $","FM-15","7",,,,,,,,,,,,,,,,,,,,,,,,,,,,"2005-11-07"
"72622794790","2021-06-02T19:56:00","FM-15","7",,,,,,,,,,,,,,,,,,,,,,,,,,,,,,,,,,,,,,"30.04","59","67","0.00",,,,"76","30.03","CLR:00","29.68","10.00","62","160",,"7",,,,,,,,,,,,,,,,,,,,,,,,,,,,,,,,,,,,,"MET09206/02/21 19:56:01 METAR KART 030056Z 16006KT 10SM CLR 19/15 A3004 RMK AO2 SLP169 T01940150 $","FM-15","7",,,,,,,,,,,,,,,,,,,,,,,,,,,,"2005-11-07"
"72622794790","2021-06-02T20:56:00","FM-15","7",,,,,,,,,,,,,,,,,,,,,,,,,,,,,,,,,,,,,,"30.05","59","65","0.00",,,,"81","30.04","CLR:00","29.69","10.00","61","170",,"8",,,,,,,,,,,,,,,,,,,,,,,,,,,,,,,,,,,,,"MET09206/02/21 20:56:01 METAR KART 030156Z 17007KT 10SM CLR 18/15 A3005 RMK AO2 SLP172 T01830150 $","FM-15","7",,,,,,,,,,,,,,,,,,,,,,,,,,,,"2005-11-07"
"72622794790","2021-06-02T21:56:00","FM-15","7",,,,,,,,,,,,,,,,,,,,,,,,,,,,,,,,,,,,,,"30.04","59","64","0.00",,"+0.01","6","84","30.03","SCT:04 120","29.68","10.00","61","170",,"7",,,,,,,,,,,,,,,,,,,,,,,,,,,,,,,,,,,,,"MET10106/02/21 21:56:01 METAR KART 030256Z 17006KT 10SM SCT120 18/15 A3004 RMK AO2 SLP169 T01780150 56003 $","FM-15","7",,,,,,,,,,,,,,,,,,,,,,,,,,,,"2005-11-07"
"72622794790","2021-06-02T22:56:00","FM-15","7",,,,,,,,,,,,,,,,,,,,,,,,,,,,,,,,,,,,,,"30.03","59","66","0.00",,,,"78","30.01","BKN:07 120","29.67","10.00","62","VRB",,"5",,,,,,,,,,,,,,,,,,,,,,,,,,,,,,,,,,,,,"MET09506/02/21 22:56:02 METAR KART 030356Z VRB04KT 10SM BKN120 19/15 A3003 RMK AO2 SLP164 T01890150 $","FM-15","7",,,,,,,,,,,,,,,,,,,,,,,,,,,,"2005-11-07"
"72622794790","2021-06-02T23:56:00","FM-15","7",,,,,,,,,,,,,,,,,,,,,,,,,,,,,,,,,,,,,,"30.01","58","66","0.00",,,,"75","29.99","OVC:08 110","29.65","10.00","61","170",,"6",,,,,,,,,,,,,,,,,,,,,,,,,,,,,,,,,,,,,"MET10506/02/21 23:56:02 METAR KART 030456Z 17005KT 10SM OVC110 19/14 A3001 RMK AO2 SLP157 T01890144 402670072 $","FM-15","7",,,,,,,,,,,,,,,,,,,,,,,,,,,,"2005-11-07"
"72622794790","2021-06-02T23:59:00","SOD  ","6",,,,,,,,,,,,,,,,"63",,,"29.77",,"5.0","0","3.6","2","80","45","200","19","0.11",,,"210","14","RA",,,,,,,,,,,,,,,,,,,,,,,,,,,,,,,,,,,,,,,,,,,,,,,,,,,,,,,,"SOD70924 HR PRECIPITATION (IN): 0.11 WEATHER(CODE):1  24 HR MAX TEMP (F): 8024 HR MIN TEMP (F): 45AVERAGE STATION PRESSURE:29.770 MINIMUM SEA LEVEL PRESSURE:29.99 TIME OF OCCURRENCE:2359 PEAK WIND SPEED (MPH): 19 PEAK WIND DIR (DEG):200 PEAK WIND TIME (LST):      FASTEST 2MIN SPEED (MPH): 14FASTEST 2MIN DIR (DEG):210 FASTEST 2MIN TIME (LST):     AVERAGE WIND SPEED (MPH): 5.0 24 HR AVG TEMP (F): 63DEPART FROM NORMAL:  3  HEATING DEGREE DAYS:  2 COOLING DEGREE DAYS:  0 LATEST DAY MAX TEMP (0700-1900 LST):80  LATEST NIGHT MIN TEMP(1900-0800 LST):45 HOURLY INCREMENTAL PRECIPITATION VALUES (IN):.00 0.00 0.00 0.00 0.00 0.00 0.00 0.00 0.00 0.00 0.00 0.00 0.00 0.00 0.00 0.00 0.00 0.10 0.01 0.00 0.00 0.00 0.00 0.00","SOD  ","6",,,,,,,,,,,,,,,,,,,,,,,,,"0424","1941",,"2005-11-07"
"72622794790","2021-06-03T00:56:00","FM-15","7",,,,,,,,,,,,,,,,,,,,,,,,,,,,,,,,,,,,,,"30.00","59","66","0.00",,"+0.05","6","78","29.98","BKN:07 70 OVC:08 80","29.64","10.00","62","180",,"6",,,,,,,,,,,,,,,,,,,,,,,,,,,,,,,,,,,,,"MET12006/03/21 00:56:02 METAR KART 030556Z 18005KT 10SM BKN070 OVC080 19/15 A3000 RMK AO2 SLP153 T01890150 10200 20178 56016 $","FM-15","7",,,,,,,,,,,,,,,,,,,,,,,,,,,,"2005-11-07"
"72622794790","2021-06-03T01:56:00","FM-15","7",,,,,,,,,,,,,,,,,,,,,,,,,,,,,,,,,,,,,,"30.00","60","65","T","-RA:02 |RA |RA",,,"84","29.98","SCT:04 65 OVC:08 80","29.64","10.00","62","210",,"7",,,,,,,,,,,,,,,,,,,,,,,,,,,,,,,,,,,,,"MET11806/03/21 01:56:02 METAR KART 030656Z 21006KT 10SM -RA SCT065 OVC080 18/16 A3000 RMK AO2 RAB32 SLP154 P0000 T01830156 $","FM-15","7",,,,,,,,,,,,,,,,,,,,,,,,,,,,"2005-11-07"
"72622794790","2021-06-03T02:56:00","FM-15","7",,,,,,,,,,,,,,,,,,,,,,,,,,,,,,,,,,,,,,"29.99","61","64","0.03","-RA:02 |RA |RA",,,"90","29.98","SCT:04 18 BKN:07 28 OVC:08 95","29.63","8.00","62","210",,"7",,,,,,,,,,,,,,,,,,,,,,,,,,,,,,,,,,,,,"MET11806/03/21 02:56:02 METAR KART 030756Z 21006KT 8SM -RA SCT018 BKN028 OVC095 18/16 A2999 RMK AO2 SLP152 P0002 T01780161 $","FM-15","7",,,,,,,,,,,,,,,,,,,,,,,,,,,,"2005-11-07"
"72622794790","2021-06-03T03:03:00","FM-16","7",,,,,,,,,,,,,,,,,,,,,,,,,,,,,,,,,,,,,,"29.99","61","64","0.01","-RA:02 BR:1 |RA |RA",,,"90",,"SCT:04 21 BKN:07 31 OVC:08 100","29.63","6.00","62","210",,"5",,,,,,,,,,,,,,,,,,,,,,,,,,,,,,,,,,,,,"MET11406/03/21 03:03:02 SPECI KART 030803Z 21004KT 6SM -RA BR SCT021 BKN031 OVC100 18/16 A2999 RMK AO2 P0001 T01780161 $","FM-16","7",,,,,,,,,,,,,,,,,,,,,,,,,,,,"2005-11-07"
"72622794790","2021-06-03T03:41:00","FM-16","7",,,,,,,,,,,,,,,,,,,,,,,,,,,,,,,,,,,,,,"29.98","60","63","0.01",,,,"90",,"SCT:04 20 BKN:07 27 OVC:08 100","29.62","9.00","61","000",,"0",,,,,,,,,,,,,,,,,,,,,,,,,,,,,,,,,,,,,"MET12506/03/21 03:41:02 SPECI KART 030841Z 00000KT 9SM SCT020 BKN027 OVC100 17/16 A2998 RMK AO2 RAE25 CIG 024V039 P0001 T01720156 $","FM-16","7",,,,,,,,,,,,,,,,,,,,,,,,,,,,"2005-11-07"
"72622794790","2021-06-03T03:56:00","FM-15","7",,,,,,,,,,,,,,,,,,,,,,,,,,,,,,,,,,,,,,"29.98","61","63","0.01","-RA:02 |RA |RA","+0.02","8","93","29.96","BKN:07 18 BKN:07 26 OVC:08 100","29.62","7.00","62","000",,"0",,,,,,,,,,,,,,,,,,,,,,,,,,,,,,,,,,,,,"MET13906/03/21 03:56:02 METAR KART 030856Z 00000KT 7SM -RA BKN018 BKN026 OVC100 17/16 A2998 RMK AO2 RAE25B47 SLP147 P0002 60004 T01720161 58006 $","FM-15","7",,,,,,,,,,,,,,,,,,,,,,,,,,,,"2005-11-07"
"72622794790","2021-06-03T04:51:00","FM-16","7",,,,,,,,,,,,,,,,,,,,,,,,,,,,,,,,,,,,,,"29.96","61","63","0.05","-RA:02 BR:1 |RA |RA",,,"94",,"FEW:02 19 OVC:08 60","29.60","4.00","62","050",,"5",,,,,,,,,,,,,,,,,,,,,,,,,,,,,,,,,,,,,"MET09706/03/21 04:51:02 SPECI KART 030951Z 05004KT 4SM -RA BR FEW019 OVC060 17/16 A2996 RMK AO2 P0005 $","FM-16","7",,,,,,,,,,,,,,,,,,,,,,,,,,,,"2005-11-07"
"72622794790","2021-06-03T04:56:00","FM-15","7",,,,,,,,,,,,,,,,,,,,,,,,,,,,,,,,,,,,,,"29.96","61","63","0.11","+RA:02 BR:1 |RA |RA",,,"93","29.95","FEW:02 21 BKN:07 55 OVC:08 65","29.60","2.50","62","030",,"3",,,,,,,,,,,,,,,,,,,,,,,,,,,,,,,,,,,,,"MET12506/03/21 04:56:02 METAR KART 030956Z 03003KT 2 1/2SM +RA BR FEW021 BKN055 OVC065 17/16 A2996 RMK AO2 SLP142 P0008 T01720161 $","FM-15","7",,,,,,,,,,,,,,,,,,,,,,,,,,,,"2005-11-07"
"72622794790","2021-06-03T05:04:00","FM-16","7",,,,,,,,,,,,,,,,,,,,,,,,,,,,,,,,,,,,,,"29.96","61","63","0.05","RA:02 BR:1 |RA |RA",,,"93",,"SCT:04 19 BKN:07 35 OVC:08 70","29.60","1.75","62","040",,"5",,,,,,,,,,,,,,,,,,,,,,,,,,,,,,,,,,,,,"MET11706/03/21 05:04:02 SPECI KART 031004Z 04004KT 1 3/4SM RA BR SCT019 BKN035 OVC070 17/16 A2996 RMK AO2 P0005 T01720161 $","FM-16","7",,,,,,,,,,,,,,,,,,,,,,,,,,,,"2005-11-07"
"72622794790","2021-06-03T05:10:00","FM-16","7",,,,,,,,,,,,,,,,,,,,,,,,,,,,,,,,,,,,,,"29.96","61","63","0.06","RA:02 BR:1 |RA |RA",,,"93",,"SCT:04 19 BKN:07 39 OVC:08 65","29.60","3.00","62","040",,"5",,,,,,,,,,,,,,,,,,,,,,,,,,,,,,,,,,,,,"MET11306/03/21 05:10:02 SPECI KART 031010Z 04004KT 3SM RA BR SCT019 BKN039 OVC065 17/16 A2996 RMK AO2 P0006 T01720161 $","FM-16","7",,,,,,,,,,,,,,,,,,,,,,,,,,,,"2005-11-07"
"72622794790","2021-06-03T05:18:00","FM-16","7",,,,,,,,,,,,,,,,,,,,,,,,,,,,,,,,,,,,,,"29.96","61","63","0.08","RA:02 BR:1 |RA |RA",,,"93",,"BKN:07 20 BKN:07 26 OVC:08 48","29.60","3.00","62","000",,"0",,,,,,,,,,,,,,,,,,,,,,,,,,,,,,,,,,,,,"MET11306/03/21 05:18:02 SPECI KART 031018Z 00000KT 3SM RA BR BKN020 BKN026 OVC048 17/16 A2996 RMK AO2 P0008 T01720161 $","FM-16","7",,,,,,,,,,,,,,,,,,,,,,,,,,,,"2005-11-07"
"72622794790","2021-06-03T05:25:00","FM-16","7",,,,,,,,,,,,,,,,,,,,,,,,,,,,,,,,,,,,,,"29.96","61","63","0.11","+RA:02 BR:1 |RA |RA",,,"93",,"BKN:07 20 BKN:07 26 OVC:08 35","29.60","2.00","62","050",,"3",,,,,,,,,,,,,,,,,,,,,,,,,,,,,,,,,,,,,"MET11406/03/21 05:25:02 SPECI KART 031025Z 05003KT 2SM +RA BR BKN020 BKN026 OVC035 17/16 A2996 RMK AO2 P0011 T01720161 $","FM-16","7",,,,,,,,,,,,,,,,,,,,,,,,,,,,"2005-11-07"
"72622794790","2021-06-03T05:46:00","FM-16","7",,,,,,,,,,,,,,,,,,,,,,,,,,,,,,,,,,,,,,"29.96","61","63","0.15","RA:02 BR:1 |RA |RA",,,"93",,"BKN:07 20 BKN:07 24 OVC:08 38","29.60","1.50","62","000",,"0",,,,,,,,,,,,,,,,,,,,,,,,,,,,,,,,,,,,,"MET11506/03/21 05:46:02 SPECI KART 031046Z 00000KT 1 1/2SM RA BR BKN020 BKN024 OVC038 17/16 A2996 RMK AO2 P0015 T01720161","FM-16","7",,,,,,,,,,,,,,,,,,,,,,,,,,,,"2005-11-07"
"72622794790","2021-06-03T05:56:00","FM-15","7",,,,,,,,,,,,,,,,,,,,,,,,,,,,,,,,,,,,,,"29.95","61","63","0.14","RA:02 BR:1 |RA |RA",,,"93","29.94","BKN:07 20 BKN:07 24 OVC:08 34","29.59","2.00","62","000",,"0",,,,,,,,,,,,,,,,,,,,,,,,,,,,,,,,,,,,,"MET11806/03/21 05:56:02 METAR KART 031056Z 00000KT 2SM RA BR BKN020 BKN024 OVC034 17/16 A2995 RMK AO2 SLP138 P0017 T01720161","FM-15","7",,,,,,,,,,,,,,,,,,,,,,,,,,,,"2005-11-07"
"72622794790","2021-06-03T06:10:00","FM-16","7",,,,,,,,,,,,,,,,,,,,,,,,,,,,,,,,,,,,,,"29.95","62","63","T","-RA:02 BR:1 |RA |RA",,,"97",,"BKN:07 23 BKN:07 40 OVC:08 70","29.59","4.00","62","090",,"3",,,,,,,,,,,,,,,,,,,,,,,,,,,,,,,,,,,,,"MET11206/03/21 06:10:02 SPECI KART 031110Z 09003KT 4SM -RA BR BKN023 BKN040 OVC070 17/17 A2995 RMK AO2 P0000 T01720167","FM-16","7",,,,,,,,,,,,,,,,,,,,,,,,,,,,"2005-11-07"
"72622794790","2021-06-03T06:17:00","FM-16","7",,,,,,,,,,,,,,,,,,,,,,,,,,,,,,,,,,,,,,"29.94","62","63","T","-RA:02 BR:1 |RA |RA",,,"97",,"FEW:02 19 BKN:07 50 OVC:08 70","29.58","4.00","62","120",,"3",,,,,,,,,,,,,,,,,,,,,,,,,,,,,,,,,,,,,"MET11206/03/21 06:17:02 SPECI KART 031117Z 12003KT 4SM -RA BR FEW019 BKN050 OVC070 17/17 A2994 RMK AO2 P0000 T01720167","FM-16","7",,,,,,,,,,,,,,,,,,,,,,,,,,,,"2005-11-07"
"72622794790","2021-06-03T06:42:00","FM-16","7",,,,,,,,,,,,,,,,,,,,,,,,,,,,,,,,,,,,,,"29.94","61","63","0.01","-RA:02 BR:1 |RA |RA",,,"93",,"FEW:02 19 BKN:07 26 OVC:08 47","29.58","5.00","62","000",,"0",,,,,,,,,,,,,,,,,,,,,,,,,,,,,,,,,,,,,"MET11206/03/21 06:42:02 SPECI KART 031142Z 00000KT 5SM -RA BR FEW019 BKN026 OVC047 17/16 A2994 RMK AO2 P0001 T01720161","FM-16","7",,,,,,,,,,,,,,,,,,,,,,,,,,,,"2005-11-07"
"72622794790","2021-06-03T06:56:00","FM-15","7",,,,,,,,,,,,,,,,,,,,,,,,,,,,,,,,,,,,,,"29.93","61","63","0.02",,"+0.03","8","93","29.92","BKN:07 22 OVC:08 27","29.57","10.00","62","000",,"0",,,,,,,,,,,,,,,,,,,,,,,,,,,,,,,,,,,,,"MET14206/03/21 06:56:02 METAR KART 031156Z 00000KT 10SM BKN022 OVC027 17/16 A2993 RMK AO2 RAE54 SLP132 P0002 60031 70042 T01720161 10189 20167 58009","FM-15","7",,,,,,,,,,,,,,,,,,,,,,,,,,,,"2005-11-07"
"72622794790","2021-06-03T07:56:00","FM-15","7",,,,,,,,,,,,,,,,,,,,,,,,,,,,,,,,,,,,,,"29.91","61","64","0.02","-RA:02 BR:1 |RA |RA",,,"90","29.90","BKN:07 22 BKN:07 70 OVC:08 80","29.55","4.00","62","170",,"7",,,,,,,,,,,,,,,,,,,,,,,,,,,,,,,,,,,,,"MET12506/03/21 07:56:02 METAR KART 031256Z 17006KT 4SM -RA BR BKN022 BKN070 OVC080 18/16 A2991 RMK AO2 RAB01 SLP126 P0002 T01780161","FM-15","7",,,,,,,,,,,,,,,,,,,,,,,,,,,,"2005-11-07"
"72622794790","2021-06-03T08:05:00","FM-16","7",,,,,,,,,,,,,,,,,,,,,,,,,,,,,,,,,,,,,,"29.91","61","64","T","-RA:02 |RA |RA",,,"90",,"FEW:02 23 BKN:07 65 OVC:08 80","29.55","7.00","62","170",,"8",,,,,,,,,,,,,,,,,,,,,,,,,,,,,,,,,,,,,"MET10906/03/21 08:05:02 SPECI KART 031305Z 17007KT 7SM -RA FEW023 BKN065 OVC080 18/16 A2991 RMK AO2 P0000 T01780161","FM-16","7",,,,,,,,,,,,,,,,,,,,,,,,,,,,"2005-11-07"
"72622794790","2021-06-03T08:16:00","FM-16","7",,,,,,,,,,,,,,,,,,,,,,,,,,,,,,,,,,,,,,"29.91","61","64","T",,,,"90",,"FEW:02 21 BKN:07 29 OVC:08 60","29.55","10.00","62","170",,"6",,,,,,,,,,,,,,,,,,,,,,,,,,,,,,,,,,,,,"MET11206/03/21 08:16:02 SPECI KART 031316Z 17005KT 10SM FEW021 BKN029 OVC060 18/16 A2991 RMK AO2 RAE14 P0000 T01780161","FM-16","7",,,,,,,,,,,,,,,,,,,,,,,,,,,,"2005-11-07"
"72622794790","2021-06-03T08:38:00","FM-16","7",,,,,,,,,,,,,,,,,,,,,,,,,,,,,,,,,,,,,,"29.90","61","64","0.03","RA:02 BR:1 |RA |RA",,,"90",,"BKN:07 22 BKN:07 29 OVC:08 35","29.54","1.75","62","190",,"3",,,,,,,,,,,,,,,,,,,,,,,,,,,,,,,,,,,,,"MET12406/03/21 08:38:02 SPECI KART 031338Z 19003KT 1 3/4SM RA BR BKN022 BKN029 OVC035 18/16 A2990 RMK AO2 RAE14B25 P0003 T01780161","FM-16","7",,,,,,,,,,,,,,,,,,,,,,,,,,,,"2005-11-07"
"72622794790","2021-06-03T08:56:00","FM-15","7",,,,,,,,,,,,,,,,,,,,,,,,,,,,,,,,,,,,,,"29.90","61","63","0.08","RA:02 BR:1 |RA |RA",,,"93","29.89","FEW:02 17 BKN:07 22 OVC:08 27","29.54","1.50","62","190",,"5",,,,,,,,,,,,,,,,,,,,,,,,,,,,,,,,,,,,,"MET13106/03/21 08:56:02 METAR KART 031356Z 19004KT 1 1/2SM RA BR FEW017 BKN022 OVC027 17/16 A2990 RMK AO2 RAE14B25 SLP122 P0008 T01720161","FM-15","7",,,,,,,,,,,,,,,,,,,,,,,,,,,,"2005-11-07"
"72622794790","2021-06-03T09:10:00","FM-16","7",,,,,,,,,,,,,,,,,,,,,,,,,,,,,,,,,,,,,,"29.90","62","64","0.01","-RA:02 BR:1 |RA |RA",,,"93",,"BKN:07 22 OVC:08 27","29.54","2.50","63","190",,"5",,,,,,,,,,,,,,,,,,,,,,,,,,,,,,,,,,,,,"MET10906/03/21 09:10:02 SPECI KART 031410Z 19004KT 2 1/2SM -RA BR BKN022 OVC027 18/17 A2990 RMK AO2 P0001 T01780167","FM-16","7",,,,,,,,,,,,,,,,,,,,,,,,,,,,"2005-11-07"
"72622794790","2021-06-03T09:25:00","FM-16","7",,,,,,,,,,,,,,,,,,,,,,,,,,,,,,,,,,,,,,"29.89","61","64","0.01","-RA:02 BR:1 |RA |RA",,,"90",,"BKN:07 20 OVC:08 29","29.53","3.00","62","VRB",,"5",,,,,,,,,,,,,,,,,,,,,,,,,,,,,,,,,,,,,"MET10506/03/21 09:25:02 SPECI KART 031425Z VRB04KT 3SM -RA BR BKN020 OVC029 18/16 A2989 RMK AO2 P0001 T01780161","FM-16","7",,,,,,,,,,,,,,,,,,,,,,,,,,,,"2005-11-07"
"72622794790","2021-06-03T09:36:00","FM-16","7",,,,,,,,,,,,,,,,,,,,,,,,,,,,,,,,,,,,,,"29.89","62","64","0.02","-RA:02 BR:1 |RA |RA",,,"93",,"BKN:07 21 BKN:07 27 OVC:08 32","29.53","2.00","63","200",,"5",,,,,,,,,,,,,,,,,,,,,,,,,,,,,,,,,,,,,"MET11206/03/21 09:36:02 SPECI KART 031436Z 20004KT 2SM -RA BR BKN021 BKN027 OVC032 18/17 A2989 RMK AO2 P0002 T01780167","FM-16","7",,,,,,,,,,,,,,,,,,,,,,,,,,,,"2005-11-07"
"72622794790","2021-06-03T09:43:00","FM-16","7",,,,,,,,,,,,,,,,,,,,,,,,,,,,,,,,,,,,,,"29.89","62","64","0.02","-RA:02 BR:1 |RA |RA",,,"93",,"FEW:02 6 BKN:07 21 OVC:08 29","29.53","1.75","63","190",,"6",,,,,,,,,,,,,,,,,,,,,,,,,,,,,,,,,,,,,"MET11606/03/21 09:43:02 SPECI KART 031443Z 19005KT 1 3/4SM -RA BR FEW006 BKN021 OVC029 18/17 A2989 RMK AO2 P0002 T01780167","FM-16","7",,,,,,,,,,,,,,,,,,,,,,,,,,,,"2005-11-07"
"72622794790","2021-06-03T09:56:00","FM-15","7",,,,,,,,,,,,,,,,,,,,,,,,,,,,,,,,,,,,,,"29.89","62","64","0.02","-RA:02 BR:1 |RA |RA","+0.04","6","93","29.88","BKN:07 22 OVC:08 27","29.53","4.00","63","190",,"5",,,,,,,,,,,,,,,,,,,,,,,,,,,,,,,,,,,,,"MET12406/03/21 09:56:02 METAR KART 031456Z 19004KT 4SM -RA BR BKN022 OVC027 18/17 A2989 RMK AO2 SLP119 P0002 60012 T01780167 56014","FM-15","7",,,,,,,,,,,,,,,,,,,,,,,,,,,,"2005-11-07"
"72622794790","2021-06-03T10:56:00","FM-15","7",,,,,,,,,,,,,,,,,,,,,,,,,,,,,,,,,,,,,,"29.88","62","65","T",,,,"90","29.87","FEW:02 14 OVC:08 19","29.52","10.00","63","210",,"6",,,,,,,,,,,,,,,,,,,,,,,,,,,,,,,,,,,,,"MET11206/03/21 10:56:02 METAR KART 031556Z 21005KT 10SM FEW014 OVC019 18/17 A2988 RMK AO2 RAE14 SLP114 P0000 T01830167","FM-15","7",,,,,,,,,,,,,,,,,,,,,,,,,,,,"2005-11-07"
"72622794790","2021-06-03T11:56:00","FM-15","7",,,,,,,,,,,,,,,,,,,,,,,,,,,,,,,,,,,,,,"29.87","64","67","0.01","-RA:02 |RA |RA",,,"91","29.86","BKN:07 17 OVC:08 22","29.51","7.00","65","250",,"6",,,,,,,,,,,,,,,,,,,,,,,,,,,,,,,,,,,,,"MET11506/03/21 11:56:02 METAR KART 031656Z 25005KT 7SM -RA BKN017 OVC022 19/18 A2987 RMK AO2 RAB40 SLP111 P0000 T01940178","FM-15","7",,,,,,,,,,,,,,,,,,,,,,,,,,,,"2005-11-07"
"72622794790","2021-06-03T12:47:00","FM-16","7",,,,,,,,,,,,,,,,,,,,,,,,,,,,,,,,,,,,,,"29.86","64","68","0.01",,,,"87",,"FEW:02 7 BKN:07 14 BKN:07 75","29.50","10.00","66","270",,"14",,,,,,,,,,,,,,,,,,,,,,,,,,,,,,,,,,,,,"MET12306/03/21 12:47:02 SPECI KART 031747Z 27012KT 10SM FEW007 BKN014 BKN075 20/18 A2986 RMK AO2 LTG DSNT S RAE01 P0001 T02000178","FM-16","7",,,,,,,,,,,,,,,,,,,,,,,,,,,,"2005-11-07"
"72622794790","2021-06-03T12:56:00","FM-15","7",,,,,,,,,,,,,,,,,,,,,,,,,,,,,,,,,,,,,,"29.87","64","69","T",,"+0.02","6","84","29.85","SCT:04 9 BKN:07 14 BKN:07 19","29.51","10.00","66","250",,"11",,,,,,,,,,,,,,,,,,,,,,,,,,,,,,,,,,,,,"MET15406/03/21 12:56:02 METAR KART 031756Z 25010KT 10SM SCT009 BKN014 BKN019 21/18 A2987 RMK AO2 LTG DSNT S RAE01 SLP109 P0001 60013 T02060178 10206 20172 56008","FM-15","7",,,,,,,,,,,,,,,,,,,,,,,,,,,,"2005-11-07"
"72622794790","2021-06-03T13:06:00","FM-16","7",,,,,,,,,,,,,,,,,,,,,,,,,,,,,,,,,,,,,,"29.87","63","68",,,,,"84",,"SCT:04 8 BKN:07 17 BKN:07 75","29.51","10.00","65","250",,"10",,,,,,,,,,,,,,,,,,,,,,,,,,,,,,,,,,,,,"MET11806/03/21 13:06:02 SPECI KART 031806Z 25009KT 10SM SCT008 BKN017 BKN075 20/17 A2987 RMK AO2 LTG DSNT SE AND S T02000172","FM-16","7",,,,,,,,,,,,,,,,,,,,,,,,,,,,"2005-11-07"
"72622794790","2021-06-03T13:14:00","FM-16","7",,,,,,,,,,,,,,,,,,,,,,,,,,,,,,,,,,,,,,"29.87","63","68",,,,,"84",,"FEW:02 8 SCT:04 19","29.51","10.00","65","240",,"10",,,,,,,,,,,,,,,,,,,,,,,,,,,,,,,,,,,,,"MET11106/03/21 13:14:02 SPECI KART 031814Z 24009KT 10SM FEW008 SCT019 20/17 A2987 RMK AO2 LTG DSNT SE AND S T02000172","FM-16","7",,,,,,,,,,,,,,,,,,,,,,,,,,,,"2005-11-07"
"72622794790","2021-06-03T13:56:00","FM-15","7",,,,,,,,,,,,,,,,,,,,,,,,,,,,,,,,,,,,,,"29.86","62","67","0.00",,,,"84","29.85","FEW:02 9 SCT:04 45 OVC:08 70","29.50","10.00","64","250",,"8",,,,,,,,,,,,,,,,,,,,,,,,,,,,,,,,,,,,,"MET10706/03/21 13:56:02 METAR KART 031856Z 25007KT 10SM FEW009 SCT045 OVC070 19/17 A2986 RMK AO2 SLP109 T01940167","FM-15","7",,,,,,,,,,,,,,,,,,,,,,,,,,,,"2005-11-07"
"72622794790","2021-06-03T14:56:00","FM-15","7",,,,,,,,,,,,,,,,,,,,,,,,,,,,,,,,,,,,,,"29.85","62","68","0.00",,,,"81","29.84","FEW:02 11 BKN:07 60 OVC:08 95","29.49","10.00","64","230",,"10",,,,,,,,,,,,,,,,,,,,,,,,,,,,,,,,,,,,,"MET10706/03/21 14:56:02 METAR KART 031956Z 23009KT 10SM FEW011 BKN060 OVC095 20/17 A2985 RMK AO2 SLP106 T02000167","FM-15","7",,,,,,,,,,,,,,,,,,,,,,,,,,,,"2005-11-07"
"72622794790","2021-06-03T15:56:00","FM-15","7",,,,,,,,,,,,,,,,,,,,,,,,,,,,,,,,,,,,,,"29.85","61","66","0.00",,"+0.02","8","84","29.83","FEW:02 33 SCT:04 44 OVC:08 70","29.49","10.00","63","250",,"7",,,,,,,,,,,,,,,,,,,,,,,,,,,,,,,,,,,,,"MET11306/03/21 15:56:02 METAR KART 032056Z 25006KT 10SM FEW033 SCT044 OVC070 19/16 A2985 RMK AO2 SLP103 T01890161 58006","FM-15","7",,,,,,,,,,,,,,,,,,,,,,,,,,,,"2005-11-07"
"72622794790","2021-06-03T16:56:00","FM-15","7",,,,,,,,,,,,,,,,,,,,,,,,,,,,,,,,,,,,,,"29.84","61","66","0.00",,,,"84","29.83","OVC:08 48","29.48","10.00","63","210",,"7",,,,,,,,,,,,,,,,,,,,,,,,,,,,,,,,,,,,,"MET09306/03/21 16:56:02 METAR KART 032156Z 21006KT 10SM OVC048 19/16 A2984 RMK AO2 SLP100 T01890161","FM-15","7",,,,,,,,,,,,,,,,,,,,,,,,,,,,"2005-11-07"
"72622794790","2021-06-03T17:56:00","FM-15","7",,,,,,,,,,,,,,,,,,,,,,,,,,,,,,,,,,,,,,"29.83","61","66","0.00",,,,"84","29.82","CLR:00","29.47","10.00","63","200",,"5",,,,,,,,,,,,,,,,,,,,,,,,,,,,,,,,,,,,,"MET09006/03/21 17:56:02 METAR KART 032256Z 20004KT 10SM CLR 19/16 A2983 RMK AO2 SLP098 T01890161","FM-15","7",,,,,,,,,,,,,,,,,,,,,,,,,,,,"2005-11-07"
"72622794790","2021-06-03T18:56:00","FM-15","7",,,,,,,,,,,,,,,,,,,,,,,,,,,,,,,,,,,,,,"29.83","60","66","0.00",,"+0.02","6","81","29.82","CLR:00","29.47","10.00","62","220",,"5",,,,,,,,,,,,,,,,,,,,,,,,,,,,,,,,,,,,,"MET10806/03/21 18:56:02 METAR KART 032356Z 22004KT 10SM CLR 19/16 A2983 RMK AO2 SLP097 T01890156 10206 20189 56006","FM-15","7",,,,,,,,,,,,,,,,,,,,,,,,,,,,"2005-11-07"
"72622794790","2021-06-03T19:56:00","FM-15","7",,,,,,,,,,,,,,,,,,,,,,,,,,,,,,,,,,,,,,"29.85","60","65","0.00",,,,"84","29.83","SCT:04 36","29.49","10.00","62","200",,"6",,,,,,,,,,,,,,,,,,,,,,,,,,,,,,,,,,,,,"MET09306/03/21 19:56:01 METAR KART 040056Z 20005KT 10SM SCT036 18/16 A2985 RMK AO2 SLP103 T01830156","FM-15","7",,,,,,,,,,,,,,,,,,,,,,,,,,,,"2005-11-07"
"72622794790","2021-06-03T20:56:00","FM-15","7",,,,,,,,,,,,,,,,,,,,,,,,,,,,,,,,,,,,,,"29.86","60","64","0.00",,,,"87","29.85","FEW:02 18","29.50","10.00","62","210",,"6",,,,,,,,,,,,,,,,,,,,,,,,,,,,,,,,,,,,,"MET09306/03/21 20:56:01 METAR KART 040156Z 21005KT 10SM FEW018 18/16 A2986 RMK AO2 SLP108 T01780156","FM-15","7",,,,,,,,,,,,,,,,,,,,,,,,,,,,"2005-11-07"
"72622794790","2021-06-03T21:56:00","FM-15","7",,,,,,,,,,,,,,,,,,,,,,,,,,,,,,,,,,,,,,"29.86","60","63","0.00",,"-0.03","1","90","29.85","CLR:00","29.50","10.00","61","210",,"3",,,,,,,,,,,,,,,,,,,,,,,,,,,,,,,,,,,,,"MET09606/03/21 21:56:01 METAR KART 040256Z 21003KT 10SM CLR 17/16 A2986 RMK AO2 SLP109 T01720156 51010","FM-15","7",,,,,,,,,,,,,,,,,,,,,,,,,,,,"2005-11-07"
"72622794790","2021-06-03T22:56:00","FM-15","7",,,,,,,,,,,,,,,,,,,,,,,,,,,,,,,,,,,,,,"29.85","59","62","0.00",,,,"90","29.84","CLR:00","29.49","7.00","60","000",,"0",,,,,,,,,,,,,,,,,,,,,,,,,,,,,,,,,,,,,"MET08906/03/21 22:56:02 METAR KART 040356Z 00000KT 7SM CLR 17/15 A2985 RMK AO2 SLP106 T01670150","FM-15","7",,,,,,,,,,,,,,,,,,,,,,,,,,,,"2005-11-07"
"72622794790","2021-06-03T23:56:00","FM-15","7",,,,,,,,,,,,,,,,,,,,,,,,,,,,,,,,,,,,,,"29.85","59","61","0.00","BR:1 ||",,,"93","29.85","CLR:00","29.49","6.00","60","200",,"3",,,,,,,,,,,,,,,,,,,,,,,,,,,,,,,,,,,,,"MET10206/03/21 23:56:02 METAR KART 040456Z 20003KT 6SM BR CLR 16/15 A2985 RMK AO2 SLP107 T01610150 402060161","FM-15","7",,,,,,,,,,,,,,,,,,,,,,,,,,,,"2005-11-07"
"72622794790","2021-06-03T23:59:00","SOD  ","6",,,,,,,,,,,,,,,,"65",,,"29.54",,"5.0","0","5.3","0","69","61","260","18","0.44",,,"270","14","RA BR",,,,,,,,,,,,,,,,,,,,,,,,,,,,,,,,,,,,,,,,,,,,,,,,,,,,,,,,"SOD70924 HR PRECIPITATION (IN): 0.44 WEATHER(CODE):1  24 HR MAX TEMP (F): 6924 HR MIN TEMP (F): 61AVERAGE STATION PRESSURE:29.545 MINIMUM SEA LEVEL PRESSURE:29.81 TIME OF OCCURRENCE:1826 PEAK WIND SPEED (MPH): 18 PEAK WIND DIR (DEG):260 PEAK WIND TIME (LST):      FASTEST 2MIN SPEED (MPH): 14FASTEST 2MIN DIR (DEG):270 FASTEST 2MIN TIME (LST):     AVERAGE WIND SPEED (MPH): 5.0 24 HR AVG TEMP (F): 65DEPART FROM NORMAL:  5  HEATING DEGREE DAYS:  0 COOLING DEGREE DAYS:  0 LATEST DAY MAX TEMP (0700-1900 LST):69  LATEST NIGHT MIN TEMP(1900-0800 LST):62 HOURLY INCREMENTAL PRECIPITATION VALUES (IN):.00 T    0.03 0.01 0.11 0.14 0.02 0.02 0.08 0.02 T    0.01 T    0.00 0.00 0.00 0.00 0.00 0.00 0.00 0.00 0.00 0.00 0.00","SOD  ","6",,,,,,,,,,,,,,,,,,,,,,,,,"0423","1941",,"2005-11-07"
"72622794790","2021-06-04T00:54:00","FM-16","6",,,,,,,,,,,,,,,,,,,,,,,,,,,,,,,,,,,,,,"29.85","57","59",,"BR:1 ||",,,"94",,"CLR:00","29.49","2.00","58","000",,"0",,,,,,,,,,,,,,,,,,,,,,,,,,,,,,,,,,,,,"MET08006/04/21 00:54:02 SPECI KART 040554Z 00000KT 2SM BR CLR 15/14 A2985 RMK AO2 FIBI","FM-16","6",,,,,,,,,,,,,,,,,,,,,,,,,,,,"2005-11-07"
"72622794790","2021-06-04T00:56:00","FM-15","7",,,,,,,,,,,,,,,,,,,,,,,,,,,,,,,,,,,,,,"29.85","57","59","0.00","BR:1 ||","+0.01","6","93","29.84","CLR:00","29.49","2.00","58","000",,"0",,,,,,,,,,,,,,,,,,,,,,,,,,,,,,,,,,,,,"MET11006/04/21 00:56:02 METAR KART 040556Z 00000KT 2SM BR CLR 15/14 A2985 RMK AO2 SLP106 T01500139 10189 20144 56002","FM-15","7",,,,,,,,,,,,,,,,,,,,,,,,,,,,"2005-11-07"
"72622794790","2021-06-04T01:08:00","FM-16","7",,,,,,,,,,,,,,,,,,,,,,,,,,,,,,,,,,,,,,"29.85","57","58",,"BR:1 ||",,,"97",,"CLR:00","29.49","3.00","57","000",,"0",,,,,,,,,,,,,,,,,,,,,,,,,,,,,,,,,,,,,"MET08506/04/21 01:08:02 SPECI KART 040608Z 00000KT 3SM BR CLR 14/14 A2985 RMK AO2 T01440139","FM-16","7",,,,,,,,,,,,,,,,,,,,,,,,,,,,"2005-11-07"
"72622794790","2021-06-04T01:20:00","FM-16","7",,,,,,,,,,,,,,,,,,,,,,,,,,,,,,,,,,,,,,"29.85","58","59",,"BR:1 ||",,,"96",,"CLR:00","29.49","2.50V","58","000",,"0",,,,,,,,,,,,,,,,,,,,,,,,,,,,,,,,,,,,,"MET09706/04/21 01:20:02 SPECI KART 040620Z 00000KT 2 1/2SM BR CLR 15/14 A2985 RMK AO2 VIS 1V4 T01500144","FM-16","7",,,,,,,,,,,,,,,,,,,,,,,,,,,,"2005-11-07"
"72622794790","2021-06-04T01:30:00","FM-16","7",,,,,,,,,,,,,,,,,,,,,,,,,,,,,,,,,,,,,,"29.85","56","58",,"BR:1 ||",,,"93",,"CLR:00","29.49","0.75","57","000",,"0",,,,,,,,,,,,,,,,,,,,,,,,,,,,,,,,,,,,,"MET08706/04/21 01:30:02 SPECI KART 040630Z 00000KT 3/4SM BR CLR 14/13 A2985 RMK AO2 T01440133","FM-16","7",,,,,,,,,,,,,,,,,,,,,,,,,,,,"2005-11-07"
"72622794790","2021-06-04T01:37:00","FM-16","7",,,,,,,,,,,,,,,,,,,,,,,,,,,,,,,,,,,,,,"29.85","56","58",,"FG:2 |FG |",,,"93",,"VV:09 4","29.49","0.25","57","000",,"0",,,,,,,,,,,,,,,,,,,,,,,,,,,,,,,,,,,,,"MET08906/04/21 01:37:02 SPECI KART 040637Z 00000KT 1/4SM FG VV004 14/13 A2985 RMK AO2 T01440133","FM-16","7",,,,,,,,,,,,,,,,,,,,,,,,,,,,"2005-11-07"
"72622794790","2021-06-04T01:54:00","FM-16","6",,,,,,,,,,,,,,,,,,,,,,,,,,,,,,,,,,,,,,"29.85","57","57",,"FG:2 |FG |",,,"100",,"VV:09 4","29.49","0.50","57","000",,"0",,,,,,,,,,,,,,,,,,,,,,,,,,,,,,,,,,,,,"MET08406/04/21 01:54:02 SPECI KART 040654Z 00000KT 1/2SM FG VV004 14/14 A2985 RMK AO2 FIBI","FM-16","6",,,,,,,,,,,,,,,,,,,,,,,,,,,,"2005-11-07"
"72622794790","2021-06-04T01:56:00","FM-15","7",,,,,,,,,,,,,,,,,,,,,,,,,,,,,,,,,,,,,,"29.85","57","59","0.00","FG:2 |FG |",,,"93","29.84","VV:09 4","29.49","0.50V","58","000",,"0",,,,,,,,,,,,,,,,,,,,,,,,,,,,,,,,,,,,,"MET11006/04/21 01:56:02 METAR KART 040656Z 00000KT 1/2SM FG VV004 15/14 A2985 RMK AO2 VIS 1/4V2 1/2 SLP106 T01500139","FM-15","7",,,,,,,,,,,,,,,,,,,,,,,,,,,,"2005-11-07"
"72622794790","2021-06-04T02:01:00","FM-16","7",,,,,,,,,,,,,,,,,,,,,,,,,,,,,,,,,,,,,,"29.85","58","59",,"BR:1 ||",,,"96",,"FEW:02 4","29.49","1.50V","58","000",,"0",,,,,,,,,,,,,,,,,,,,,,,,,,,,,,,,,,,,,"MET10206/04/21 02:01:02 SPECI KART 040701Z 00000KT 1 1/2SM BR FEW004 15/14 A2985 RMK AO2 VIS 3/4V4 T01500144","FM-16","7",,,,,,,,,,,,,,,,,,,,,,,,,,,,"2005-11-07"
"72622794790","2021-06-04T02:05:00","FM-16","7",,,,,,,,,,,,,,,,,,,,,,,,,,,,,,,,,,,,,,"29.85","58","60",,"BR:1 ||",,,"93",,"FEW:02 4","29.49","3.00","59","000",,"0",,,,,,,,,,,,,,,,,,,,,,,,,,,,,,,,,,,,,"MET08806/04/21 02:05:02 SPECI KART 040705Z 00000KT 3SM BR FEW004 16/14 A2985 RMK AO2 T01560144","FM-16","7",,,,,,,,,,,,,,,,,,,,,,,,,,,,"2005-11-07"
"72622794790","2021-06-04T02:23:00","FM-16","7",,,,,,,,,,,,,,,,,,,,,,,,,,,,,,,,,,,,,,"29.85","57","59",,"BR:1 ||",,,"93",,"CLR:00","29.49","2.50","58","200",,"3",,,,,,,,,,,,,,,,,,,,,,,,,,,,,,,,,,,,,"MET08906/04/21 02:23:02 SPECI KART 040723Z 20003KT 2 1/2SM BR CLR 15/14 A2985 RMK AO2 T01500139","FM-16","7",,,,,,,,,,,,,,,,,,,,,,,,,,,,"2005-11-07"
"72622794790","2021-06-04T02:32:00","FM-16","7",,,,,,,,,,,,,,,,,,,,,,,,,,,,,,,,,,,,,,"29.85","58","60",,"BR:1 ||",,,"93",,"CLR:00","29.49","5.00","59","000",,"0",,,,,,,,,,,,,,,,,,,,,,,,,,,,,,,,,,,,,"MET08506/04/21 02:32:02 SPECI KART 040732Z 00000KT 5SM BR CLR 16/14 A2985 RMK AO2 T01560144","FM-16","7",,,,,,,,,,,,,,,,,,,,,,,,,,,,"2005-11-07"
"72622794790","2021-06-04T02:56:00","FM-15","7",,,,,,,,,,,,,,,,,,,,,,,,,,,,,,,,,,,,,,"29.85","59","60","0.00","BR:1 ||",,,"96","29.84","CLR:00","29.49","6.00","59","190",,"5",,,,,,,,,,,,,,,,,,,,,,,,,,,,,,,,,,,,,"MET09206/04/21 02:56:02 METAR KART 040756Z 19004KT 6SM BR CLR 16/15 A2985 RMK AO2 SLP105 T01560150","FM-15","7",,,,,,,,,,,,,,,,,,,,,,,,,,,,"2005-11-07"
"72622794790","2021-06-04T03:56:00","FM-15","7",,,,,,,,,,,,,,,,,,,,,,,,,,,,,,,,,,,,,,"29.85","59","60","0.00",,"-0.00","3","96","29.85","CLR:00","29.49","7.00","59","180",,"3",,,,,,,,,,,,,,,,,,,,,,,,,,,,,,,,,,,,,"MET09506/04/21 03:56:02 METAR KART 040856Z 18003KT 7SM CLR 16/15 A2985 RMK AO2 SLP107 T01560150 53000","FM-15","7",,,,,,,,,,,,,,,,,,,,,,,,,,,,"2005-11-07"
"72622794790","2021-06-04T04:54:00","FM-16","6",,,,,,,,,,,,,,,,,,,,,,,,,,,,,,,,,,,,,,"29.87","57","59",,"BR:1 ||",,,"94",,"BKN:07 20","29.51","5.00","58","220",,"5",,,,,,,,,,,,,,,,,,,,,,,,,,,,,,,,,,,,,"MET08306/04/21 04:54:02 SPECI KART 040954Z 22004KT 5SM BR BKN020 15/14 A2987 RMK AO2 FIBI","FM-16","6",,,,,,,,,,,,,,,,,,,,,,,,,,,,"2005-11-07"
"72622794790","2021-06-04T04:56:00","FM-15","7",,,,,,,,,,,,,,,,,,,,,,,,,,,,,,,,,,,,,,"29.87","58","60","0.00","BR:1 ||",,,"93","29.86","BKN:07 20","29.51","5.00","59","220",,"3",,,,,,,,,,,,,,,,,,,,,,,,,,,,,,,,,,,,,"MET09506/04/21 04:56:02 METAR KART 040956Z 22003KT 5SM BR BKN020 16/14 A2987 RMK AO2 SLP113 T01560144","FM-15","7",,,,,,,,,,,,,,,,,,,,,,,,,,,,"2005-11-07"
"72622794790","2021-06-04T05:52:00","FM-16","7",,,,,,,,,,,,,,,,,,,,,,,,,,,,,,,,,,,,,,"29.87","61","63",,"BR:1 ||",,,"94",,"SCT:04 19","29.51","6.00","62","000",,"0",,,,,,,,,,,,,,,,,,,,,,,,,,,,,,,,,,,,,"MET07806/04/21 05:52:02 SPECI KART 041052Z 00000KT 6SM BR SCT019 17/16 A2987 RMK AO2","FM-16","7",,,,,,,,,,,,,,,,,,,,,,,,,,,,"2005-11-07"
"72622794790","2021-06-04T05:56:00","FM-15","7",,,,,,,,,,,,,,,,,,,,,,,,,,,,,,,,,,,,,,"29.87","60","62","0.00","BR:1 ||",,,"93","29.86","FEW:02 21","29.51","6.00","61","190",,"5",,,,,,,,,,,,,,,,,,,,,,,,,,,,,,,,,,,,,"MET09506/04/21 05:56:02 METAR KART 041056Z 19004KT 6SM BR FEW021 17/16 A2987 RMK AO2 SLP113 T01670156","FM-15","7",,,,,,,,,,,,,,,,,,,,,,,,,,,,"2005-11-07"
"72622794790","2021-06-04T06:26:00","FM-16","7",,,,,,,,,,,,,,,,,,,,,,,,,,,,,,,,,,,,,,"29.88","61","63",,,,,"93",,"BKN:07 12","29.52","8.00","62","190",,"5",,,,,,,,,,,,,,,,,,,,,,,,,,,,,,,,,,,,,"MET08506/04/21 06:26:02 SPECI KART 041126Z 19004KT 8SM BKN012 17/16 A2988 RMK AO2 T01720161","FM-16","7",,,,,,,,,,,,,,,,,,,,,,,,,,,,"2005-11-07"
"72622794790","2021-06-04T06:56:00","FM-15","7",,,,,,,,,,,,,,,,,,,,,,,,,,,,,,,,,,,,,,"29.88","61","64","0.00",,"-0.00","3","90","29.86","OVC:08 12","29.52","9.00","62","200",,"8",,,,,,,,,,,,,,,,,,,,,,,,,,,,,,,,,,,,,"MET11606/04/21 06:56:02 METAR KART 041156Z 20007KT 9SM OVC012 18/16 A2988 RMK AO2 SLP113 70013 T01780161 10178 20139 53001","FM-15","7",,,,,,,,,,,,,,,,,,,,,,,,,,,,"2005-11-07"
"72622794790","2021-06-04T07:28:00","FM-16","7",,,,,,,,,,,,,,,,,,,,,,,,,,,,,,,,,,,,,,"29.89","61","64",,"BR:1 ||",,,"90",,"OVC:08 9","29.53","6.00","62","230",,"7",,,,,,,,,,,,,,,,,,,,,,,,,,,,,,,,,,,,,"MET08806/04/21 07:28:02 SPECI KART 041228Z 23006KT 6SM BR OVC009 18/16 A2989 RMK AO2 T01780161","FM-16","7",,,,,,,,,,,,,,,,,,,,,,,,,,,,"2005-11-07"
"72622794790","2021-06-04T07:56:00","FM-15","7",,,,,,,,,,,,,,,,,,,,,,,,,,,,,,,,,,,,,,"29.89","61","65","0.00","BR:1 ||",,,"87","29.88","OVC:08 8","29.53","6.00","63","210",,"8",,,,,,,,,,,,,,,,,,,,,,,,,,,,,,,,,,,,,"MET09506/04/21 07:56:02 METAR KART 041256Z 21007KT 6SM BR OVC008 18/16 A2989 RMK AO2 SLP117 T01830161","FM-15","7",,,,,,,,,,,,,,,,,,,,,,,,,,,,"2005-11-07"
"72622794790","2021-06-04T08:52:00","FM-16","7",,,,,,,,,,,,,,,,,,,,,,,,,,,,,,,,,,,,,,"29.88","63","68",,,,,"83",,"OVC:08 10","29.52","7.00","65","220",,"9",,,,,,,,,,,,,,,,,,,,,,,,,,,,,,,,,,,,,"MET07506/04/21 08:52:02 SPECI KART 041352Z 22008KT 7SM OVC010 20/17 A2988 RMK AO2","FM-16","7",,,,,,,,,,,,,,,,,,,,,,,,,,,,"2005-11-07"
"72622794790","2021-06-04T08:56:00","FM-15","7",,,,,,,,,,,,,,,,,,,,,,,,,,,,,,,,,,,,,,"29.89","62","68","0.00",,,,"81","29.87","OVC:08 10","29.53","7.00","64","230",,"10",,,,,,,,,,,,,,,,,,,,,,,,,,,,,,,,,,,,,"MET09206/04/21 08:56:02 METAR KART 041356Z 23009KT 7SM OVC010 20/17 A2989 RMK AO2 SLP116 T02000167","FM-15","7",,,,,,,,,,,,,,,,,,,,,,,,,,,,"2005-11-07"
"72622794790","2021-06-04T09:56:00","FM-15","7",,,,,,,,,,,,,,,,,,,,,,,,,,,,,,,,,,,,,,"29.88","62","70","0.00",,"+0.01","8","76","29.86","OVC:08 13","29.52","8.00","65","230",,"9",,,,,,,,,,,,,,,,,,,,,,,,,,,,,,,,,,,,,"MET09806/04/21 09:56:02 METAR KART 041456Z 23008KT 8SM OVC013 21/17 A2988 RMK AO2 SLP113 T02110167 58004","FM-15","7",,,,,,,,,,,,,,,,,,,,,,,,,,,,"2005-11-07"
"72622794790","2021-06-04T10:29:00","FM-16","7",,,,,,,,,,,,,,,,,,,,,,,,,,,,,,,,,,,,,,"29.88","62","70",,,,,"76",,"SCT:04 14","29.52","10.00","65","270",,"15",,,,,,,,,,,,,,,,,,,,,,,,,,,,,,,,,,,,,"MET08606/04/21 10:29:02 SPECI KART 041529Z 27013KT 10SM SCT014 21/17 A2988 RMK AO2 T02110167","FM-16","7",,,,,,,,,,,,,,,,,,,,,,,,,,,,"2005-11-07"
"72622794790","2021-06-04T10:56:00","FM-15","7",,,,,,,,,,,,,,,,,,,,,,,,,,,,,,,,,,,,,,"29.88","62","70","0.00",,,,"76","29.87","FEW:02 16","29.52","10.00","65","250",,"10",,,,,,,,,,,,,,,,,,,,,,,,,,,,,,,,,,,,,"MET09306/04/21 10:56:02 METAR KART 041556Z 25009KT 10SM FEW016 21/17 A2988 RMK AO2 SLP115 T02110167","FM-15","7",,,,,,,,,,,,,,,,,,,,,,,,,,,,"2005-11-07"
"72622794790","2021-06-04T11:56:00","FM-15","7",,,,,,,,,,,,,,,,,,,,,,,,,,,,,,,,,,,,,,"29.88","62","70","0.00",,,,"76","29.87","SCT:04 22","29.52","10.00","65","260","22","16",,,,,,,,,,,,,,,,,,,,,,,,,,,,,,,,,,,,,"MET10106/04/21 11:56:02 METAR KART 041656Z 26014G19KT 10SM SCT022 21/17 A2988 RMK AO2 SLP115 T02110167 TSNO","FM-15","7",,,,,,,,,,,,,,,,,,,,,,,,,,,,"2005-11-07"
"72622794790","2021-06-04T12:56:00","FM-15","7",,,,,,,,,,,,,,,,,,,,,,,,,,,,,,,,,,,,,,"29.88","62","72","0.00",,"+0.00","8","71","29.86","CLR:00","29.52","10.00","66","240",,"7",,,,,,,,,,,,,,,,,,,,,,,,,,,,,,,,,,,,,"MET10806/04/21 12:56:02 METAR KART 041756Z 24006KT 10SM CLR 22/17 A2988 RMK AO2 SLP113 T02220167 10228 20178 58000","FM-15","7",,,,,,,,,,,,,,,,,,,,,,,,,,,,"2005-11-07"
"72622794790","2021-06-04T13:56:00","FM-15","7",,,,,,,,,,,,,,,,,,,,,,,,,,,,,,,,,,,,,,"29.87","61","74","0.00",,,,"64","29.85","CLR:00","29.51","10.00","66","260",,"11",,,,,,,,,,,,,,,,,,,,,,,,,,,,,,,,,,,,,"MET09006/04/21 13:56:02 METAR KART 041856Z 26010KT 10SM CLR 23/16 A2987 RMK AO2 SLP110 T02330161","FM-15","7",,,,,,,,,,,,,,,,,,,,,,,,,,,,"2005-11-07"
"72622794790","2021-06-04T14:56:00","FM-15","7",,,,,,,,,,,,,,,,,,,,,,,,,,,,,,,,,,,,,,"29.85","60","77","0.00",,,,"56","29.83","CLR:00","29.49","10.00","66","240",,"10",,,,,,,,,,,,,,,,,,,,,,,,,,,,,,,,,,,,,"MET09006/04/21 14:56:02 METAR KART 041956Z 24009KT 10SM CLR 25/16 A2985 RMK AO2 SLP103 T02500156","FM-15","7",,,,,,,,,,,,,,,,,,,,,,,,,,,,"2005-11-07"
"72622794790","2021-06-04T15:56:00","FM-15","7",,,,,,,,,,,,,,,,,,,,,,,,,,,,,,,,,,,,,,"29.84","60","77","0.00",,"+0.04","8","56","29.82","CLR:00","29.48","10.00","66","260",,"9",,,,,,,,,,,,,,,,,,,,,,,,,,,,,,,,,,,,,"MET09606/04/21 15:56:02 METAR KART 042056Z 26008KT 10SM CLR 25/16 A2984 RMK AO2 SLP099 T02500156 58013","FM-15","7",,,,,,,,,,,,,,,,,,,,,,,,,,,,"2005-11-07"
"72622794790","2021-06-04T16:56:00","FM-15","7",,,,,,,,,,,,,,,,,,,,,,,,,,,,,,,,,,,,,,"29.83","60","77","0.00",,,,"56","29.81","CLR:00","29.47","10.00","66","260",,"7",,,,,,,,,,,,,,,,,,,,,,,,,,,,,,,,,,,,,"MET09006/04/21 16:56:02 METAR KART 042156Z 26006KT 10SM CLR 25/16 A2983 RMK AO2 SLP096 T02500156","FM-15","7",,,,,,,,,,,,,,,,,,,,,,,,,,,,"2005-11-07"
"72622794790","2021-06-04T17:56:00","FM-15","7",,,,,,,,,,,,,,,,,,,,,,,,,,,,,,,,,,,,,,"29.83","59","74","0.00",,,,"60","29.82","CLR:00","29.47","10.00","65","260",,"3",,,,,,,,,,,,,,,,,,,,,,,,,,,,,,,,,,,,,"MET09006/04/21 17:56:02 METAR KART 042256Z 26003KT 10SM CLR 23/15 A2983 RMK AO2 SLP099 T02330150","FM-15","7",,,,,,,,,,,,,,,,,,,,,,,,,,,,"2005-11-07"
"72622794790","2021-06-04T18:56:00","FM-15","7",,,,,,,,,,,,,,,,,,,,,,,,,,,,,,,,,,,,,,"29.83","59","74","0.00",,"+0.01","6","60","29.81","FEW:02 85","29.47","10.00","65","230",,"7",,,,,,,,,,,,,,,,,,,,,,,,,,,,,,,,,,,,,"MET11106/04/21 18:56:02 METAR KART 042356Z 23006KT 10SM FEW085 23/15 A2983 RMK AO2 SLP095 T02330150 10256 20222 56004","FM-15","7",,,,,,,,,,,,,,,,,,,,,,,,,,,,"2005-11-07"
"72622794790","2021-06-04T19:56:00","FM-15","7",,,,,,,,,,,,,,,,,,,,,,,,,,,,,,,,,,,,,,"29.83","59","69","0.00",,,,"70","29.81","CLR:00","29.47","10.00","63","210",,"5",,,,,,,,,,,,,,,,,,,,,,,,,,,,,,,,,,,,,"MET09006/04/21 19:56:01 METAR KART 050056Z 21004KT 10SM CLR 21/15 A2983 RMK AO2 SLP096 T02060150","FM-15","7",,,,,,,,,,,,,,,,,,,,,,,,,,,,"2005-11-07"
"72622794790","2021-06-04T20:56:00","FM-15","7",,,,,,,,,,,,,,,,,,,,,,,,,,,,,,,,,,,,,,"29.84","58","68","0.00",,,,"70","29.83","SCT:04 110","29.48","10.00","62","210",,"3",,,,,,,,,,,,,,,,,,,,,,,,,,,,,,,,,,,,,"MET09306/04/21 20:56:01 METAR KART 050156Z 21003KT 10SM SCT110 20/14 A2984 RMK AO2 SLP101 T02000144","FM-15","7",,,,,,,,,,,,,,,,,,,,,,,,,,,,"2005-11-07"
"72622794790","2021-06-04T21:56:00","FM-15","7",,,,,,,,,,,,,,,,,,,,,,,,,,,,,,,,,,,,,,"29.84","58","66","0.00",,"-0.01","0","75","29.83","CLR:00","29.48","10.00","61","200",,"3",,,,,,,,,,,,,,,,,,,,,,,,,,,,,,,,,,,,,"MET09606/04/21 21:56:02 METAR KART 050256Z 20003KT 10SM CLR 19/14 A2984 RMK AO2 SLP101 T01890144 50005","FM-15","7",,,,,,,,,,,,,,,,,,,,,,,,,,,,"2005-11-07"
"72622794790","2021-06-04T22:56:00","FM-15","7",,,,,,,,,,,,,,,,,,,,,,,,,,,,,,,,,,,,,,"29.83","57","68","0.00",,,,"68","29.81","BKN:07 75","29.47","10.00","62","200",,"6",,,,,,,,,,,,,,,,,,,,,,,,,,,,,,,,,,,,,"MET09306/04/21 22:56:02 METAR KART 050356Z 20005KT 10SM BKN075 20/14 A2983 RMK AO2 SLP096 T02000139","FM-15","7",,,,,,,,,,,,,,,,,,,,,,,,,,,,"2005-11-07"
"72622794790","2021-06-04T23:56:00","FM-15","7",,,,,,,,,,,,,,,,,,,,,,,,,,,,,,,,,,,,,,"29.82","57","68","0.00",,,,"68","29.81","CLR:00","29.47","10.00","62","210",,"7",,,,,,,,,,,,,,,,,,,,,,,,,,,,,,,,,,,,,"MET10006/04/21 23:56:02 METAR KART 050456Z 21006KT 10SM CLR 20/14 A2982 RMK AO2 SLP094 T02000139 402560139","FM-15","7",,,,,,,,,,,,,,,,,,,,,,,,,,,,"2005-11-07"
"72622794790","2021-06-04T23:59:00","SOD  ","6",,,,,,,,,,,,,,,,"68",,,"29.49",,"6.6","3","8.0","0","78","57","260","23","0.00",,,"270","17","FG BR",,,,,,,,,,,,,,,,,,,,,,,,,,,,,,,,,,,,,,,,,,,,,,,,,,,,,,,,"SOD71124 HR PRECIPITATION (IN): 0.00 WEATHER(CODE):128  24 HR MAX TEMP (F): 7824 HR MIN TEMP (F): 57AVERAGE STATION PRESSURE:29.495 MINIMUM SEA LEVEL PRESSURE:29.80 TIME OF OCCURRENCE:1833 PEAK WIND SPEED (MPH): 23 PEAK WIND DIR (DEG):260 PEAK WIND TIME (LST):      FASTEST 2MIN SPEED (MPH): 17FASTEST 2MIN DIR (DEG):270 FASTEST 2MIN TIME (LST):     AVERAGE WIND SPEED (MPH): 6.6 24 HR AVG TEMP (F): 68DEPART FROM NORMAL:  7  HEATING DEGREE DAYS:  0 COOLING DEGREE DAYS:  3 LATEST DAY MAX TEMP (0700-1900 LST):78  LATEST NIGHT MIN TEMP(1900-0800 LST):57 HOURLY INCREMENTAL PRECIPITATION VALUES (IN):.00 0.00 0.00 0.00 0.00 0.00 0.00 0.00 0.00 0.00 0.00 0.00 0.00 0.00 0.00 0.00 0.00 0.00 0.00 0.00 0.00 0.00 0.00 0.00","SOD  ","6",,,,,,,,,,,,,,,,,,,,,,,,,"0423","1942",,"2005-11-07"
"72622794790","2021-06-05T00:56:00","FM-15","7",,,,,,,,,,,,,,,,,,,,,,,,,,,,,,,,,,,,,,"29.82","57","67","0.00",,"+0.02","6","71","29.80","CLR:00","29.47","10.00","61","200",,"6",,,,,,,,,,,,,,,,,,,,,,,,,,,,,,,,,,,,,"MET10806/05/21 00:56:02 METAR KART 050556Z 20005KT 10SM CLR 19/14 A2982 RMK AO2 SLP092 T01940139 10233 20189 56007","FM-15","7",,,,,,,,,,,,,,,,,,,,,,,,,,,,"2005-11-07"
"72622794790","2021-06-05T01:56:00","FM-15","7",,,,,,,,,,,,,,,,,,,,,,,,,,,,,,,,,,,,,,"29.80","57","67","0.00",,,,"71","29.79","CLR:00","29.44","10.00","61","170",,"3",,,,,,,,,,,,,,,,,,,,,,,,,,,,,,,,,,,,,"MET09006/05/21 01:56:02 METAR KART 050656Z 17003KT 10SM CLR 19/14 A2980 RMK AO2 SLP088 T01940139","FM-15","7",,,,,,,,,,,,,,,,,,,,,,,,,,,,"2005-11-07"
"72622794790","2021-06-05T02:56:00","FM-15","7",,,,,,,,,,,,,,,,,,,,,,,,,,,,,,,,,,,,,,"29.78","58","68","0.00",,,,"70","29.77","CLR:00","29.42","10.00","62","200",,"7",,,,,,,,,,,,,,,,,,,,,,,,,,,,,,,,,,,,,"MET09006/05/21 02:56:02 METAR KART 050756Z 20006KT 10SM CLR 20/14 A2978 RMK AO2 SLP081 T02000144","FM-15","7",,,,,,,,,,,,,,,,,,,,,,,,,,,,"2005-11-07"
"72622794790","2021-06-05T03:56:00","FM-15","7",,,,,,,,,,,,,,,,,,,,,,,,,,,,,,,,,,,,,,"29.78","58","69","0.00",,"+0.04","6","68","29.77","CLR:00","29.42","10.00","62","200",,"9",,,,,,,,,,,,,,,,,,,,,,,,,,,,,,,,,,,,,"MET09606/05/21 03:56:02 METAR KART 050856Z 20008KT 10SM CLR 21/14 A2978 RMK AO2 SLP080 T02060144 56013","FM-15","7",,,,,,,,,,,,,,,,,,,,,,,,,,,,"2005-11-07"
"72622794790","2021-06-05T04:56:00","FM-15","7",,,,,,,,,,,,,,,,,,,,,,,,,,,,,,,,,,,,,,"29.79","58","69","0.00",,,,"68","29.77","FEW:02 110","29.44","10.00","62","210",,"10",,,,,,,,,,,,,,,,,,,,,,,,,,,,,,,,,,,,,"MET09306/05/21 04:56:02 METAR KART 050956Z 21009KT 10SM FEW110 21/14 A2979 RMK AO2 SLP082 T02060144","FM-15","7",,,,,,,,,,,,,,,,,,,,,,,,,,,,"2005-11-07"
"72622794790","2021-06-05T05:56:00","FM-15","7",,,,,,,,,,,,,,,,,,,,,,,,,,,,,,,,,,,,,,"29.78","59","71","0.00",,,,"66","29.77","CLR:00","29.42","10.00","64","210",,"11",,,,,,,,,,,,,,,,,,,,,,,,,,,,,,,,,,,,,"MET09006/05/21 05:56:02 METAR KART 051056Z 21010KT 10SM CLR 22/15 A2978 RMK AO2 SLP081 T02170150","FM-15","7",,,,,,,,,,,,,,,,,,,,,,,,,,,,"2005-11-07"
"72622794790","2021-06-05T06:56:00","FM-15","7",,,,,,,,,,,,,,,,,,,,,,,,,,,,,,,,,,,,,,"29.79","59","74","0.00",,"-0.01","3","60","29.78","SCT:04 85","29.44","10.00","65","220",,"17",,,,,,,,,,,,,,,,,,,,,,,,,,,,,,,,,,,,,"MET11106/05/21 06:56:02 METAR KART 051156Z 22015KT 10SM SCT085 23/15 A2979 RMK AO2 SLP084 T02330150 10233 20189 53005","FM-15","7",,,,,,,,,,,,,,,,,,,,,,,,,,,,"2005-11-07"
"72622794790","2021-06-05T07:56:00","FM-15","7",,,,,,,,,,,,,,,,,,,,,,,,,,,,,,,,,,,,,,"29.80","57","74","0.00",,,,"56","29.79","BKN:07 100","29.44","10.00","64","230","24","17",,,,,,,,,,,,,,,,,,,,,,,,,,,,,,,,,,,,,"MET09606/05/21 07:56:02 METAR KART 051256Z 23015G21KT 10SM BKN100 23/14 A2980 RMK AO2 SLP087 T02330139","FM-15","7",,,,,,,,,,,,,,,,,,,,,,,,,,,,"2005-11-07"
"72622794790","2021-06-05T08:56:00","FM-15","7",,,,,,,,,,,,,,,,,,,,,,,,,,,,,,,,,,,,,,"29.80","56","75","0.00",,,,"52","29.78","CLR:00","29.44","10.00","64","240","29","17",,,,,,,,,,,,,,,,,,,,,,,,,,,,,,,,,,,,,"MET11106/05/21 08:56:02 METAR KART 051356Z 24015G25KT 10SM CLR 24/13 A2980 RMK AO2 PK WND 22030/1321 SLP086 T02390133","FM-15","7",,,,,,,,,,,,,,,,,,,,,,,,,,,,"2005-11-07"
"72622794790","2021-06-05T09:56:00","FM-15","7",,,,,,,,,,,,,,,,,,,,,,,,,,,,,,,,,,,,,,"29.81","56","74","0.00",,"-0.02","3","54","29.80","CLR:00","29.45","10.00","63","230","28","18",,,,,,,,,,,,,,,,,,,,,,,,,,,,,,,,,,,,,"MET11706/05/21 09:56:02 METAR KART 051456Z 23016G24KT 10SM CLR 23/13 A2981 RMK AO2 PK WND 23026/1406 SLP090 T02330133 53006","FM-15","7",,,,,,,,,,,,,,,,,,,,,,,,,,,,"2005-11-07"
"72622794790","2021-06-05T10:56:00","FM-15","7",,,,,,,,,,,,,,,,,,,,,,,,,,,,,,,,,,,,,,"29.82","56","73","0.00",,,,"55","29.81","CLR:00","29.47","10.00","63","250","26","15",,,,,,,,,,,,,,,,,,,,,,,,,,,,,,,,,,,,,"MET11106/05/21 10:56:02 METAR KART 051556Z 25013G23KT 10SM CLR 23/13 A2982 RMK AO2 PK WND 23026/1507 SLP094 T02280133","FM-15","7",,,,,,,,,,,,,,,,,,,,,,,,,,,,"2005-11-07"
"72622794790","2021-06-05T11:56:00","FM-15","7",,,,,,,,,,,,,,,,,,,,,,,,,,,,,,,,,,,,,,"29.82","58","76","0.00",,,,"54","29.81","FEW:02 100","29.47","10.00","65","240","22","11",,,,,,,,,,,,,,,,,,,,,,,,,,,,,,,,,,,,,"MET11406/05/21 11:56:02 METAR KART 051656Z 24010G19KT 10SM FEW100 24/14 A2982 RMK AO2 PK WND 26026/1602 SLP094 T02440144","FM-15","7",,,,,,,,,,,,,,,,,,,,,,,,,,,,"2005-11-07"
"72622794790","2021-06-05T12:56:00","FM-15","7",,,,,,,,,,,,,,,,,,,,,,,,,,,,,,,,,,,,,,"29.82","57","75","0.00",,"-0.01","0","54","29.80","BKN:07 100","29.47","10.00","64","220","22","14",,,,,,,,,,,,,,,,,,,,,,,,,,,,,,,,,,,,,"MET11406/05/21 12:56:02 METAR KART 051756Z 22012G19KT 10SM BKN100 24/14 A2982 RMK AO2 SLP093 T02390139 10244 20228 50002","FM-15","7",,,,,,,,,,,,,,,,,,,,,,,,,,,,"2005-11-07"
"72622794790","2021-06-05T13:56:00","FM-15","7",,,,,,,,,,,,,,,,,,,,,,,,,,,,,,,,,,,,,,"29.83","58","75","0.00",,,,"55","29.81","OVC:08 100","29.47","10.00","65","230",,"14",,,,,,,,,,,,,,,,,,,,,,,,,,,,,,,,,,,,,"MET09306/05/21 13:56:02 METAR KART 051856Z 23012KT 10SM OVC100 24/14 A2983 RMK AO2 SLP096 T02390144","FM-15","7",,,,,,,,,,,,,,,,,,,,,,,,,,,,"2005-11-07"
"72622794790","2021-06-05T14:56:00","FM-15","7",,,,,,,,,,,,,,,,,,,,,,,,,,,,,,,,,,,,,,"29.83","57","73","0.00",,,,"57","29.82","OVC:08 100","29.47","10.00","63","240","20","9",,,,,,,,,,,,,,,,,,,,,,,,,,,,,,,,,,,,,"MET09606/05/21 14:56:02 METAR KART 051956Z 24008G17KT 10SM OVC100 23/14 A2983 RMK AO2 SLP097 T02280139","FM-15","7",,,,,,,,,,,,,,,,,,,,,,,,,,,,"2005-11-07"
"72622794790","2021-06-05T15:56:00","FM-15","7",,,,,,,,,,,,,,,,,,,,,,,,,,,,,,,,,,,,,,"29.84","60","77","0.00",,"-0.02","1","56","29.82","BKN:07 100","29.48","10.00","66","230",,"7",,,,,,,,,,,,,,,,,,,,,,,,,,,,,,,,,,,,,"MET09906/05/21 15:56:02 METAR KART 052056Z 23006KT 10SM BKN100 25/16 A2984 RMK AO2 SLP099 T02500156 51006","FM-15","7",,,,,,,,,,,,,,,,,,,,,,,,,,,,"2005-11-07"
"72622794790","2021-06-05T16:56:00","FM-15","7",,,,,,,,,,,,,,,,,,,,,,,,,,,,,,,,,,,,,,"29.83","58","74","0.00",,,,"57","29.82","BKN:07 100","29.47","10.00","64","220",,"8",,,,,,,,,,,,,,,,,,,,,,,,,,,,,,,,,,,,,"MET09306/05/21 16:56:02 METAR KART 052156Z 22007KT 10SM BKN100 23/14 A2983 RMK AO2 SLP098 T02330144","FM-15","7",,,,,,,,,,,,,,,,,,,,,,,,,,,,"2005-11-07"
"72622794790","2021-06-05T17:56:00","FM-15","7",,,,,,,,,,,,,,,,,,,,,,,,,,,,,,,,,,,,,,"29.85","55","73","0.00",,,,"53","29.83","SCT:04 110","29.49","10.00","62","230",,"8",,,,,,,,,,,,,,,,,,,,,,,,,,,,,,,,,,,,,"MET09306/05/21 17:56:02 METAR KART 052256Z 23007KT 10SM SCT110 23/13 A2985 RMK AO2 SLP103 T02280128","FM-15","7",,,,,,,,,,,,,,,,,,,,,,,,,,,,"2005-11-07"
"72622794790","2021-06-05T18:56:00","FM-15","7",,,,,,,,,,,,,,,,,,,,,,,,,,,,,,,,,,,,,,"29.87","54","70","0.00",,"-0.04","3","57","29.86","BKN:07 100","29.51","10.00","61","260",,"7",,,,,,,,,,,,,,,,,,,,,,,,,,,,,,,,,,,,,"MET11106/05/21 18:56:02 METAR KART 052356Z 26006KT 10SM BKN100 21/12 A2987 RMK AO2 SLP111 T02110122 10250 20211 53012","FM-15","7",,,,,,,,,,,,,,,,,,,,,,,,,,,,"2005-11-07"
"72622794790","2021-06-05T19:56:00","FM-15","7",,,,,,,,,,,,,,,,,,,,,,,,,,,,,,,,,,,,,,"29.88","53","69","0.00",,,,"57","29.87","OVC:08 100","29.52","10.00","60","220",,"8",,,,,,,,,,,,,,,,,,,,,,,,,,,,,,,,,,,,,"MET09306/05/21 19:56:01 METAR KART 060056Z 22007KT 10SM OVC100 21/12 A2988 RMK AO2 SLP114 T02060117","FM-15","7",,,,,,,,,,,,,,,,,,,,,,,,,,,,"2005-11-07"
"72622794790","2021-06-05T20:56:00","FM-15","7",,,,,,,,,,,,,,,,,,,,,,,,,,,,,,,,,,,,,,"29.90","52","67","0.00",,,,"59","29.88","FEW:02 100","29.54","10.00","59","200",,"8",,,,,,,,,,,,,,,,,,,,,,,,,,,,,,,,,,,,,"MET09306/05/21 20:56:01 METAR KART 060156Z 20007KT 10SM FEW100 19/11 A2990 RMK AO2 SLP119 T01940111","FM-15","7",,,,,,,,,,,,,,,,,,,,,,,,,,,,"2005-11-07"
"72622794790","2021-06-05T21:56:00","FM-15","7",,,,,,,,,,,,,,,,,,,,,,,,,,,,,,,,,,,,,,"29.90","52","68","0.00",,"-0.03","1","57","29.89","CLR:00","29.54","10.00","59","210",,"6",,,,,,,,,,,,,,,,,,,,,,,,,,,,,,,,,,,,,"MET09606/05/21 21:56:02 METAR KART 060256Z 21005KT 10SM CLR 20/11 A2990 RMK AO2 SLP121 T02000111 51010","FM-15","7",,,,,,,,,,,,,,,,,,,,,,,,,,,,"2005-11-07"
"72622794790","2021-06-05T22:56:00","FM-15","7",,,,,,,,,,,,,,,,,,,,,,,,,,,,,,,,,,,,,,"29.91","53","67","0.00",,,,"61","29.90","CLR:00","29.55","10.00","59","220",,"3",,,,,,,,,,,,,,,,,,,,,,,,,,,,,,,,,,,,,"MET09006/05/21 22:56:02 METAR KART 060356Z 22003KT 10SM CLR 19/12 A2991 RMK AO2 SLP125 T01940117","FM-15","7",,,,,,,,,,,,,,,,,,,,,,,,,,,,"2005-11-07"
"72622794790","2021-06-05T23:56:00","FM-15","7",,,,,,,,,,,,,,,,,,,,,,,,,,,,,,,,,,,,,,"29.92","54","66","0.00",,,,"65","29.91","CLR:00","29.56","10.00","59","200",,"3",,,,,,,,,,,,,,,,,,,,,,,,,,,,,,,,,,,,,"MET10006/05/21 23:56:02 METAR KART 060456Z 20003KT 10SM CLR 19/12 A2992 RMK AO2 SLP127 T01890122 402500183","FM-15","7",,,,,,,,,,,,,,,,,,,,,,,,,,,,"2005-11-07"
"72622794790","2021-06-05T23:59:00","SOD  ","6",,,,,,,,,,,,,,,,"71",,,"29.47",,"10.0","6","10.7","0","77","65","220","34","0.00",,,"230","25",,,,,,,,,,,,,,,,,,,,,,,,,,,,,,,,,,,,,,,,,,,,,,,,,,,,,,,,,"SOD69224 HR PRECIPITATION (IN): 0.00 24 HR MAX TEMP (F): 7724 HR MIN TEMP (F): 65AVERAGE STATION PRESSURE:29.465 MINIMUM SEA LEVEL PRESSURE:29.76 TIME OF OCCURRENCE:0545 PEAK WIND SPEED (MPH): 34 PEAK WIND DIR (DEG):220 PEAK WIND TIME (LST):      FASTEST 2MIN SPEED (MPH): 25FASTEST 2MIN DIR (DEG):230 FASTEST 2MIN TIME (LST):     AVERAGE WIND SPEED (MPH):10.0 24 HR AVG TEMP (F): 71DEPART FROM NORMAL: 10  HEATING DEGREE DAYS:  0 COOLING DEGREE DAYS:  6 LATEST DAY MAX TEMP (0700-1900 LST):77  LATEST NIGHT MIN TEMP(1900-0800 LST):66 HOURLY INCREMENTAL PRECIPITATION VALUES (IN):.00 0.00 0.00 0.00 0.00 0.00 0.00 0.00 0.00 0.00 0.00 0.00 0.00 0.00 0.00 0.00 0.00 0.00 0.00 0.00 0.00 0.00 0.00 0.00","SOD  ","6",,,,,,,,,,,,,,,,,,,,,,,,,"0423","1943",,"2005-11-07"
"72622794790","2021-06-06T00:56:00","FM-15","7",,,,,,,,,,,,,,,,,,,,,,,,,,,,,,,,,,,,,,"29.92","55","67","0.00",,"-0.02","1","66","29.91","CLR:00","29.56","10.00","60","210",,"6",,,,,,,,,,,,,,,,,,,,,,,,,,,,,,,,,,,,,"MET10806/06/21 00:56:02 METAR KART 060556Z 21005KT 10SM CLR 19/13 A2992 RMK AO2 SLP129 T01940128 10211 20183 51007","FM-15","7",,,,,,,,,,,,,,,,,,,,,,,,,,,,"2005-11-07"
"72622794790","2021-06-06T01:56:00","FM-15","7",,,,,,,,,,,,,,,,,,,,,,,,,,,,,,,,,,,,,,"29.92","56","68","0.00",,,,"65","29.91","CLR:00","29.56","10.00","61","260",,"6",,,,,,,,,,,,,,,,,,,,,,,,,,,,,,,,,,,,,"MET09006/06/21 01:56:02 METAR KART 060656Z 26005KT 10SM CLR 20/13 A2992 RMK AO2 SLP128 T02000133","FM-15","7",,,,,,,,,,,,,,,,,,,,,,,,,,,,"2005-11-07"
"72622794790","2021-06-06T02:56:00","FM-15","7",,,,,,,,,,,,,,,,,,,,,,,,,,,,,,,,,,,,,,"29.92","56","67","0.00",,,,"68","29.91","CLR:00","29.56","10.00","61","000",,"0",,,,,,,,,,,,,,,,,,,,,,,,,,,,,,,,,,,,,"MET09006/06/21 02:56:02 METAR KART 060756Z 00000KT 10SM CLR 19/13 A2992 RMK AO2 SLP128 T01940133","FM-15","7",,,,,,,,,,,,,,,,,,,,,,,,,,,,"2005-11-07"
"72622794790","2021-06-06T03:56:00","FM-15","7",,,,,,,,,,,,,,,,,,,,,,,,,,,,,,,,,,,,,,"29.93","56","68","0.00",,"-0.00","3","65","29.91","CLR:00","29.57","10.00","61","210",,"6",,,,,,,,,,,,,,,,,,,,,,,,,,,,,,,,,,,,,"MET09606/06/21 03:56:02 METAR KART 060856Z 21005KT 10SM CLR 20/13 A2993 RMK AO2 SLP130 T02000133 53001","FM-15","7",,,,,,,,,,,,,,,,,,,,,,,,,,,,"2005-11-07"
"72622794790","2021-06-06T04:56:00","FM-15","7",,,,,,,,,,,,,,,,,,,,,,,,,,,,,,,,,,,,,,"29.94","56","68","0.00",,,,"65","29.93","CLR:00","29.58","10.00","61","190",,"3",,,,,,,,,,,,,,,,,,,,,,,,,,,,,,,,,,,,,"MET09006/06/21 04:56:02 METAR KART 060956Z 19003KT 10SM CLR 20/13 A2994 RMK AO2 SLP135 T02000133","FM-15","7",,,,,,,,,,,,,,,,,,,,,,,,,,,,"2005-11-07"
"72622794790","2021-06-06T05:56:00","FM-15","7",,,,,,,,,,,,,,,,,,,,,,,,,,,,,,,,,,,,,,"29.95","58","72","0.00",,,,"61","29.94","CLR:00","29.59","10.00","64","220",,"7",,,,,,,,,,,,,,,,,,,,,,,,,,,,,,,,,,,,,"MET09006/06/21 05:56:02 METAR KART 061056Z 22006KT 10SM CLR 22/14 A2995 RMK AO2 SLP138 T02220144","FM-15","7",,,,,,,,,,,,,,,,,,,,,,,,,,,,"2005-11-07"
"72622794790","2021-06-06T06:56:00","FM-15","7",,,,,,,,,,,,,,,,,,,,,,,,,,,,,,,,,,,,,,"29.96","59","75","0.00",,"-0.03","1","58","29.94","CLR:00","29.60","10.00","65","220",,"13",,,,,,,,,,,,,,,,,,,,,,,,,,,,,,,,,,,,,"MET10806/06/21 06:56:02 METAR KART 061156Z 22011KT 10SM CLR 24/15 A2996 RMK AO2 SLP140 T02390150 10239 20183 51011","FM-15","7",,,,,,,,,,,,,,,,,,,,,,,,,,,,"2005-11-07"
"72622794790","2021-06-06T07:56:00","FM-15","7",,,,,,,,,,,,,,,,,,,,,,,,,,,,,,,,,,,,,,"29.97","59","77","0.00",,,,"54","29.95","CLR:00","29.61","10.00","66","230","21","14",,,,,,,,,,,,,,,,,,,,,,,,,,,,,,,,,,,,,"MET09306/06/21 07:56:02 METAR KART 061256Z 23012G18KT 10SM CLR 25/15 A2997 RMK AO2 SLP143 T02500150","FM-15","7",,,,,,,,,,,,,,,,,,,,,,,,,,,,"2005-11-07"
"72622794790","2021-06-06T08:56:00","FM-15","7",,,,,,,,,,,,,,,,,,,,,,,,,,,,,,,,,,,,,,"29.99","59","77","0.00",,,,"54","29.97","CLR:00","29.63","10.00","66","240","24","10",,,,,,,,,,,,,,,,,,,,,,,,,,,,,,,,,,,,,"MET09306/06/21 08:56:02 METAR KART 061356Z 24009G21KT 10SM CLR 25/15 A2999 RMK AO2 SLP150 T02500150","FM-15","7",,,,,,,,,,,,,,,,,,,,,,,,,,,,"2005-11-07"
"72622794790","2021-06-06T09:56:00","FM-15","7",,,,,,,,,,,,,,,,,,,,,,,,,,,,,,,,,,,,,,"29.99","59","79","0.00",,"-0.03","1","50","29.97","CLR:00","29.63","10.00","67","220","21","14",,,,,,,,,,,,,,,,,,,,,,,,,,,,,,,,,,,,,"MET09906/06/21 09:56:02 METAR KART 061456Z 22012G18KT 10SM CLR 26/15 A2999 RMK AO2 SLP149 T02610150 51009","FM-15","7",,,,,,,,,,,,,,,,,,,,,,,,,,,,"2005-11-07"
"72622794790","2021-06-06T10:56:00","FM-15","7",,,,,,,,,,,,,,,,,,,,,,,,,,,,,,,,,,,,,,"29.99","60","80","0.00",,,,"51","29.97","CLR:00","29.63","10.00","67","230",,"10",,,,,,,,,,,,,,,,,,,,,,,,,,,,,,,,,,,,,"MET09006/06/21 10:56:02 METAR KART 061556Z 23009KT 10SM CLR 27/16 A2999 RMK AO2 SLP149 T02670156","FM-15","7",,,,,,,,,,,,,,,,,,,,,,,,,,,,"2005-11-07"
"72622794790","2021-06-06T11:56:00","FM-15","7",,,,,,,,,,,,,,,,,,,,,,,,,,,,,,,,,,,,,,"29.99","61","82","0.00",,,,"49","29.97","CLR:00","29.63","10.00","69","260","21","14",,,,,,,,,,,,,,,,,,,,,,,,,,,,,,,,,,,,,"MET09306/06/21 11:56:02 METAR KART 061656Z 26012G18KT 10SM CLR 28/16 A2999 RMK AO2 SLP150 T02780161","FM-15","7",,,,,,,,,,,,,,,,,,,,,,,,,,,,"2005-11-07"
"72622794790","2021-06-06T12:56:00","FM-15","7",,,,,,,,,,,,,,,,,,,,,,,,,,,,,,,,,,,,,,"29.98","61","83","0.00",,"+0.01","8","48","29.96","CLR:00","29.62","10.00","69","210",,"11",,,,,,,,,,,,,,,,,,,,,,,,,,,,,,,,,,,,,"MET10806/06/21 12:56:02 METAR KART 061756Z 21010KT 10SM CLR 28/16 A2998 RMK AO2 SLP147 T02830161 10289 20239 58002","FM-15","7",,,,,,,,,,,,,,,,,,,,,,,,,,,,"2005-11-07"
"72622794790","2021-06-06T13:56:00","FM-15","7",,,,,,,,,,,,,,,,,,,,,,,,,,,,,,,,,,,,,,"29.97","62","86","0.00",,,,"45","29.96","CLR:00","29.61","10.00","70","240","20","11",,,,,,,,,,,,,,,,,,,,,,,,,,,,,,,,,,,,,"MET09306/06/21 13:56:02 METAR KART 061856Z 24010G17KT 10SM CLR 30/17 A2997 RMK AO2 SLP144 T03000167","FM-15","7",,,,,,,,,,,,,,,,,,,,,,,,,,,,"2005-11-07"
"72622794790","2021-06-06T14:56:00","FM-15","7",,,,,,,,,,,,,,,,,,,,,,,,,,,,,,,,,,,,,,"29.96","61","87","0.00",,,,"42","29.95","CLR:00","29.60","10.00","70","230","22","13",,,,,,,,,,,,,,,,,,,,,,,,,,,,,,,,,,,,,"MET09306/06/21 14:56:02 METAR KART 061956Z 23011G19KT 10SM CLR 31/16 A2996 RMK AO2 SLP141 T03060161","FM-15","7",,,,,,,,,,,,,,,,,,,,,,,,,,,,"2005-11-07"
"72622794790","2021-06-06T15:56:00","FM-15","7",,,,,,,,,,,,,,,,,,,,,,,,,,,,,,,,,,,,,,"29.95","61","86","0.00",,"+0.03","8","43","29.93","CLR:00","29.59","10.00","70","260","22","11",,,,,,,,,,,,,,,,,,,,,,,,,,,,,,,,,,,,,"MET09906/06/21 15:56:02 METAR KART 062056Z 26010G19KT 10SM CLR 30/16 A2995 RMK AO2 SLP137 T03000161 58010","FM-15","7",,,,,,,,,,,,,,,,,,,,,,,,,,,,"2005-11-07"
"72622794790","2021-06-06T16:56:00","FM-15","7",,,,,,,,,,,,,,,,,,,,,,,,,,,,,,,,,,,,,,"29.94","61","83","0.00",,,,"48","29.93","CLR:00","29.58","10.00","69","240",,"9",,,,,,,,,,,,,,,,,,,,,,,,,,,,,,,,,,,,,"MET09006/06/21 16:56:02 METAR KART 062156Z 24008KT 10SM CLR 28/16 A2994 RMK AO2 SLP134 T02830161","FM-15","7",,,,,,,,,,,,,,,,,,,,,,,,,,,,"2005-11-07"
"72622794790","2021-06-06T17:56:00","FM-15","7",,,,,,,,,,,,,,,,,,,,,,,,,,,,,,,,,,,,,,"29.94","60","81","0.00",,,,"49","29.93","CLR:00","29.58","10.00","68","240",,"8",,,,,,,,,,,,,,,,,,,,,,,,,,,,,,,,,,,,,"MET09006/06/21 17:56:02 METAR KART 062256Z 24007KT 10SM CLR 27/16 A2994 RMK AO2 SLP134 T02720156","FM-15","7",,,,,,,,,,,,,,,,,,,,,,,,,,,,"2005-11-07"
"72622794790","2021-06-06T18:56:00","FM-15","7",,,,,,,,,,,,,,,,,,,,,,,,,,,,,,,,,,,,,,"29.95","58","77","0.00",,"-0.00","3","52","29.93","CLR:00","29.59","10.00","65","240",,"6",,,,,,,,,,,,,,,,,,,,,,,,,,,,,,,,,,,,,"MET10806/06/21 18:56:02 METAR KART 062356Z 24005KT 10SM CLR 25/14 A2995 RMK AO2 SLP137 T02500144 10306 20250 53000","FM-15","7",,,,,,,,,,,,,,,,,,,,,,,,,,,,"2005-11-07"
"72622794790","2021-06-06T19:56:00","FM-15","7",,,,,,,,,,,,,,,,,,,,,,,,,,,,,,,,,,,,,,"29.96","59","73","0.00",,,,"62","29.94","CLR:00","29.60","10.00","64","000",,"0",,,,,,,,,,,,,,,,,,,,,,,,,,,,,,,,,,,,,"MET09006/06/21 19:56:01 METAR KART 070056Z 00000KT 10SM CLR 23/15 A2996 RMK AO2 SLP140 T02280150","FM-15","7",,,,,,,,,,,,,,,,,,,,,,,,,,,,"2005-11-07"
"72622794790","2021-06-06T20:56:00","FM-15","7",,,,,,,,,,,,,,,,,,,,,,,,,,,,,,,,,,,,,,"29.99","59","65","0.00",,,,"81","29.97","CLR:00","29.63","10.00","61","000",,"0",,,,,,,,,,,,,,,,,,,,,,,,,,,,,,,,,,,,,"MET09006/06/21 20:56:01 METAR KART 070156Z 00000KT 10SM CLR 18/15 A2999 RMK AO2 SLP150 T01830150","FM-15","7",,,,,,,,,,,,,,,,,,,,,,,,,,,,"2005-11-07"
"72622794790","2021-06-06T21:56:00","FM-15","7",,,,,,,,,,,,,,,,,,,,,,,,,,,,,,,,,,,,,,"30.00","58","65","0.00",,"-0.05","3","78","29.99","CLR:00","29.64","10.00","61","000",,"0",,,,,,,,,,,,,,,,,,,,,,,,,,,,,,,,,,,,,"MET09606/06/21 21:56:01 METAR KART 070256Z 00000KT 10SM CLR 18/14 A3000 RMK AO2 SLP155 T01830144 53016","FM-15","7",,,,,,,,,,,,,,,,,,,,,,,,,,,,"2005-11-07"
"72622794790","2021-06-06T22:56:00","FM-15","7",,,,,,,,,,,,,,,,,,,,,,,,,,,,,,,,,,,,,,"30.00","58","69","0.00",,,,"68","29.98","CLR:00","29.64","10.00","62","200",,"3",,,,,,,,,,,,,,,,,,,,,,,,,,,,,,,,,,,,,"MET09006/06/21 22:56:02 METAR KART 070356Z 20003KT 10SM CLR 21/14 A3000 RMK AO2 SLP154 T02060144","FM-15","7",,,,,,,,,,,,,,,,,,,,,,,,,,,,"2005-11-07"
"72622794790","2021-06-06T23:56:00","FM-15","7",,,,,,,,,,,,,,,,,,,,,,,,,,,,,,,,,,,,,,"29.99","58","69","0.00",,,,"68","29.97","CLR:00","29.63","10.00","62","000",,"0",,,,,,,,,,,,,,,,,,,,,,,,,,,,,,,,,,,,,"MET10006/06/21 23:56:02 METAR KART 070456Z 00000KT 10SM CLR 21/14 A2999 RMK AO2 SLP150 T02060144 403060178","FM-15","7",,,,,,,,,,,,,,,,,,,,,,,,,,,,"2005-11-07"
"72622794790","2021-06-06T23:59:00","SOD  ","6",,,,,,,,,,,,,,,,"76",,,"29.59",,"7.3","11","15.4","0","87","64","220","25","0.00",,,"220","17",,,,,,,,,,,,,,,,,,,,,,,,,,,,,,,,,,,,,,,,,,,,,,,,,,,,,,,,,"SOD69224 HR PRECIPITATION (IN): 0.00 24 HR MAX TEMP (F): 8724 HR MIN TEMP (F): 64AVERAGE STATION PRESSURE:29.590 MINIMUM SEA LEVEL PRESSURE:29.90 TIME OF OCCURRENCE:0002 PEAK WIND SPEED (MPH): 25 PEAK WIND DIR (DEG):220 PEAK WIND TIME (LST):      FASTEST 2MIN SPEED (MPH): 17FASTEST 2MIN DIR (DEG):220 FASTEST 2MIN TIME (LST):     AVERAGE WIND SPEED (MPH): 7.3 24 HR AVG TEMP (F): 76DEPART FROM NORMAL: 15  HEATING DEGREE DAYS:  0 COOLING DEGREE DAYS: 11 LATEST DAY MAX TEMP (0700-1900 LST):87  LATEST NIGHT MIN TEMP(1900-0800 LST):65 HOURLY INCREMENTAL PRECIPITATION VALUES (IN):.00 0.00 0.00 0.00 0.00 0.00 0.00 0.00 0.00 0.00 0.00 0.00 0.00 0.00 0.00 0.00 0.00 0.00 0.00 0.00 0.00 0.00 0.00 0.00","SOD  ","6",,,,,,,,,,,,,,,,,,,,,,,,,"0422","1944",,"2005-11-07"
"72622794790","2021-06-07T00:56:00","FM-15","7",,,,,,,,,,,,,,,,,,,,,,,,,,,,,,,,,,,,,,"29.98","58","70","0.00",,"+0.02","8","66","29.96","CLR:00","29.62","10.00","63","190",,"3",,,,,,,,,,,,,,,,,,,,,,,,,,,,,,,,,,,,,"MET10806/07/21 00:56:02 METAR KART 070556Z 19003KT 10SM CLR 21/14 A2998 RMK AO2 SLP147 T02110144 10250 20178 58006","FM-15","7",,,,,,,,,,,,,,,,,,,,,,,,,,,,"2005-11-07"
"72622794790","2021-06-07T01:56:00","FM-15","7",,,,,,,,,,,,,,,,,,,,,,,,,,,,,,,,,,,,,,"29.99","58","68","0.00",,,,"70","29.97","CLR:00","29.63","10.00","62","200",,"5",,,,,,,,,,,,,,,,,,,,,,,,,,,,,,,,,,,,,"MET09006/07/21 01:56:02 METAR KART 070656Z 20004KT 10SM CLR 20/14 A2999 RMK AO2 SLP148 T02000144","FM-15","7",,,,,,,,,,,,,,,,,,,,,,,,,,,,"2005-11-07"
"72622794790","2021-06-07T02:56:00","FM-15","7",,,,,,,,,,,,,,,,,,,,,,,,,,,,,,,,,,,,,,"29.99","59","71","0.00",,,,"66","29.97","CLR:00","29.63","10.00","64","190",,"5",,,,,,,,,,,,,,,,,,,,,,,,,,,,,,,,,,,,,"MET09006/07/21 02:56:02 METAR KART 070756Z 19004KT 10SM CLR 22/15 A2999 RMK AO2 SLP149 T02170150","FM-15","7",,,,,,,,,,,,,,,,,,,,,,,,,,,,"2005-11-07"
"72622794790","2021-06-07T03:56:00","FM-15","7",,,,,,,,,,,,,,,,,,,,,,,,,,,,,,,,,,,,,,"29.99","59","71","0.00",,"-0.01","1","66","29.97","CLR:00","29.63","10.00","64","190",,"3",,,,,,,,,,,,,,,,,,,,,,,,,,,,,,,,,,,,,"MET09606/07/21 03:56:02 METAR KART 070856Z 19003KT 10SM CLR 22/15 A2999 RMK AO2 SLP149 T02170150 51003","FM-15","7",,,,,,,,,,,,,,,,,,,,,,,,,,,,"2005-11-07"
"72622794790","2021-06-07T04:56:00","FM-15","7",,,,,,,,,,,,,,,,,,,,,,,,,,,,,,,,,,,,,,"30.00","59","68","0.00",,,,"73","29.98","CLR:00","29.64","10.00","63","000",,"0",,,,,,,,,,,,,,,,,,,,,,,,,,,,,,,,,,,,,"MET09006/07/21 04:56:02 METAR KART 070956Z 00000KT 10SM CLR 20/15 A3000 RMK AO2 SLP154 T02000150","FM-15","7",,,,,,,,,,,,,,,,,,,,,,,,,,,,"2005-11-07"
"72622794790","2021-06-07T05:56:00","FM-15","7",,,,,,,,,,,,,,,,,,,,,,,,,,,,,,,,,,,,,,"30.02","61","72","0.00",,,,"68","30.00","CLR:00","29.66","10.00","65","000",,"0",,,,,,,,,,,,,,,,,,,,,,,,,,,,,,,,,,,,,"MET09006/07/21 05:56:02 METAR KART 071056Z 00000KT 10SM CLR 22/16 A3002 RMK AO2 SLP159 T02220161","FM-15","7",,,,,,,,,,,,,,,,,,,,,,,,,,,,"2005-11-07"
"72622794790","2021-06-07T06:56:00","FM-15","7",,,,,,,,,,,,,,,,,,,,,,,,,,,,,,,,,,,,,,"30.02","62","77","0.00",,"-0.03","1","60","30.01","CLR:00","29.66","10.00","68","220",,"8",,,,,,,,,,,,,,,,,,,,,,,,,,,,,,,,,,,,,"MET10806/07/21 06:56:02 METAR KART 071156Z 22007KT 10SM CLR 25/17 A3002 RMK AO2 SLP161 T02500167 10250 20183 51010","FM-15","7",,,,,,,,,,,,,,,,,,,,,,,,,,,,"2005-11-07"
"72622794790","2021-06-07T07:56:00","FM-15","7",,,,,,,,,,,,,,,,,,,,,,,,,,,,,,,,,,,,,,"30.03","63","80","0.00",,,,"56","30.01","CLR:00","29.67","10.00","69","240",,"7",,,,,,,,,,,,,,,,,,,,,,,,,,,,,,,,,,,,,"MET09006/07/21 07:56:02 METAR KART 071256Z 24006KT 10SM CLR 27/17 A3003 RMK AO2 SLP163 T02670172","FM-15","7",,,,,,,,,,,,,,,,,,,,,,,,,,,,"2005-11-07"
"72622794790","2021-06-07T08:56:00","FM-15","7",,,,,,,,,,,,,,,,,,,,,,,,,,,,,,,,,,,,,,"30.03","63","82","0.00",,,,"53","30.01","FEW:02 70 SCT:04 80","29.67","10.00","70","250",,"9",,,,,,,,,,,,,,,,,,,,,,,,,,,,,,,,,,,,,"MET10006/07/21 08:56:02 METAR KART 071356Z 25008KT 10SM FEW070 SCT080 28/17 A3003 RMK AO2 SLP163 T02780172","FM-15","7",,,,,,,,,,,,,,,,,,,,,,,,,,,,"2005-11-07"
"72622794790","2021-06-07T09:56:00","FM-15","7",,,,,,,,,,,,,,,,,,,,,,,,,,,,,,,,,,,,,,"30.02","64","83","0.00",,"-0.00","0","53","30.01","SCT:04 65","29.66","10.00","71","250",,"10",,,,,,,,,,,,,,,,,,,,,,,,,,,,,,,,,,,,,"MET09906/07/21 09:56:02 METAR KART 071456Z 25009KT 10SM SCT065 28/18 A3002 RMK AO2 SLP161 T02830178 50000","FM-15","7",,,,,,,,,,,,,,,,,,,,,,,,,,,,"2005-11-07"
"72622794790","2021-06-07T10:56:00","FM-15","7",,,,,,,,,,,,,,,,,,,,,,,,,,,,,,,,,,,,,,"30.02","65","85","0.00",,,,"51","30.01","CLR:00","29.66","10.00","72","230",,"9",,,,,,,,,,,,,,,,,,,,,,,,,,,,,,,,,,,,,"MET09006/07/21 10:56:02 METAR KART 071556Z 23008KT 10SM CLR 29/18 A3002 RMK AO2 SLP161 T02940183","FM-15","7",,,,,,,,,,,,,,,,,,,,,,,,,,,,"2005-11-07"
"72622794790","2021-06-07T11:56:00","FM-15","7",,,,,,,,,,,,,,,,,,,,,,,,,,,,,,,,,,,,,,"30.02","66","85","0.00",,,,"53","30.00","CLR:00","29.66","10.00","72","260",,"10",,,,,,,,,,,,,,,,,,,,,,,,,,,,,,,,,,,,,"MET09006/07/21 11:56:02 METAR KART 071656Z 26009KT 10SM CLR 29/19 A3002 RMK AO2 SLP159 T02940189","FM-15","7",,,,,,,,,,,,,,,,,,,,,,,,,,,,"2005-11-07"
"72622794790","2021-06-07T12:56:00","FM-15","7",,,,,,,,,,,,,,,,,,,,,,,,,,,,,,,,,,,,,,"30.00","65","85","0.00",,"+0.02","8","51","29.98","CLR:00","29.64","10.00","72","260",,"14",,,,,,,,,,,,,,,,,,,,,,,,,,,,,,,,,,,,,"MET10806/07/21 12:56:02 METAR KART 071756Z 26012KT 10SM CLR 29/18 A3000 RMK AO2 SLP154 T02940183 10300 20250 58006","FM-15","7",,,,,,,,,,,,,,,,,,,,,,,,,,,,"2005-11-07"
"72622794790","2021-06-07T13:56:00","FM-15","7",,,,,,,,,,,,,,,,,,,,,,,,,,,,,,,,,,,,,,"29.99","65","85","0.00",,,,"51","29.97","CLR:00","29.63","10.00","72","260",,"10",,,,,,,,,,,,,,,,,,,,,,,,,,,,,,,,,,,,,"MET09006/07/21 13:56:02 METAR KART 071856Z 26009KT 10SM CLR 29/18 A2999 RMK AO2 SLP149 T02940183","FM-15","7",,,,,,,,,,,,,,,,,,,,,,,,,,,,"2005-11-07"
"72622794790","2021-06-07T14:56:00","FM-15","7",,,,,,,,,,,,,,,,,,,,,,,,,,,,,,,,,,,,,,"29.97","67","86","0.00",,,,"53","29.95","CLR:00","29.61","10.00","73","250",,"8",,,,,,,,,,,,,,,,,,,,,,,,,,,,,,,,,,,,,"MET09006/07/21 14:56:02 METAR KART 071956Z 25007KT 10SM CLR 30/19 A2997 RMK AO2 SLP143 T03000194","FM-15","7",,,,,,,,,,,,,,,,,,,,,,,,,,,,"2005-11-07"
"72622794790","2021-06-07T15:56:00","FM-15","7",,,,,,,,,,,,,,,,,,,,,,,,,,,,,,,,,,,,,,"29.97","67","85","0.00",,"+0.04","6","55","29.94","CLR:00","29.61","10.00","73","250",,"8",,,,,,,,,,,,,,,,,,,,,,,,,,,,,,,,,,,,,"MET09606/07/21 15:56:02 METAR KART 072056Z 25007KT 10SM CLR 29/19 A2997 RMK AO2 SLP140 T02940194 56013","FM-15","7",,,,,,,,,,,,,,,,,,,,,,,,,,,,"2005-11-07"
"72622794790","2021-06-07T16:56:00","FM-15","7",,,,,,,,,,,,,,,,,,,,,,,,,,,,,,,,,,,,,,"29.95","68","86","0.00",,,,"55","29.94","CLR:00","29.59","10.00","74","230",,"10",,,,,,,,,,,,,,,,,,,,,,,,,,,,,,,,,,,,,"MET09006/07/21 16:56:02 METAR KART 072156Z 23009KT 10SM CLR 30/20 A2995 RMK AO2 SLP138 T03000200","FM-15","7",,,,,,,,,,,,,,,,,,,,,,,,,,,,"2005-11-07"
"72622794790","2021-06-07T17:56:00","FM-15","7",,,,,,,,,,,,,,,,,,,,,,,,,,,,,,,,,,,,,,"29.96","69","81","0.00",,,,"67","29.94","CLR:00","29.60","10.00","73","220",,"6",,,,,,,,,,,,,,,,,,,,,,,,,,,,,,,,,,,,,"MET09006/07/21 17:56:02 METAR KART 072256Z 22005KT 10SM CLR 27/21 A2996 RMK AO2 SLP138 T02720206","FM-15","7",,,,,,,,,,,,,,,,,,,,,,,,,,,,"2005-11-07"
"72622794790","2021-06-07T18:56:00","FM-15","7",,,,,,,,,,,,,,,,,,,,,,,,,,,,,,,,,,,,,,"29.96","68","81","0.00",,"+0.00","5","65","29.94","CLR:00","29.60","10.00","72","220",,"7",,,,,,,,,,,,,,,,,,,,,,,,,,,,,,,,,,,,,"MET10806/07/21 18:56:02 METAR KART 072356Z 22006KT 10SM CLR 27/20 A2996 RMK AO2 SLP140 T02720200 10306 20267 55000","FM-15","7",,,,,,,,,,,,,,,,,,,,,,,,,,,,"2005-11-07"
"72622794790","2021-06-07T19:56:00","FM-15","7",,,,,,,,,,,,,,,,,,,,,,,,,,,,,,,,,,,,,,"29.96","67","77","0.00",,,,"71","29.94","CLR:00","29.60","10.00","70","240",,"3",,,,,,,,,,,,,,,,,,,,,,,,,,,,,,,,,,,,,"MET09006/07/21 19:56:01 METAR KART 080056Z 24003KT 10SM CLR 25/19 A2996 RMK AO2 SLP140 T02500194","FM-15","7",,,,,,,,,,,,,,,,,,,,,,,,,,,,"2005-11-07"
"72622794790","2021-06-07T20:56:00","FM-15","7",,,,,,,,,,,,,,,,,,,,,,,,,,,,,,,,,,,,,,"29.98","68","76","0.00",,,,"77","29.96","CLR:00","29.62","10.00","71","200",,"6",,,,,,,,,,,,,,,,,,,,,,,,,,,,,,,,,,,,,"MET09006/07/21 20:56:01 METAR KART 080156Z 20005KT 10SM CLR 24/20 A2998 RMK AO2 SLP144 T02440200","FM-15","7",,,,,,,,,,,,,,,,,,,,,,,,,,,,"2005-11-07"
"72622794790","2021-06-07T21:56:00","FM-15","7",,,,,,,,,,,,,,,,,,,,,,,,,,,,,,,,,,,,,,"29.98","69","75","0.00",,"-0.02","3","82","29.96","CLR:00","29.62","10.00","71","000",,"0",,,,,,,,,,,,,,,,,,,,,,,,,,,,,,,,,,,,,"MET09606/07/21 21:56:02 METAR KART 080256Z 00000KT 10SM CLR 24/21 A2998 RMK AO2 SLP147 T02390206 53006","FM-15","7",,,,,,,,,,,,,,,,,,,,,,,,,,,,"2005-11-07"
"72622794790","2021-06-07T22:56:00","FM-15","7",,,,,,,,,,,,,,,,,,,,,,,,,,,,,,,,,,,,,,"29.98","68","75","0.00",,,,"79","29.96","CLR:00","29.62","10.00","70","290",,"3",,,,,,,,,,,,,,,,,,,,,,,,,,,,,,,,,,,,,"MET09006/07/21 22:56:02 METAR KART 080356Z 29003KT 10SM CLR 24/20 A2998 RMK AO2 SLP147 T02390200","FM-15","7",,,,,,,,,,,,,,,,,,,,,,,,,,,,"2005-11-07"
"72622794790","2021-06-07T23:56:00","FM-15","7",,,,,,,,,,,,,,,,,,,,,,,,,,,,,,,,,,,,,,"29.99","64","76","0.00",,,,"67","29.97","CLR:00","29.63","10.00","68","220",,"7",,,,,,,,,,,,,,,,,,,,,,,,,,,,,,,,,,,,,"MET10006/07/21 23:56:02 METAR KART 080456Z 22006KT 10SM CLR 24/18 A2999 RMK AO2 SLP149 T02440178 403060183","FM-15","7",,,,,,,,,,,,,,,,,,,,,,,,,,,,"2005-11-07"
"72622794790","2021-06-07T23:59:00","SOD  ","6",,,,,,,,,,,,,,,,"76",,,"29.63",,"6.4","11","15.1","0","87","65","260","21","0.00",,,"270","16",,,,,,,,,,,,,,,,,,,,,,,,,,,,,,,,,,,,,,,,,,,,,,,,,,,,,,,,,"SOD69224 HR PRECIPITATION (IN): 0.00 24 HR MAX TEMP (F): 8724 HR MIN TEMP (F): 65AVERAGE STATION PRESSURE:29.630 MINIMUM SEA LEVEL PRESSURE:29.93 TIME OF OCCURRENCE:1820 PEAK WIND SPEED (MPH): 21 PEAK WIND DIR (DEG):260 PEAK WIND TIME (LST):      FASTEST 2MIN SPEED (MPH): 16FASTEST 2MIN DIR (DEG):270 FASTEST 2MIN TIME (LST):     AVERAGE WIND SPEED (MPH): 6.4 24 HR AVG TEMP (F): 76DEPART FROM NORMAL: 14  HEATING DEGREE DAYS:  0 COOLING DEGREE DAYS: 11 LATEST DAY MAX TEMP (0700-1900 LST):87  LATEST NIGHT MIN TEMP(1900-0800 LST):64 HOURLY INCREMENTAL PRECIPITATION VALUES (IN):.00 0.00 0.00 0.00 0.00 0.00 0.00 0.00 0.00 0.00 0.00 0.00 0.00 0.00 0.00 0.00 0.00 0.00 0.00 0.00 0.00 0.00 0.00 0.00","SOD  ","6",,,,,,,,,,,,,,,,,,,,,,,,,"0422","1944",,"2005-11-07"
"72622794790","2021-06-08T00:56:00","FM-15","7",,,,,,,,,,,,,,,,,,,,,,,,,,,,,,,,,,,,,,"30.00","64","74","0.00",,"-0.01","3","71","29.97","CLR:00","29.64","10.00","68","220",,"5",,,,,,,,,,,,,,,,,,,,,,,,,,,,,,,,,,,,,"MET10806/08/21 00:56:02 METAR KART 080556Z 22004KT 10SM CLR 23/18 A3000 RMK AO2 SLP150 T02330178 10272 20233 53004","FM-15","7",,,,,,,,,,,,,,,,,,,,,,,,,,,,"2005-11-07"
"72622794790","2021-06-08T01:56:00","FM-15","7",,,,,,,,,,,,,,,,,,,,,,,,,,,,,,,,,,,,,,"30.00","63","73","0.00",,,,"71","29.98","CLR:00","29.64","10.00","67","220",,"5",,,,,,,,,,,,,,,,,,,,,,,,,,,,,,,,,,,,,"MET09006/08/21 01:56:02 METAR KART 080656Z 22004KT 10SM CLR 23/17 A3000 RMK AO2 SLP151 T02280172","FM-15","7",,,,,,,,,,,,,,,,,,,,,,,,,,,,"2005-11-07"
"72622794790","2021-06-08T02:56:00","FM-15","7",,,,,,,,,,,,,,,,,,,,,,,,,,,,,,,,,,,,,,"30.00","63","72","0.00",,,,"73","29.98","FEW:02 110","29.64","10.00","66","220",,"7",,,,,,,,,,,,,,,,,,,,,,,,,,,,,,,,,,,,,"MET09306/08/21 02:56:02 METAR KART 080756Z 22006KT 10SM FEW110 22/17 A3000 RMK AO2 SLP152 T02220172","FM-15","7",,,,,,,,,,,,,,,,,,,,,,,,,,,,"2005-11-07"
"72622794790","2021-06-08T03:56:00","FM-15","7",,,,,,,,,,,,,,,,,,,,,,,,,,,,,,,,,,,,,,"30.01","63","72","T",,"-0.01","3","73","29.99","FEW:02 120","29.65","10.00","66","210",,"6",,,,,,,,,,,,,,,,,,,,,,,,,,,,,,,,,,,,,"MET12006/08/21 03:56:02 METAR KART 080856Z 21005KT 10SM FEW120 22/17 A3001 RMK AO2 RAB36E46 SLP156 P0000 60000 T02220172 53005","FM-15","7",,,,,,,,,,,,,,,,,,,,,,,,,,,,"2005-11-07"
"72622794790","2021-06-08T04:56:00","FM-15","7",,,,,,,,,,,,,,,,,,,,,,,,,,,,,,,,,,,,,,"30.03","63","72","T",,,,"73","30.01","FEW:02 60 BKN:07 110","29.67","10.00","66","240",,"11",,,,,,,,,,,,,,,,,,,,,,,,,,,,,,,,,,,,,"MET11506/08/21 04:56:02 METAR KART 080956Z 24010KT 10SM FEW060 BKN110 22/17 A3003 RMK AO2 RAB12E30 SLP164 P0000 T02220172","FM-15","7",,,,,,,,,,,,,,,,,,,,,,,,,,,,"2005-11-07"
"72622794790","2021-06-08T05:35:00","FM-16","7",,,,,,,,,,,,,,,,,,,,,,,,,,,,,,,,,,,,,,"30.05","65","68","0.02","RA:02 BR:1 |RA |RA",,,"90",,"SCT:04 8 BKN:07 110","29.69","4.00","66","230",,"10",,,,,,,,,,,,,,,,,,,,,,,,,,,,,,,,,,,,,"MET11006/08/21 05:35:02 SPECI KART 081035Z 23009KT 4SM RA BR SCT008 BKN110 20/18 A3005 RMK AO2 RAB15 P0002 T02000183","FM-16","7",,,,,,,,,,,,,,,,,,,,,,,,,,,,"2005-11-07"
"72622794790","2021-06-08T05:56:00","FM-15","7",,,,,,,,,,,,,,,,,,,,,,,,,,,,,,,,,,,,,,"30.05","66","68","0.09","RA:02 BR:1 |RA |RA",,,"93","30.03","FEW:02 9 SCT:04 60 OVC:08 110","29.69","2.50","67","230",,"10",,,,,,,,,,,,,,,,,,,,,,,,,,,,,,,,,,,,,"MET12806/08/21 05:56:02 METAR KART 081056Z 23009KT 2 1/2SM RA BR FEW009 SCT060 OVC110 20/19 A3005 RMK AO2 RAB15 SLP170 P0009 T02000189","FM-15","7",,,,,,,,,,,,,,,,,,,,,,,,,,,,"2005-11-07"
"72622794790","2021-06-08T06:03:00","FM-16","7",,,,,,,,,,,,,,,,,,,,,,,,,,,,,,,,,,,,,,"30.05","66","68","0.01","-RA:02 BR:1 |RA |RA",,,"93",,"FEW:02 7 SCT:04 90 BKN:07 110","29.69","4.00","67","220",,"8",,,,,,,,,,,,,,,,,,,,,,,,,,,,,,,,,,,,,"MET11206/08/21 06:03:02 SPECI KART 081103Z 22007KT 4SM -RA BR FEW007 SCT090 BKN110 20/19 A3005 RMK AO2 P0001 T02000189","FM-16","7",,,,,,,,,,,,,,,,,,,,,,,,,,,,"2005-11-07"
"72622794790","2021-06-08T06:16:00","FM-16","7",,,,,,,,,,,,,,,,,,,,,,,,,,,,,,,,,,,,,,"30.05","66","68","0.06","RA:02 BR:1 |RA |RA",,,"93",,"SCT:04 95 OVC:08 110","29.69","2.50","67","210",,"7",,,,,,,,,,,,,,,,,,,,,,,,,,,,,,,,,,,,,"MET10806/08/21 06:16:02 SPECI KART 081116Z 21006KT 2 1/2SM RA BR SCT095 OVC110 20/19 A3005 RMK AO2 P0006 T02000189","FM-16","7",,,,,,,,,,,,,,,,,,,,,,,,,,,,"2005-11-07"
"72622794790","2021-06-08T06:33:00","FM-16","7",,,,,,,,,,,,,,,,,,,,,,,,,,,,,,,,,,,,,,"30.05","67","68","0.09","-RA:02 BR:1 |RA |RA",,,"96",,"FEW:02 8 BKN:07 100 OVC:08 110","29.69","3.00","67","230",,"6",,,,,,,,,,,,,,,,,,,,,,,,,,,,,,,,,,,,,"MET11206/08/21 06:33:02 SPECI KART 081133Z 23005KT 3SM -RA BR FEW008 BKN100 OVC110 20/19 A3005 RMK AO2 P0009 T02000194","FM-16","7",,,,,,,,,,,,,,,,,,,,,,,,,,,,"2005-11-07"
"72622794790","2021-06-08T06:56:00","FM-15","7",,,,,,,,,,,,,,,,,,,,,,,,,,,,,,,,,,,,,,"30.06","68","69","0.10","-RA:02 |RA |RA","-0.05","1","96","30.04","FEW:02 5 SCT:04 60 BKN:07 110","29.70","10.00","68","210",,"6",,,,,,,,,,,,,,,,,,,,,,,,,,,,,,,,,,,,,"MET14706/08/21 06:56:02 METAR KART 081156Z 21005KT 10SM -RA FEW005 SCT060 BKN110 21/20 A3006 RMK AO2 SLP173 P0010 60019 70019 T02060200 10233 20200 51016","FM-15","7",,,,,,,,,,,,,,,,,,,,,,,,,,,,"2005-11-07"
"72622794790","2021-06-08T07:56:00","FM-15","7",,,,,,,,,,,,,,,,,,,,,,,,,,,,,,,,,,,,,,"30.06","68","70","T","-RA:02 |RA |RA",,,"93","30.04","SCT:04 6 OVC:08 110","29.70","10.00","69","200",,"5",,,,,,,,,,,,,,,,,,,,,,,,,,,,,,,,,,,,,"MET11906/08/21 07:56:02 METAR KART 081256Z 20004KT 10SM -RA SCT006 OVC110 21/20 A3006 RMK AO2 RAE26B55 SLP172 P0000 T02110200","FM-15","7",,,,,,,,,,,,,,,,,,,,,,,,,,,,"2005-11-07"
"72622794790","2021-06-08T08:06:00","FM-16","7",,,,,,,,,,,,,,,,,,,,,,,,,,,,,,,,,,,,,,"30.05","68","70","T","-RA:02 |RA |RA",,,"93",,"BKN:07 6 BKN:07 49 OVC:08 110","29.69","10.00","69","200",,"3",,,,,,,,,,,,,,,,,,,,,,,,,,,,,,,,,,,,,"MET11006/08/21 08:06:02 SPECI KART 081306Z 20003KT 10SM -RA BKN006 BKN049 OVC110 21/20 A3005 RMK AO2 P0000 T02110200","FM-16","7",,,,,,,,,,,,,,,,,,,,,,,,,,,,"2005-11-07"
"72622794790","2021-06-08T08:16:00","FM-16","7",,,,,,,,,,,,,,,,,,,,,,,,,,,,,,,,,,,,,,"30.05","68","70","T","-RA:02 |RA |RA",,,"93",,"SCT:04 6 SCT:04 46 OVC:08 110","29.69","10.00","69","000",,"0",,,,,,,,,,,,,,,,,,,,,,,,,,,,,,,,,,,,,"MET11006/08/21 08:16:02 SPECI KART 081316Z 00000KT 10SM -RA SCT006 SCT046 OVC110 21/20 A3005 RMK AO2 P0000 T02110200","FM-16","7",,,,,,,,,,,,,,,,,,,,,,,,,,,,"2005-11-07"
"72622794790","2021-06-08T08:56:00","FM-15","7",,,,,,,,,,,,,,,,,,,,,,,,,,,,,,,,,,,,,,"30.05","68","72","T",,,,"87","30.03","FEW:02 6 SCT:04 50 BKN:07 110","29.69","10.00","69","210",,"3",,,,,,,,,,,,,,,,,,,,,,,,,,,,,,,,,,,,,"MET11906/08/21 08:56:02 METAR KART 081356Z 21003KT 10SM FEW006 SCT050 BKN110 22/20 A3005 RMK AO2 RAE48 SLP170 P0000 T02220200","FM-15","7",,,,,,,,,,,,,,,,,,,,,,,,,,,,"2005-11-07"
"72622794790","2021-06-08T09:16:00","FM-16","7",,,,,,,,,,,,,,,,,,,,,,,,,,,,,,,,,,,,,,"30.06","69","72",,,,,"91",,"BKN:07 8 BKN:07 14 BKN:07 110","29.70","10.00","70","260",,"9",,,,,,,,,,,,,,,,,,,,,,,,,,,,,,,,,,,,,"MET11206/08/21 09:16:02 SPECI KART 081416Z 26008KT 10SM BKN008 BKN014 BKN110 22/21 A3006 RMK AO2 CIG 005V012 T02220206","FM-16","7",,,,,,,,,,,,,,,,,,,,,,,,,,,,"2005-11-07"
"72622794790","2021-06-08T09:56:00","FM-15","7",,,,,,,,,,,,,,,,,,,,,,,,,,,,,,,,,,,,,,"30.07","68","72","T","-RA:02 |RA |RA","-0.01","3","87","30.05","OVC:08 8","29.71","10.00","69","250",,"9",,,,,,,,,,,,,,,,,,,,,,,,,,,,,,,,,,,,,"MET12106/08/21 09:56:02 METAR KART 081456Z 25008KT 10SM -RA OVC008 22/20 A3007 RMK AO2 RAB56 SLP175 P0000 60000 T02220200 53002","FM-15","7",,,,,,,,,,,,,,,,,,,,,,,,,,,,"2005-11-07"
"72622794790","2021-06-08T10:56:00","FM-15","7",,,,,,,,,,,,,,,,,,,,,,,,,,,,,,,,,,,,,,"30.07","68","72","T",,,,"87","30.06","OVC:08 5","29.71","10.00","69","250",,"10",,,,,,,,,,,,,,,,,,,,,,,,,,,,,,,,,,,,,"MET10506/08/21 10:56:02 METAR KART 081556Z 25009KT 10SM OVC005 22/20 A3007 RMK AO2 RAE09 SLP178 P0000 T02220200","FM-15","7",,,,,,,,,,,,,,,,,,,,,,,,,,,,"2005-11-07"
"72622794790","2021-06-08T11:25:00","FM-16","7",,,,,,,,,,,,,,,,,,,,,,,,,,,,,,,,,,,,,,"30.07","68","71",,,,,"90",,"OVC:08 4","29.71","8.00","69","240",,"7",,,,,,,,,,,,,,,,,,,,,,,,,,,,,,,,,,,,,"MET08506/08/21 11:25:02 SPECI KART 081625Z 24006KT 8SM OVC004 22/20 A3007 RMK AO2 T02170200","FM-16","7",,,,,,,,,,,,,,,,,,,,,,,,,,,,"2005-11-07"
"72622794790","2021-06-08T11:48:00","FM-16","7",,,,,,,,,,,,,,,,,,,,,,,,,,,,,,,,,,,,,,"30.07","69","72","T","-RA:02 BR:1 |RA |RA",,,"91",,"OVC:08 5","29.71","5.00","70","240",,"9",,,,,,,,,,,,,,,,,,,,,,,,,,,,,,,,,,,,,"MET10406/08/21 11:48:02 SPECI KART 081648Z 24008KT 5SM -RA BR OVC005 22/21 A3007 RMK AO2 RAB34 P0000 T02220206","FM-16","7",,,,,,,,,,,,,,,,,,,,,,,,,,,,"2005-11-07"
"72622794790","2021-06-08T11:56:00","FM-15","7",,,,,,,,,,,,,,,,,,,,,,,,,,,,,,,,,,,,,,"30.07","69","72","T","-RA:02 BR:1 |RA |RA",,,"91","30.05","OVC:08 6","29.71","6.00","70","250",,"7",,,,,,,,,,,,,,,,,,,,,,,,,,,,,,,,,,,,,"MET11106/08/21 11:56:02 METAR KART 081656Z 25006KT 6SM -RA BR OVC006 22/21 A3007 RMK AO2 RAB34 SLP176 P0000 T02220206","FM-15","7",,,,,,,,,,,,,,,,,,,,,,,,,,,,"2005-11-07"
"72622794790","2021-06-08T12:56:00","FM-15","7",,,,,,,,,,,,,,,,,,,,,,,,,,,,,,,,,,,,,,"30.05","70","73","0.01",,"+0.01","8","90","30.03","BKN:07 5","29.69","10.00","71","240",,"9",,,,,,,,,,,,,,,,,,,,,,,,,,,,,,,,,,,,,"MET13506/08/21 12:56:02 METAR KART 081756Z 24008KT 10SM BKN005 23/21 A3005 RMK AO2 RAE10B29E55 SLP171 P0001 60001 T02280211 10228 20206 58004","FM-15","7",,,,,,,,,,,,,,,,,,,,,,,,,,,,"2005-11-07"
"72622794790","2021-06-08T13:54:00","FM-16","6",,,,,,,,,,,,,,,,,,,,,,,,,,,,,,,,,,,,,,"30.03","70","75",,,,,"83",,"SCT:04 9 BKN:07 120","29.67","10.00","72","250",,"7",,,,,,,,,,,,,,,,,,,,,,,,,,,,,,,,,,,,,"MET08806/08/21 13:54:02 SPECI KART 081854Z 25006KT 10SM SCT009 BKN120 24/21 A3003 RMK AO2 FIBI","FM-16","6",,,,,,,,,,,,,,,,,,,,,,,,,,,,"2005-11-07"
"72622794790","2021-06-08T13:56:00","FM-15","7",,,,,,,,,,,,,,,,,,,,,,,,,,,,,,,,,,,,,,"30.03","70","76","0.00",,,,"82","30.01","SCT:04 9 BKN:07 120","29.67","10.00","72","240",,"7",,,,,,,,,,,,,,,,,,,,,,,,,,,,,,,,,,,,,"MET10006/08/21 13:56:02 METAR KART 081856Z 24006KT 10SM SCT009 BKN120 24/21 A3003 RMK AO2 SLP163 T02440211","FM-15","7",,,,,,,,,,,,,,,,,,,,,,,,,,,,"2005-11-07"
"72622794790","2021-06-08T14:19:00","FM-16","7",,,,,,,,,,,,,,,,,,,,,,,,,,,,,,,,,,,,,,"30.02","69","75",,,,,"82",,"BKN:07 11 BKN:07 120","29.66","10.00","71","250",,"7",,,,,,,,,,,,,,,,,,,,,,,,,,,,,,,,,,,,,"MET09306/08/21 14:19:02 SPECI KART 081919Z 25006KT 10SM BKN011 BKN120 24/21 A3002 RMK AO2 T02390206","FM-16","7",,,,,,,,,,,,,,,,,,,,,,,,,,,,"2005-11-07"
"72622794790","2021-06-08T14:54:00","FM-16","6",,,,,,,,,,,,,,,,,,,,,,,,,,,,,,,,,,,,,,"30.01","72","79",,,,,"79",,"SCT:04 11","29.65","10.00","74","250",,"8",,,,,,,,,,,,,,,,,,,,,,,,,,,,,,,,,,,,,"MET09606/08/21 14:54:02 SPECI KART 081954Z 25007KT 10SM SCT011 26/22 A3001 RMK AO2 RAB34E43 P0000 FIBI","FM-16","6",,,,,,,,,,,,,,,,,,,,,,,,,,,,"2005-11-07"
"72622794790","2021-06-08T14:56:00","FM-15","7",,,,,,,,,,,,,,,,,,,,,,,,,,,,,,,,,,,,,,"30.01","70","78","T",,,,"76","29.99","SCT:04 12","29.65","10.00","73","260",,"10",,,,,,,,,,,,,,,,,,,,,,,,,,,,,,,,,,,,,"MET10806/08/21 14:56:02 METAR KART 081956Z 26009KT 10SM SCT012 26/21 A3001 RMK AO2 RAB34E43 SLP156 P0000 T02560211","FM-15","7",,,,,,,,,,,,,,,,,,,,,,,,,,,,"2005-11-07"
"72622794790","2021-06-08T15:56:00","FM-15","7",,,,,,,,,,,,,,,,,,,,,,,,,,,,,,,,,,,,,,"29.98","70","78","0.00",,"+0.04","8","76","29.96","CLR:00","29.62","10.00","73","250",,"7",,,,,,,,,,,,,,,,,,,,,,,,,,,,,,,,,,,,,"MET10206/08/21 15:56:02 METAR KART 082056Z 25006KT 10SM CLR 26/21 A2998 RMK AO2 SLP147 60000 T02560211 58015","FM-15","7",,,,,,,,,,,,,,,,,,,,,,,,,,,,"2005-11-07"
"72622794790","2021-06-08T16:56:00","FM-15","7",,,,,,,,,,,,,,,,,,,,,,,,,,,,,,,,,,,,,,"29.97","69","76","0.00",,,,"79","29.95","CLR:00","29.61","10.00","71","270",,"9",,,,,,,,,,,,,,,,,,,,,,,,,,,,,,,,,,,,,"MET09006/08/21 16:56:02 METAR KART 082156Z 27008KT 10SM CLR 24/21 A2997 RMK AO2 SLP142 T02440206","FM-15","7",,,,,,,,,,,,,,,,,,,,,,,,,,,,"2005-11-07"
"72622794790","2021-06-08T17:56:00","FM-15","7",,,,,,,,,,,,,,,,,,,,,,,,,,,,,,,,,,,,,,"29.99","69","75","0.00",,,,"82","29.98","CLR:00","29.63","10.00","71","290",,"7",,,,,,,,,,,,,,,,,,,,,,,,,,,,,,,,,,,,,"MET09006/08/21 17:56:02 METAR KART 082256Z 29006KT 10SM CLR 24/21 A2999 RMK AO2 SLP152 T02390206","FM-15","7",,,,,,,,,,,,,,,,,,,,,,,,,,,,"2005-11-07"
"72622794790","2021-06-08T18:56:00","FM-15","7",,,,,,,,,,,,,,,,,,,,,,,,,,,,,,,,,,,,,,"30.00","69","74","0.00",,"-0.02","3","85","29.98","CLR:00","29.64","10.00","71","220",,"5",,,,,,,,,,,,,,,,,,,,,,,,,,,,,,,,,,,,,"MET11406/08/21 18:56:02 METAR KART 082356Z 22004KT 10SM CLR 23/21 A3000 RMK AO2 SLP154 60000 T02330206 10261 20228 53006","FM-15","7",,,,,,,,,,,,,,,,,,,,,,,,,,,,"2005-11-07"
"72622794790","2021-06-08T19:56:00","FM-15","7",,,,,,,,,,,,,,,,,,,,,,,,,,,,,,,,,,,,,,"29.99","68","72","0.00",,,,"87","29.97","CLR:00","29.63","10.00","69","000",,"0",,,,,,,,,,,,,,,,,,,,,,,,,,,,,,,,,,,,,"MET09006/08/21 19:56:01 METAR KART 090056Z 00000KT 10SM CLR 22/20 A2999 RMK AO2 SLP149 T02220200","FM-15","7",,,,,,,,,,,,,,,,,,,,,,,,,,,,"2005-11-07"
"72622794790","2021-06-08T20:56:00","FM-15","7",,,,,,,,,,,,,,,,,,,,,,,,,,,,,,,,,,,,,,"29.99","68","71","0.00",,,,"90","29.97","CLR:00","29.63","10.00","69","220",,"3",,,,,,,,,,,,,,,,,,,,,,,,,,,,,,,,,,,,,"MET09006/08/21 20:56:01 METAR KART 090156Z 22003KT 10SM CLR 22/20 A2999 RMK AO2 SLP150 T02170200","FM-15","7",,,,,,,,,,,,,,,,,,,,,,,,,,,,"2005-11-07"
"72622794790","2021-06-08T21:56:00","FM-15","7",,,,,,,,,,,,,,,,,,,,,,,,,,,,,,,,,,,,,,"29.99","68","71","0.00",,"+0.01","5","90","29.98","CLR:00","29.63","10.00","69","000",,"0",,,,,,,,,,,,,,,,,,,,,,,,,,,,,,,,,,,,,"MET09606/08/21 21:56:01 METAR KART 090256Z 00000KT 10SM CLR 22/20 A2999 RMK AO2 SLP151 T02170200 55003","FM-15","7",,,,,,,,,,,,,,,,,,,,,,,,,,,,"2005-11-07"
"72622794790","2021-06-08T22:56:00","FM-15","7",,,,,,,,,,,,,,,,,,,,,,,,,,,,,,,,,,,,,,"30.00","67","68","0.00",,,,"96","29.98","CLR:00","29.64","10.00","67","000",,"0",,,,,,,,,,,,,,,,,,,,,,,,,,,,,,,,,,,,,"MET09006/08/21 22:56:01 METAR KART 090356Z 00000KT 10SM CLR 20/19 A3000 RMK AO2 SLP153 T02000194","FM-15","7",,,,,,,,,,,,,,,,,,,,,,,,,,,,"2005-11-07"
"72622794790","2021-06-08T23:56:00","FM-15","7",,,,,,,,,,,,,,,,,,,,,,,,,,,,,,,,,,,,,,"29.99","67","69","0.00",,,,"93","29.98","CLR:00","29.63","7.00","68","000",,"0",,,,,,,,,,,,,,,,,,,,,,,,,,,,,,,,,,,,,"MET09906/08/21 23:56:02 METAR KART 090456Z 00000KT 7SM CLR 21/19 A2999 RMK AO2 SLP152 T02060194 402610200","FM-15","7",,,,,,,,,,,,,,,,,,,,,,,,,,,,"2005-11-07"
"72622794790","2021-06-08T23:59:00","SOD  ","6",,,,,,,,,,,,,,,,"74",,,"29.67",,"5.9","9","12.8","0","79","68","230","20","0.20",,,"240","14","RA BR",,,,,,,,,,,,,,,,,,,,,,,,,,,,,,,,,,,,,,,,,,,,,,,,,,,,,,,,"SOD70924 HR PRECIPITATION (IN): 0.20 WEATHER(CODE):1  24 HR MAX TEMP (F): 7924 HR MIN TEMP (F): 68AVERAGE STATION PRESSURE:29.665 MINIMUM SEA LEVEL PRESSURE:29.94 TIME OF OCCURRENCE:1639 PEAK WIND SPEED (MPH): 20 PEAK WIND DIR (DEG):230 PEAK WIND TIME (LST):      FASTEST 2MIN SPEED (MPH): 14FASTEST 2MIN DIR (DEG):240 FASTEST 2MIN TIME (LST):     AVERAGE WIND SPEED (MPH): 5.9 24 HR AVG TEMP (F): 74DEPART FROM NORMAL: 12  HEATING DEGREE DAYS:  0 COOLING DEGREE DAYS:  9 LATEST DAY MAX TEMP (0700-1900 LST):79  LATEST NIGHT MIN TEMP(1900-0800 LST):68 HOURLY INCREMENTAL PRECIPITATION VALUES (IN):.00 0.00 0.00 T    T    0.09 0.10 T    T    T    T    T    0.01 0.00 T    0.00 0.00 0.00 0.00 0.00 0.00 0.00 0.00 0.00","SOD  ","6",,,,,,,,,,,,,,,,,,,,,,,,,"0422","1945",,"2005-11-07"
"72622794790","2021-06-09T00:56:00","FM-15","7",,,,,,,,,,,,,,,,,,,,,,,,,,,,,,,,,,,,,,"30.00","66","67","0.00","BR:1 ||","-0.01","3","97","29.98","CLR:00","29.64","6.00","66","000",,"0",,,,,,,,,,,,,,,,,,,,,,,,,,,,,,,,,,,,,"MET11006/09/21 00:56:02 METAR KART 090556Z 00000KT 6SM BR CLR 19/19 A3000 RMK AO2 SLP154 T01940189 10233 20194 53002","FM-15","7",,,,,,,,,,,,,,,,,,,,,,,,,,,,"2005-11-07"
"72622794790","2021-06-09T01:28:00","FM-16","7",,,,,,,,,,,,,,,,,,,,,,,,,,,,,,,,,,,,,,"30.00","66","68",,"BR:1 ||",,,"93",,"FEW:02 6","29.64","5.00","67","000",,"0",,,,,,,,,,,,,,,,,,,,,,,,,,,,,,,,,,,,,"MET08806/09/21 01:28:02 SPECI KART 090628Z 00000KT 5SM BR FEW006 20/19 A3000 RMK AO2 T02000189","FM-16","7",,,,,,,,,,,,,,,,,,,,,,,,,,,,"2005-11-07"
"72622794790","2021-06-09T01:41:00","FM-16","7",,,,,,,,,,,,,,,,,,,,,,,,,,,,,,,,,,,,,,"29.99","66","68",,"BR:1 ||",,,"93",,"BKN:07 4","29.63","5.00","67","220",,"3",,,,,,,,,,,,,,,,,,,,,,,,,,,,,,,,,,,,,"MET08806/09/21 01:41:02 SPECI KART 090641Z 22003KT 5SM BR BKN004 20/19 A2999 RMK AO2 T02000189","FM-16","7",,,,,,,,,,,,,,,,,,,,,,,,,,,,"2005-11-07"
"72622794790","2021-06-09T01:56:00","FM-15","7",,,,,,,,,,,,,,,,,,,,,,,,,,,,,,,,,,,,,,"29.99","67","68","0.00","BR:1 ||",,,"96","29.98","OVC:08 3","29.63","2.00","67","220",,"7",,,,,,,,,,,,,,,,,,,,,,,,,,,,,,,,,,,,,"MET09506/09/21 01:56:02 METAR KART 090656Z 22006KT 2SM BR OVC003 20/19 A2999 RMK AO2 SLP152 T02000194","FM-15","7",,,,,,,,,,,,,,,,,,,,,,,,,,,,"2005-11-07"
"72622794790","2021-06-09T02:02:00","FM-16","7",,,,,,,,,,,,,,,,,,,,,,,,,,,,,,,,,,,,,,"30.00","67","68",,"BR:1 ||",,,"96",,"OVC:08 3","29.64","0.75","67","200",,"5",,,,,,,,,,,,,,,,,,,,,,,,,,,,,,,,,,,,,"MET09006/09/21 02:02:02 SPECI KART 090702Z 20004KT 3/4SM BR OVC003 20/19 A3000 RMK AO2 T02000194","FM-16","7",,,,,,,,,,,,,,,,,,,,,,,,,,,,"2005-11-07"
"72622794790","2021-06-09T02:33:00","FM-16","7",,,,,,,,,,,,,,,,,,,,,,,,,,,,,,,,,,,,,,"29.99","67","68",,"FG:2 |FG |",,,"96",,"VV:09 2","29.63","0.25","67","200",,"6",,,,,,,,,,,,,,,,,,,,,,,,,,,,,,,,,,,,,"MET08906/09/21 02:33:02 SPECI KART 090733Z 20005KT 1/4SM FG VV002 20/19 A2999 RMK AO2 T02000194","FM-16","7",,,,,,,,,,,,,,,,,,,,,,,,,,,,"2005-11-07"
"72622794790","2021-06-09T02:56:00","FM-15","7",,,,,,,,,,,,,,,,,,,,,,,,,,,,,,,,,,,,,,"29.98","67","68","0.00","FG:2 |FG |",,,"96","29.97","VV:09 2","29.62","0.25","67","VRB",,"5",,,,,,,,,,,,,,,,,,,,,,,,,,,,,,,,,,,,,"MET09606/09/21 02:56:02 METAR KART 090756Z VRB04KT 1/4SM FG VV002 20/19 A2998 RMK AO2 SLP149 T02000194","FM-15","7",,,,,,,,,,,,,,,,,,,,,,,,,,,,"2005-11-07"
"72622794790","2021-06-09T03:32:00","FM-16","7",,,,,,,,,,,,,,,,,,,,,,,,,,,,,,,,,,,,,,"29.98","67","68",,"FG:2 |FG |",,,"96",,"VV:09 2","29.62","0.50","67","190",,"5",,,,,,,,,,,,,,,,,,,,,,,,,,,,,,,,,,,,,"MET08906/09/21 03:32:02 SPECI KART 090832Z 19004KT 1/2SM FG VV002 20/19 A2998 RMK AO2 T02000194","FM-16","7",,,,,,,,,,,,,,,,,,,,,,,,,,,,"2005-11-07"
"72622794790","2021-06-09T03:56:00","FM-15","7",,,,,,,,,,,,,,,,,,,,,,,,,,,,,,,,,,,,,,"29.99","67","68","0.00","FG:2 |FG |","+0.01","5","96","29.97","VV:09 2","29.63","0.50","67","250",,"5",,,,,,,,,,,,,,,,,,,,,,,,,,,,,,,,,,,,,"MET10206/09/21 03:56:02 METAR KART 090856Z 25004KT 1/2SM FG VV002 20/19 A2999 RMK AO2 SLP150 T02000194 55004","FM-15","7",,,,,,,,,,,,,,,,,,,,,,,,,,,,"2005-11-07"
"72622794790","2021-06-09T04:49:00","FM-16","7",,,,,,,,,,,,,,,,,,,,,,,,,,,,,,,,,,,,,,"29.99","67","68",,"FG:2 |FG |",,,"96",,"VV:09 2","29.63","0.25","67","240",,"5",,,,,,,,,,,,,,,,,,,,,,,,,,,,,,,,,,,,,"MET08906/09/21 04:49:02 SPECI KART 090949Z 24004KT 1/4SM FG VV002 20/19 A2999 RMK AO2 T02000194","FM-16","7",,,,,,,,,,,,,,,,,,,,,,,,,,,,"2005-11-07"
"72622794790","2021-06-09T04:56:00","FM-15","7",,,,,,,,,,,,,,,,,,,,,,,,,,,,,,,,,,,,,,"29.99","67","68","0.00","FG:2 |FG |",,,"96","29.98","VV:09 2","29.63","0.25","67","220",,"6",,,,,,,,,,,,,,,,,,,,,,,,,,,,,,,,,,,,,"MET09606/09/21 04:56:02 METAR KART 090956Z 22005KT 1/4SM FG VV002 20/19 A2999 RMK AO2 SLP151 T02000194","FM-15","7",,,,,,,,,,,,,,,,,,,,,,,,,,,,"2005-11-07"
"72622794790","2021-06-09T05:32:00","FM-16","7",,,,,,,,,,,,,,,,,,,,,,,,,,,,,,,,,,,,,,"30.00","67","68",,"FG:2 |FG |",,,"96",,"VV:09 2","29.64","0.00","67","230",,"5",,,,,,,,,,,,,,,,,,,,,,,,,,,,,,,,,,,,,"MET09006/09/21 05:32:02 SPECI KART 091032Z 23004KT M1/4SM FG VV002 20/19 A3000 RMK AO2 T02000194","FM-16","7",,,,,,,,,,,,,,,,,,,,,,,,,,,,"2005-11-07"
"72622794790","2021-06-09T05:40:00","FM-16","7",,,,,,,,,,,,,,,,,,,,,,,,,,,,,,,,,,,,,,"30.00","67","68",,"FG:2 |FG |",,,"96",,"VV:09 2","29.64","0.25","67","220",,"6",,,,,,,,,,,,,,,,,,,,,,,,,,,,,,,,,,,,,"MET08906/09/21 05:40:02 SPECI KART 091040Z 22005KT 1/4SM FG VV002 20/19 A3000 RMK AO2 T02000194","FM-16","7",,,,,,,,,,,,,,,,,,,,,,,,,,,,"2005-11-07"
"72622794790","2021-06-09T05:54:00","FM-16","6",,,,,,,,,,,,,,,,,,,,,,,,,,,,,,,,,,,,,,"30.00","66","68",,"FG:2 |FG |",,,"94",,"VV:09 2","29.64","0.50","67","220",,"6",,,,,,,,,,,,,,,,,,,,,,,,,,,,,,,,,,,,,"MET08406/09/21 05:54:02 SPECI KART 091054Z 22005KT 1/2SM FG VV002 20/19 A3000 RMK AO2 FIBI","FM-16","6",,,,,,,,,,,,,,,,,,,,,,,,,,,,"2005-11-07"
"72622794790","2021-06-09T05:56:00","FM-15","7",,,,,,,,,,,,,,,,,,,,,,,,,,,,,,,,,,,,,,"30.00","67","68","0.00","FG:2 |FG |",,,"96","29.98","VV:09 2","29.64","0.50","67","220",,"3",,,,,,,,,,,,,,,,,,,,,,,,,,,,,,,,,,,,,"MET09606/09/21 05:56:02 METAR KART 091056Z 22003KT 1/2SM FG VV002 20/19 A3000 RMK AO2 SLP154 T02000194","FM-15","7",,,,,,,,,,,,,,,,,,,,,,,,,,,,"2005-11-07"
"72622794790","2021-06-09T06:56:00","FM-15","7",,,,,,,,,,,,,,,,,,,,,,,,,,,,,,,,,,,,,,"30.03","67","68","0.00","FG:2 |FG |","-0.04","3","96","30.01","OVC:08 2","29.67","0.25","67","240",,"3",,,,,,,,,,,,,,,,,,,,,,,,,,,,,,,,,,,,,"MET12106/09/21 06:56:02 METAR KART 091156Z 24003KT 1/4SM FG OVC002 20/19 A3003 RMK AO2 SLP164 70001 T02000194 10200 20194 53014","FM-15","7",,,,,,,,,,,,,,,,,,,,,,,,,,,,"2005-11-07"
"72622794790","2021-06-09T07:12:00","FM-16","7",,,,,,,,,,,,,,,,,,,,,,,,,,,,,,,,,,,,,,"30.03","67","68",,"BR:1 ||",,,"96",,"OVC:08 2","29.67","0.75","67","260",,"3",,,,,,,,,,,,,,,,,,,,,,,,,,,,,,,,,,,,,"MET09006/09/21 07:12:02 SPECI KART 091212Z 26003KT 3/4SM BR OVC002 20/19 A3003 RMK AO2 T02000194","FM-16","7",,,,,,,,,,,,,,,,,,,,,,,,,,,,"2005-11-07"
"72622794790","2021-06-09T07:21:00","FM-16","7",,,,,,,,,,,,,,,,,,,,,,,,,,,,,,,,,,,,,,"30.04","67","68",,"BR:1 ||",,,"96",,"OVC:08 2","29.68","1.50","67","260",,"3",,,,,,,,,,,,,,,,,,,,,,,,,,,,,,,,,,,,,"MET09206/09/21 07:21:02 SPECI KART 091221Z 26003KT 1 1/2SM BR OVC002 20/19 A3004 RMK AO2 T02000194","FM-16","7",,,,,,,,,,,,,,,,,,,,,,,,,,,,"2005-11-07"
"72622794790","2021-06-09T07:36:00","FM-16","7",,,,,,,,,,,,,,,,,,,,,,,,,,,,,,,,,,,,,,"30.04","67","68",,"BR:1 ||",,,"96",,"OVC:08 2","29.68","0.75","67","230",,"5",,,,,,,,,,,,,,,,,,,,,,,,,,,,,,,,,,,,,"MET09006/09/21 07:36:02 SPECI KART 091236Z 23004KT 3/4SM BR OVC002 20/19 A3004 RMK AO2 T02000194","FM-16","7",,,,,,,,,,,,,,,,,,,,,,,,,,,,"2005-11-07"
"72622794790","2021-06-09T07:56:00","FM-15","7",,,,,,,,,,,,,,,,,,,,,,,,,,,,,,,,,,,,,,"30.04","67","68","0.00","FG:2 |FG |",,,"96","30.03","OVC:08 2","29.68","0.50","67","270",,"5",,,,,,,,,,,,,,,,,,,,,,,,,,,,,,,,,,,,,"MET09706/09/21 07:56:02 METAR KART 091256Z 27004KT 1/2SM FG OVC002 20/19 A3004 RMK AO2 SLP168 T02000194","FM-15","7",,,,,,,,,,,,,,,,,,,,,,,,,,,,"2005-11-07"
"72622794790","2021-06-09T08:20:00","FM-16","7",,,,,,,,,,,,,,,,,,,,,,,,,,,,,,,,,,,,,,"30.04","67","69",,"BR:1 ||",,,"93",,"OVC:08 2","29.68","2.00","68","280",,"5",,,,,,,,,,,,,,,,,,,,,,,,,,,,,,,,,,,,,"MET08806/09/21 08:20:02 SPECI KART 091320Z 28004KT 2SM BR OVC002 21/19 A3004 RMK AO2 T02060194","FM-16","7",,,,,,,,,,,,,,,,,,,,,,,,,,,,"2005-11-07"
"72622794790","2021-06-09T08:30:00","FM-16","7",,,,,,,,,,,,,,,,,,,,,,,,,,,,,,,,,,,,,,"30.05","67","69",,"BR:1 ||",,,"93",,"OVC:08 2","29.69","3.00","68","290",,"5",,,,,,,,,,,,,,,,,,,,,,,,,,,,,,,,,,,,,"MET08806/09/21 08:30:02 SPECI KART 091330Z 29004KT 3SM BR OVC002 21/19 A3005 RMK AO2 T02060194","FM-16","7",,,,,,,,,,,,,,,,,,,,,,,,,,,,"2005-11-07"
"72622794790","2021-06-09T08:54:00","FM-16","6",,,,,,,,,,,,,,,,,,,,,,,,,,,,,,,,,,,,,,"30.04","66","70",,,,,"88",,"BKN:07 5 OVC:08 8","29.68","7.00","67","000",,"0",,,,,,,,,,,,,,,,,,,,,,,,,,,,,,,,,,,,,"MET09906/09/21 08:54:02 SPECI KART 091354Z 00000KT 7SM BKN005 OVC008 21/19 A3004 RMK AO2 CIG 002V007 FIBI","FM-16","6",,,,,,,,,,,,,,,,,,,,,,,,,,,,"2005-11-07"
"72622794790","2021-06-09T08:56:00","FM-15","7",,,,,,,,,,,,,,,,,,,,,,,,,,,,,,,,,,,,,,"30.04","67","70","0.00",,,,"90","30.03","BKN:07 5 OVC:08 8","29.68","7.00","68","000",,"0",,,,,,,,,,,,,,,,,,,,,,,,,,,,,,,,,,,,,"MET11106/09/21 08:56:02 METAR KART 091356Z 00000KT 7SM BKN005 OVC008 21/19 A3004 RMK AO2 CIG 002V007 SLP168 T02110194","FM-15","7",,,,,,,,,,,,,,,,,,,,,,,,,,,,"2005-11-07"
"72622794790","2021-06-09T09:56:00","FM-15","7",,,,,,,,,,,,,,,,,,,,,,,,,,,,,,,,,,,,,,"30.06","67","73","0.00",,"-0.02","3","81","30.04","OVC:08 9","29.70","10.00","69","000",,"0",,,,,,,,,,,,,,,,,,,,,,,,,,,,,,,,,,,,,"MET09906/09/21 09:56:02 METAR KART 091456Z 00000KT 10SM OVC009 23/19 A3006 RMK AO2 SLP174 T02280194 53006","FM-15","7",,,,,,,,,,,,,,,,,,,,,,,,,,,,"2005-11-07"
"72622794790","2021-06-09T10:19:00","FM-16","7",,,,,,,,,,,,,,,,,,,,,,,,,,,,,,,,,,,,,,"30.07","68","73",,,,,"84",,"OVC:08 10","29.71","10.00","70","020",,"6",,,,,,,,,,,,,,,,,,,,,,,,,,,,,,,,,,,,,"MET08606/09/21 10:19:02 SPECI KART 091519Z 02005KT 10SM OVC010 23/20 A3007 RMK AO2 T02280200","FM-16","7",,,,,,,,,,,,,,,,,,,,,,,,,,,,"2005-11-07"
"72622794790","2021-06-09T10:56:00","FM-15","7",,,,,,,,,,,,,,,,,,,,,,,,,,,,,,,,,,,,,,"30.07","69","74","0.00",,,,"85","30.05","OVC:08 10","29.71","10.00","71","040",,"6",,,,,,,,,,,,,,,,,,,,,,,,,,,,,,,,,,,,,"MET09306/09/21 10:56:02 METAR KART 091556Z 04005KT 10SM OVC010 23/21 A3007 RMK AO2 SLP177 T02330206","FM-15","7",,,,,,,,,,,,,,,,,,,,,,,,,,,,"2005-11-07"
"72622794790","2021-06-09T11:54:00","FM-16","6",,,,,,,,,,,,,,,,,,,,,,,,,,,,,,,,,,,,,,"30.07","70","79",,,,,"74",,"SCT:04 12 BKN:07 19 OVC:08 36","29.71","10.00","73","030",,"11",,,,,,,,,,,,,,,,,,,,,,,,,,,,,,,,,,,,,"MET09506/09/21 11:54:02 SPECI KART 091654Z 03010KT 10SM SCT012 BKN019 OVC036 26/21 A3007 RMK AO2 FIBI","FM-16","6",,,,,,,,,,,,,,,,,,,,,,,,,,,,"2005-11-07"
"72622794790","2021-06-09T11:56:00","FM-15","7",,,,,,,,,,,,,,,,,,,,,,,,,,,,,,,,,,,,,,"30.07","69","78","0.00",,,,"74","30.05","SCT:04 14 BKN:07 19 OVC:08 38","29.71","10.00","72","030",,"9",,,,,,,,,,,,,,,,,,,,,,,,,,,,,,,,,,,,,"MET10706/09/21 11:56:02 METAR KART 091656Z 03008KT 10SM SCT014 BKN019 OVC038 26/21 A3007 RMK AO2 SLP177 T02560206","FM-15","7",,,,,,,,,,,,,,,,,,,,,,,,,,,,"2005-11-07"
"72622794790","2021-06-09T12:12:00","FM-16","7",,,,,,,,,,,,,,,,,,,,,,,,,,,,,,,,,,,,,,"30.07","68","80",,,,,"67",,"FEW:02 17 SCT:04 23 BKN:07 80","29.71","10.00","72","050",,"13",,,,,,,,,,,,,,,,,,,,,,,,,,,,,,,,,,,,,"MET10006/09/21 12:12:02 SPECI KART 091712Z 05011KT 10SM FEW017 SCT023 BKN080 27/20 A3007 RMK AO2 T02670200","FM-16","7",,,,,,,,,,,,,,,,,,,,,,,,,,,,"2005-11-07"
"72622794790","2021-06-09T12:56:00","FM-15","7",,,,,,,,,,,,,,,,,,,,,,,,,,,,,,,,,,,,,,"30.06","63","83","0.00",,"+0.00","8","51","30.04","FEW:02 33","29.70","10.00","70","030",,"11",,,,,,,,,,,,,,,,,,,,,,,,,,,,,,,,,,,,,"MET11106/09/21 12:56:02 METAR KART 091756Z 03010KT 10SM FEW033 28/17 A3006 RMK AO2 SLP172 T02830172 10283 20200 58001","FM-15","7",,,,,,,,,,,,,,,,,,,,,,,,,,,,"2005-11-07"
"72622794790","2021-06-09T13:56:00","FM-15","7",,,,,,,,,,,,,,,,,,,,,,,,,,,,,,,,,,,,,,"30.05","58","85","0.00",,,,"40","30.03","CLR:00","29.69","10.00","68","030",,"13",,,,,,,,,,,,,,,,,,,,,,,,,,,,,,,,,,,,,"MET09006/09/21 13:56:02 METAR KART 091856Z 03011KT 10SM CLR 29/14 A3005 RMK AO2 SLP170 T02940144","FM-15","7",,,,,,,,,,,,,,,,,,,,,,,,,,,,"2005-11-07"
"72622794790","2021-06-09T14:56:00","FM-15","7",,,,,,,,,,,,,,,,,,,,,,,,,,,,,,,,,,,,,,"30.04","57","85","0.00",,,,"39","30.02","CLR:00","29.68","10.00","68","030",,"10",,,,,,,,,,,,,,,,,,,,,,,,,,,,,,,,,,,,,"MET09006/09/21 14:56:02 METAR KART 091956Z 03009KT 10SM CLR 29/14 A3004 RMK AO2 SLP166 T02940139","FM-15","7",,,,,,,,,,,,,,,,,,,,,,,,,,,,"2005-11-07"
"72622794790","2021-06-09T15:56:00","FM-15","7",,,,,,,,,,,,,,,,,,,,,,,,,,,,,,,,,,,,,,"30.03","55","85","0.00",,"+0.03","8","36","30.01","CLR:00","29.67","10.00","67","020",,"14",,,,,,,,,,,,,,,,,,,,,,,,,,,,,,,,,,,,,"MET09606/09/21 15:56:02 METAR KART 092056Z 02012KT 10SM CLR 29/13 A3003 RMK AO2 SLP163 T02940128 58009","FM-15","7",,,,,,,,,,,,,,,,,,,,,,,,,,,,"2005-11-07"
"72622794790","2021-06-09T16:56:00","FM-15","7",,,,,,,,,,,,,,,,,,,,,,,,,,,,,,,,,,,,,,"30.02","56","84","0.00",,,,"38","30.01","CLR:00","29.66","10.00","67","030",,"11",,,,,,,,,,,,,,,,,,,,,,,,,,,,,,,,,,,,,"MET09006/09/21 16:56:02 METAR KART 092156Z 03010KT 10SM CLR 29/13 A3002 RMK AO2 SLP161 T02890133","FM-15","7",,,,,,,,,,,,,,,,,,,,,,,,,,,,"2005-11-07"
"72622794790","2021-06-09T17:56:00","FM-15","7",,,,,,,,,,,,,,,,,,,,,,,,,,,,,,,,,,,,,,"30.03","54","82","0.00",,,,"38","30.01","CLR:00","29.67","10.00","65","030",,"9",,,,,,,,,,,,,,,,,,,,,,,,,,,,,,,,,,,,,"MET09006/09/21 17:56:02 METAR KART 092256Z 03008KT 10SM CLR 28/12 A3003 RMK AO2 SLP163 T02780122","FM-15","7",,,,,,,,,,,,,,,,,,,,,,,,,,,,"2005-11-07"
"72622794790","2021-06-09T18:56:00","FM-15","7",,,,,,,,,,,,,,,,,,,,,,,,,,,,,,,,,,,,,,"30.04","54","80","0.00",,"-0.01","3","41","30.02","CLR:00","29.68","10.00","64","030",,"6",,,,,,,,,,,,,,,,,,,,,,,,,,,,,,,,,,,,,"MET10806/09/21 18:56:02 METAR KART 092356Z 03005KT 10SM CLR 27/12 A3004 RMK AO2 SLP167 T02670122 10300 20261 53004","FM-15","7",,,,,,,,,,,,,,,,,,,,,,,,,,,,"2005-11-07"
"72622794790","2021-06-09T19:56:00","FM-15","7",,,,,,,,,,,,,,,,,,,,,,,,,,,,,,,,,,,,,,"30.05","54","74","0.00",,,,"50","30.04","CLR:00","29.69","10.00","62","040",,"7",,,,,,,,,,,,,,,,,,,,,,,,,,,,,,,,,,,,,"MET09006/09/21 19:56:01 METAR KART 100056Z 04006KT 10SM CLR 23/12 A3005 RMK AO2 SLP173 T02330122","FM-15","7",,,,,,,,,,,,,,,,,,,,,,,,,,,,"2005-11-07"
"72622794790","2021-06-09T20:56:00","FM-15","7",,,,,,,,,,,,,,,,,,,,,,,,,,,,,,,,,,,,,,"30.07","56","62","0.00",,,,"80","30.06","CLR:00","29.71","10.00","59","000",,"0",,,,,,,,,,,,,,,,,,,,,,,,,,,,,,,,,,,,,"MET09006/09/21 20:56:01 METAR KART 100156Z 00000KT 10SM CLR 17/13 A3007 RMK AO2 SLP179 T01670133","FM-15","7",,,,,,,,,,,,,,,,,,,,,,,,,,,,"2005-11-07"
"72622794790","2021-06-09T21:56:00","FM-15","7",,,,,,,,,,,,,,,,,,,,,,,,,,,,,,,,,,,,,,"30.08","54","58","0.00",,"-0.04","1","87","30.06","CLR:00","29.72","10.00","56","070",,"3",,,,,,,,,,,,,,,,,,,,,,,,,,,,,,,,,,,,,"MET09606/09/21 21:56:02 METAR KART 100256Z 07003KT 10SM CLR 14/12 A3008 RMK AO2 SLP181 T01440122 51012","FM-15","7",,,,,,,,,,,,,,,,,,,,,,,,,,,,"2005-11-07"
"72622794790","2021-06-09T22:56:00","FM-15","7",,,,,,,,,,,,,,,,,,,,,,,,,,,,,,,,,,,,,,"30.09","53","56","0.00",,,,"90","30.08","CLR:00","29.73","10.00","54","100",,"3",,,,,,,,,,,,,,,,,,,,,,,,,,,,,,,,,,,,,"MET09006/09/21 22:56:02 METAR KART 100356Z 10003KT 10SM CLR 13/12 A3009 RMK AO2 SLP185 T01330117","FM-15","7",,,,,,,,,,,,,,,,,,,,,,,,,,,,"2005-11-07"
"72622794790","2021-06-09T23:56:00","FM-15","7",,,,,,,,,,,,,,,,,,,,,,,,,,,,,,,,,,,,,,"30.09","51","55","0.00",,,,"87","30.08","CLR:00","29.73","10.00","53","000",,"0",,,,,,,,,,,,,,,,,,,,,,,,,,,,,,,,,,,,,"MET10006/09/21 23:56:02 METAR KART 100456Z 00000KT 10SM CLR 13/11 A3009 RMK AO2 SLP185 T01280106 403000117","FM-15","7",,,,,,,,,,,,,,,,,,,,,,,,,,,,"2005-11-07"
"72622794790","2021-06-09T23:59:00","SOD  ","6",,,,,,,,,,,,,,,,"70",,,"29.67",,"5.7","5","8.5","0","86","53","360","23","0.00",,,"360","16","FG BR",,,,,,,,,,,,,,,,,,,,,,,,,,,,,,,,,,,,,,,,,,,,,,,,,,,,,,,,"SOD71024 HR PRECIPITATION (IN): 0.00 WEATHER(CODE):12  24 HR MAX TEMP (F): 8624 HR MIN TEMP (F): 53AVERAGE STATION PRESSURE:29.665 MINIMUM SEA LEVEL PRESSURE:29.96 TIME OF OCCURRENCE:0334 PEAK WIND SPEED (MPH): 23 PEAK WIND DIR (DEG):360 PEAK WIND TIME (LST):      FASTEST 2MIN SPEED (MPH): 16FASTEST 2MIN DIR (DEG):360 FASTEST 2MIN TIME (LST):     AVERAGE WIND SPEED (MPH): 5.7 24 HR AVG TEMP (F): 70DEPART FROM NORMAL:  8  HEATING DEGREE DAYS:  0 COOLING DEGREE DAYS:  5 LATEST DAY MAX TEMP (0700-1900 LST):86  LATEST NIGHT MIN TEMP(1900-0800 LST):67 HOURLY INCREMENTAL PRECIPITATION VALUES (IN):.00 0.00 0.00 0.00 0.00 0.00 0.00 0.00 0.00 0.00 0.00 0.00 0.00 0.00 0.00 0.00 0.00 0.00 0.00 0.00 0.00 0.00 0.00 0.00","SOD  ","6",,,,,,,,,,,,,,,,,,,,,,,,,"0421","1945",,"2005-11-07"
"72622794790","2021-06-10T00:56:00","FM-15","7",,,,,,,,,,,,,,,,,,,,,,,,,,,,,,,,,,,,,,"30.09","49","53","0.00",,"-0.01","1","86","30.08","CLR:00","29.73","10.00","51","060",,"3",,,,,,,,,,,,,,,,,,,,,,,,,,,,,,,,,,,,,"MET10806/10/21 00:56:02 METAR KART 100556Z 06003KT 10SM CLR 12/09 A3009 RMK AO2 SLP185 T01170094 10267 20111 51004","FM-15","7",,,,,,,,,,,,,,,,,,,,,,,,,,,,"2005-11-07"
"72622794790","2021-06-10T01:56:00","FM-15","7",,,,,,,,,,,,,,,,,,,,,,,,,,,,,,,,,,,,,,"30.08","47","51","0.00",,,,"86","30.07","CLR:00","29.72","10.00","49","080",,"5",,,,,,,,,,,,,,,,,,,,,,,,,,,,,,,,,,,,,"MET09006/10/21 01:56:02 METAR KART 100656Z 08004KT 10SM CLR 11/08 A3008 RMK AO2 SLP183 T01060083","FM-15","7",,,,,,,,,,,,,,,,,,,,,,,,,,,,"2005-11-07"
"72622794790","2021-06-10T02:56:00","FM-15","7",,,,,,,,,,,,,,,,,,,,,,,,,,,,,,,,,,,,,,"30.07","47","52","0.00",,,,"83","30.06","CLR:00","29.71","10.00","49","070",,"3",,,,,,,,,,,,,,,,,,,,,,,,,,,,,,,,,,,,,"MET09006/10/21 02:56:02 METAR KART 100756Z 07003KT 10SM CLR 11/08 A3007 RMK AO2 SLP179 T01110083","FM-15","7",,,,,,,,,,,,,,,,,,,,,,,,,,,,"2005-11-07"
"72622794790","2021-06-10T03:56:00","FM-15","7",,,,,,,,,,,,,,,,,,,,,,,,,,,,,,,,,,,,,,"30.08","47","50","0.00",,"+0.01","5","89","30.07","CLR:00","29.72","10.00","48","000",,"0",,,,,,,,,,,,,,,,,,,,,,,,,,,,,,,,,,,,,"MET09606/10/21 03:56:02 METAR KART 100856Z 00000KT 10SM CLR 10/08 A3008 RMK AO2 SLP184 T01000083 55002","FM-15","7",,,,,,,,,,,,,,,,,,,,,,,,,,,,"2005-11-07"
"72622794790","2021-06-10T04:56:00","FM-15","7",,,,,,,,,,,,,,,,,,,,,,,,,,,,,,,,,,,,,,"30.10","45","48","0.00",,,,"89","30.09","CLR:00","29.74","10.00","47","000",,"0",,,,,,,,,,,,,,,,,,,,,,,,,,,,,,,,,,,,,"MET09006/10/21 04:56:02 METAR KART 100956Z 00000KT 10SM CLR 09/07 A3010 RMK AO2 SLP190 T00890072","FM-15","7",,,,,,,,,,,,,,,,,,,,,,,,,,,,"2005-11-07"
"72622794790","2021-06-10T05:56:00","FM-15","7",,,,,,,,,,,,,,,,,,,,,,,,,,,,,,,,,,,,,,"30.10","50","55","0.00",,,,"83","30.08","CLR:00","29.74","10.00","52","040",,"5",,,,,,,,,,,,,,,,,,,,,,,,,,,,,,,,,,,,,"MET09006/10/21 05:56:02 METAR KART 101056Z 04004KT 10SM CLR 13/10 A3010 RMK AO2 SLP187 T01280100","FM-15","7",,,,,,,,,,,,,,,,,,,,,,,,,,,,"2005-11-07"
"72622794790","2021-06-10T06:56:00","FM-15","7",,,,,,,,,,,,,,,,,,,,,,,,,,,,,,,,,,,,,,"30.11","50","61","0.00",,"-0.03","1","67","30.10","CLR:00","29.75","10.00","55","050",,"8",,,,,,,,,,,,,,,,,,,,,,,,,,,,,,,,,,,,,"MET10806/10/21 06:56:02 METAR KART 101156Z 05007KT 10SM CLR 16/10 A3011 RMK AO2 SLP192 T01610100 10161 20083 51009","FM-15","7",,,,,,,,,,,,,,,,,,,,,,,,,,,,"2005-11-07"
"72622794790","2021-06-10T07:56:00","FM-15","7",,,,,,,,,,,,,,,,,,,,,,,,,,,,,,,,,,,,,,"30.13","49","66","0.00",,,,"54","30.11","CLR:00","29.77","10.00","57","050",,"13",,,,,,,,,,,,,,,,,,,,,,,,,,,,,,,,,,,,,"MET09006/10/21 07:56:02 METAR KART 101256Z 05011KT 10SM CLR 19/09 A3013 RMK AO2 SLP197 T01890094","FM-15","7",,,,,,,,,,,,,,,,,,,,,,,,,,,,"2005-11-07"
"72622794790","2021-06-10T08:56:00","FM-15","7",,,,,,,,,,,,,,,,,,,,,,,,,,,,,,,,,,,,,,"30.12","48","69","0.00",,,,"47","30.11","CLR:00","29.76","10.00","57","070",,"8",,,,,,,,,,,,,,,,,,,,,,,,,,,,,,,,,,,,,"MET09006/10/21 08:56:02 METAR KART 101356Z 07007KT 10SM CLR 21/09 A3012 RMK AO2 SLP195 T02060089","FM-15","7",,,,,,,,,,,,,,,,,,,,,,,,,,,,"2005-11-07"
"72622794790","2021-06-10T09:56:00","FM-15","7",,,,,,,,,,,,,,,,,,,,,,,,,,,,,,,,,,,,,,"30.12","47","73","0.00",,"-0.01","1","40","30.11","CLR:00","29.76","10.00","59","030",,"11",,,,,,,,,,,,,,,,,,,,,,,,,,,,,,,,,,,,,"MET09606/10/21 09:56:02 METAR KART 101456Z 03010KT 10SM CLR 23/08 A3012 RMK AO2 SLP195 T02280083 51002","FM-15","7",,,,,,,,,,,,,,,,,,,,,,,,,,,,"2005-11-07"
"72622794790","2021-06-10T10:56:00","FM-15","7",,,,,,,,,,,,,,,,,,,,,,,,,,,,,,,,,,,,,,"30.11","44","74","0.00",,,,"34","30.10","CLR:00","29.75","10.00","58","030",,"9",,,,,,,,,,,,,,,,,,,,,,,,,,,,,,,,,,,,,"MET09006/10/21 10:56:02 METAR KART 101556Z 03008KT 10SM CLR 23/07 A3011 RMK AO2 SLP193 T02330067","FM-15","7",,,,,,,,,,,,,,,,,,,,,,,,,,,,"2005-11-07"
"72622794790","2021-06-10T11:56:00","FM-15","7",,,,,,,,,,,,,,,,,,,,,,,,,,,,,,,,,,,,,,"30.10","44","76","0.00",,,,"32","30.09","CLR:00","29.74","10.00","59","020",,"13",,,,,,,,,,,,,,,,,,,,,,,,,,,,,,,,,,,,,"MET09006/10/21 11:56:02 METAR KART 101656Z 02011KT 10SM CLR 24/07 A3010 RMK AO2 SLP189 T02440067","FM-15","7",,,,,,,,,,,,,,,,,,,,,,,,,,,,"2005-11-07"
"72622794790","2021-06-10T12:56:00","FM-15","7",,,,,,,,,,,,,,,,,,,,,,,,,,,,,,,,,,,,,,"30.08","44","78","0.00",,"+0.04","8","30","30.07","CLR:00","29.72","10.00","59","010","18","13",,,,,,,,,,,,,,,,,,,,,,,,,,,,,,,,,,,,,"MET11106/10/21 12:56:02 METAR KART 101756Z 01011G16KT 10SM CLR 26/07 A3008 RMK AO2 SLP182 T02560067 10256 20161 58013","FM-15","7",,,,,,,,,,,,,,,,,,,,,,,,,,,,"2005-11-07"
"72622794790","2021-06-10T13:56:00","FM-15","7",,,,,,,,,,,,,,,,,,,,,,,,,,,,,,,,,,,,,,"30.07","44","78","0.00",,,,"30","30.05","CLR:00","29.71","10.00","59","010",,"11",,,,,,,,,,,,,,,,,,,,,,,,,,,,,,,,,,,,,"MET09006/10/21 13:56:02 METAR KART 101856Z 01010KT 10SM CLR 26/07 A3007 RMK AO2 SLP177 T02560067","FM-15","7",,,,,,,,,,,,,,,,,,,,,,,,,,,,"2005-11-07"
"72622794790","2021-06-10T14:56:00","FM-15","7",,,,,,,,,,,,,,,,,,,,,,,,,,,,,,,,,,,,,,"30.04","43","78","0.00",,,,"29","30.03","CLR:00","29.68","10.00","59","030",,"11",,,,,,,,,,,,,,,,,,,,,,,,,,,,,,,,,,,,,"MET09006/10/21 14:56:02 METAR KART 101956Z 03010KT 10SM CLR 26/06 A3004 RMK AO2 SLP170 T02560061","FM-15","7",,,,,,,,,,,,,,,,,,,,,,,,,,,,"2005-11-07"
"72622794790","2021-06-10T15:56:00","FM-15","7",,,,,,,,,,,,,,,,,,,,,,,,,,,,,,,,,,,,,,"30.03","44","78","0.00",,"+0.05","6","30","30.02","CLR:00","29.67","10.00","59","020",,"11",,,,,,,,,,,,,,,,,,,,,,,,,,,,,,,,,,,,,"MET09606/10/21 15:56:02 METAR KART 102056Z 02010KT 10SM CLR 26/07 A3003 RMK AO2 SLP166 T02560067 56017","FM-15","7",,,,,,,,,,,,,,,,,,,,,,,,,,,,"2005-11-07"
"72622794790","2021-06-10T16:56:00","FM-15","7",,,,,,,,,,,,,,,,,,,,,,,,,,,,,,,,,,,,,,"30.01","43","77","0.00",,,,"30","30.00","CLR:00","29.65","10.00","58","030",,"13",,,,,,,,,,,,,,,,,,,,,,,,,,,,,,,,,,,,,"MET09006/10/21 16:56:02 METAR KART 102156Z 03011KT 10SM CLR 25/06 A3001 RMK AO2 SLP159 T02500061","FM-15","7",,,,,,,,,,,,,,,,,,,,,,,,,,,,"2005-11-07"
"72622794790","2021-06-10T17:56:00","FM-15","7",,,,,,,,,,,,,,,,,,,,,,,,,,,,,,,,,,,,,,"30.00","42","75","0.00",,,,"31","29.99","CLR:00","29.64","10.00","57","040",,"10",,,,,,,,,,,,,,,,,,,,,,,,,,,,,,,,,,,,,"MET09006/10/21 17:56:02 METAR KART 102256Z 04009KT 10SM CLR 24/06 A3000 RMK AO2 SLP156 T02390056","FM-15","7",,,,,,,,,,,,,,,,,,,,,,,,,,,,"2005-11-07"
"72622794790","2021-06-10T18:56:00","FM-15","7",,,,,,,,,,,,,,,,,,,,,,,,,,,,,,,,,,,,,,"30.00","42","72","0.00",,"+0.02","6","34","29.99","CLR:00","29.64","10.00","56","030",,"9",,,,,,,,,,,,,,,,,,,,,,,,,,,,,,,,,,,,,"MET10806/10/21 18:56:02 METAR KART 102356Z 03008KT 10SM CLR 22/06 A3000 RMK AO2 SLP156 T02220056 10261 20222 56008","FM-15","7",,,,,,,,,,,,,,,,,,,,,,,,,,,,"2005-11-07"
"72622794790","2021-06-10T19:56:00","FM-15","7",,,,,,,,,,,,,,,,,,,,,,,,,,,,,,,,,,,,,,"30.01","45","63","0.00",,,,"52","29.99","CLR:00","29.65","10.00","54","050",,"7",,,,,,,,,,,,,,,,,,,,,,,,,,,,,,,,,,,,,"MET09006/10/21 19:56:01 METAR KART 110056Z 05006KT 10SM CLR 17/07 A3001 RMK AO2 SLP157 T01720072","FM-15","7",,,,,,,,,,,,,,,,,,,,,,,,,,,,"2005-11-07"
"72622794790","2021-06-10T20:56:00","FM-15","7",,,,,,,,,,,,,,,,,,,,,,,,,,,,,,,,,,,,,,"30.01","45","60","0.00",,,,"58","30.00","CLR:00","29.65","10.00","52","040",,"5",,,,,,,,,,,,,,,,,,,,,,,,,,,,,,,,,,,,,"MET09006/10/21 20:56:01 METAR KART 110156Z 04004KT 10SM CLR 16/07 A3001 RMK AO2 SLP159 T01560072","FM-15","7",,,,,,,,,,,,,,,,,,,,,,,,,,,,"2005-11-07"
"72622794790","2021-06-10T21:56:00","FM-15","7",,,,,,,,,,,,,,,,,,,,,,,,,,,,,,,,,,,,,,"30.01","45","60","0.00",,"-0.01","1","58","30.00","CLR:00","29.65","10.00","52","030",,"8",,,,,,,,,,,,,,,,,,,,,,,,,,,,,,,,,,,,,"MET09606/10/21 21:56:02 METAR KART 110256Z 03007KT 10SM CLR 16/07 A3001 RMK AO2 SLP160 T01560072 51003","FM-15","7",,,,,,,,,,,,,,,,,,,,,,,,,,,,"2005-11-07"
"72622794790","2021-06-10T22:56:00","FM-15","7",,,,,,,,,,,,,,,,,,,,,,,,,,,,,,,,,,,,,,"30.00","45","56","0.00",,,,"67","29.98","CLR:00","29.64","10.00","50","040",,"6",,,,,,,,,,,,,,,,,,,,,,,,,,,,,,,,,,,,,"MET09006/10/21 22:56:02 METAR KART 110356Z 04005KT 10SM CLR 13/07 A3000 RMK AO2 SLP154 T01330072","FM-15","7",,,,,,,,,,,,,,,,,,,,,,,,,,,,"2005-11-07"
"72622794790","2021-06-10T23:56:00","FM-15","7",,,,,,,,,,,,,,,,,,,,,,,,,,,,,,,,,,,,,,"29.98","45","55","0.00",,,,"69","29.97","CLR:00","29.62","10.00","50","040",,"3",,,,,,,,,,,,,,,,,,,,,,,,,,,,,,,,,,,,,"MET10006/10/21 23:56:02 METAR KART 110456Z 04003KT 10SM CLR 13/07 A2998 RMK AO2 SLP149 T01280072 402610083","FM-15","7",,,,,,,,,,,,,,,,,,,,,,,,,,,,"2005-11-07"
"72622794790","2021-06-10T23:59:00","SOD  ","6",,,,,,,,,,,,,,,,"63",,,"29.70",,"7.8","0","1.2","2","79","47","030","21","0.00",,,"030","16",,,,,,,,,,,,,,,,,,,,,,,,,,,,,,,,,,,,,,,,,,,,,,,,,,,,,,,,,"SOD69224 HR PRECIPITATION (IN): 0.00 24 HR MAX TEMP (F): 7924 HR MIN TEMP (F): 47AVERAGE STATION PRESSURE:29.705 MINIMUM SEA LEVEL PRESSURE:29.97 TIME OF OCCURRENCE:2359 PEAK WIND SPEED (MPH): 21 PEAK WIND DIR (DEG): 30 PEAK WIND TIME (LST):      FASTEST 2MIN SPEED (MPH): 16FASTEST 2MIN DIR (DEG): 30 FASTEST 2MIN TIME (LST):     AVERAGE WIND SPEED (MPH): 7.8 24 HR AVG TEMP (F): 63DEPART FROM NORMAL:  1  HEATING DEGREE DAYS:  2 COOLING DEGREE DAYS:  0 LATEST DAY MAX TEMP (0700-1900 LST):79  LATEST NIGHT MIN TEMP(1900-0800 LST):47 HOURLY INCREMENTAL PRECIPITATION VALUES (IN):.00 0.00 0.00 0.00 0.00 0.00 0.00 0.00 0.00 0.00 0.00 0.00 0.00 0.00 0.00 0.00 0.00 0.00 0.00 0.00 0.00 0.00 0.00 0.00","SOD  ","6",,,,,,,,,,,,,,,,,,,,,,,,,"0421","1946",,"2005-11-07"
"72622794790","2021-06-11T00:56:00","FM-15","7",,,,,,,,,,,,,,,,,,,,,,,,,,,,,,,,,,,,,,"29.98","46","54","0.00",,"+0.03","6","75","29.97","CLR:00","29.62","10.00","50","080",,"3",,,,,,,,,,,,,,,,,,,,,,,,,,,,,,,,,,,,,"MET10806/11/21 00:56:02 METAR KART 110556Z 08003KT 10SM CLR 12/08 A2998 RMK AO2 SLP149 T01220078 10222 20122 56010","FM-15","7",,,,,,,,,,,,,,,,,,,,,,,,,,,,"2005-11-07"
"72622794790","2021-06-11T01:56:00","FM-15","7",,,,,,,,,,,,,,,,,,,,,,,,,,,,,,,,,,,,,,"29.97","47","55","0.00",,,,"74","29.96","CLR:00","29.61","10.00","51","050",,"5",,,,,,,,,,,,,,,,,,,,,,,,,,,,,,,,,,,,,"MET09006/11/21 01:56:02 METAR KART 110656Z 05004KT 10SM CLR 13/08 A2997 RMK AO2 SLP146 T01280083","FM-15","7",,,,,,,,,,,,,,,,,,,,,,,,,,,,"2005-11-07"
"72622794790","2021-06-11T02:56:00","FM-15","7",,,,,,,,,,,,,,,,,,,,,,,,,,,,,,,,,,,,,,"29.96","48","55","0.00",,,,"77","29.95","CLR:00","29.60","10.00","51","050",,"6",,,,,,,,,,,,,,,,,,,,,,,,,,,,,,,,,,,,,"MET09006/11/21 02:56:02 METAR KART 110756Z 05005KT 10SM CLR 13/09 A2996 RMK AO2 SLP143 T01280089","FM-15","7",,,,,,,,,,,,,,,,,,,,,,,,,,,,"2005-11-07"
"72622794790","2021-06-11T03:56:00","FM-15","7",,,,,,,,,,,,,,,,,,,,,,,,,,,,,,,,,,,,,,"29.97","47","58","0.00",,"+0.01","5","67","29.96","FEW:02 80 SCT:04 110","29.61","10.00","52","020",,"8",,,,,,,,,,,,,,,,,,,,,,,,,,,,,,,,,,,,,"MET10606/11/21 03:56:02 METAR KART 110856Z 02007KT 10SM FEW080 SCT110 14/08 A2997 RMK AO2 SLP145 T01440083 55004","FM-15","7",,,,,,,,,,,,,,,,,,,,,,,,,,,,"2005-11-07"
"72622794790","2021-06-11T04:56:00","FM-15","7",,,,,,,,,,,,,,,,,,,,,,,,,,,,,,,,,,,,,,"29.98","47","58","0.00",,,,"67","29.96","FEW:02 80 OVC:08 100","29.62","10.00","52","050",,"9",,,,,,,,,,,,,,,,,,,,,,,,,,,,,,,,,,,,,"MET10006/11/21 04:56:02 METAR KART 110956Z 05008KT 10SM FEW080 OVC100 14/08 A2998 RMK AO2 SLP147 T01440083","FM-15","7",,,,,,,,,,,,,,,,,,,,,,,,,,,,"2005-11-07"
"72622794790","2021-06-11T05:56:00","FM-15","7",,,,,,,,,,,,,,,,,,,,,,,,,,,,,,,,,,,,,,"29.98","48","57","T","-RA:02 |RA |RA",,,"72","29.97","OVC:08 70","29.62","10.00","52","080",,"8",,,,,,,,,,,,,,,,,,,,,,,,,,,,,,,,,,,,,"MET10906/11/21 05:56:02 METAR KART 111056Z 08007KT 10SM -RA OVC070 14/09 A2998 RMK AO2 RAB49 SLP149 P0000 T01390089","FM-15","7",,,,,,,,,,,,,,,,,,,,,,,,,,,,"2005-11-07"
"72622794790","2021-06-11T06:56:00","FM-15","7",,,,,,,,,,,,,,,,,,,,,,,,,,,,,,,,,,,,,,"29.97","51","58","T",,"+0.00","8","78","29.96","OVC:08 70","29.61","10.00","54","170",,"5",,,,,,,,,,,,,,,,,,,,,,,,,,,,,,,,,,,,,"MET12906/11/21 06:56:02 METAR KART 111156Z 17004KT 10SM OVC070 14/11 A2997 RMK AO2 RAE33 SLP145 P0000 60000 T01440106 10150 20122 58001","FM-15","7",,,,,,,,,,,,,,,,,,,,,,,,,,,,"2005-11-07"
"72622794790","2021-06-11T07:56:00","FM-15","7",,,,,,,,,,,,,,,,,,,,,,,,,,,,,,,,,,,,,,"29.96","54","63","0.00",,,,"73","29.95","OVC:08 70","29.60","10.00","58","000",,"0",,,,,,,,,,,,,,,,,,,,,,,,,,,,,,,,,,,,,"MET09306/11/21 07:56:02 METAR KART 111256Z 00000KT 10SM OVC070 17/12 A2996 RMK AO2 SLP141 T01720122","FM-15","7",,,,,,,,,,,,,,,,,,,,,,,,,,,,"2005-11-07"
"72622794790","2021-06-11T08:56:00","FM-15","7",,,,,,,,,,,,,,,,,,,,,,,,,,,,,,,,,,,,,,"29.95","55","68","0.00",,,,"63","29.94","OVC:08 70","29.59","10.00","60","VRB",,"3",,,,,,,,,,,,,,,,,,,,,,,,,,,,,,,,,,,,,"MET09506/11/21 08:56:02 METAR KART 111356Z VRB03KT 10SM OVC070 20/13 A2995 RMK AO2 SLP140 T02000128 $","FM-15","7",,,,,,,,,,,,,,,,,,,,,,,,,,,,"2005-11-07"
"72622794790","2021-06-11T09:56:00","FM-15","7",,,,,,,,,,,,,,,,,,,,,,,,,,,,,,,,,,,,,,"29.95","57","69","0.00",,"+0.02","6","66","29.94","BKN:07 70 OVC:08 85","29.59","10.00","62","350",,"5",,,,,,,,,,,,,,,,,,,,,,,,,,,,,,,,,,,,,"MET10806/11/21 09:56:02 METAR KART 111456Z 35004KT 10SM BKN070 OVC085 21/14 A2995 RMK AO2 SLP138 T02060139 56007 $","FM-15","7",,,,,,,,,,,,,,,,,,,,,,,,,,,,"2005-11-07"
"72622794790","2021-06-11T10:56:00","FM-15","7",,,,,,,,,,,,,,,,,,,,,,,,,,,,,,,,,,,,,,"29.94","58","72","0.00",,,,"61","29.93","OVC:08 65","29.58","10.00","64","000",,"0",,,,,,,,,,,,,,,,,,,,,,,,,,,,,,,,,,,,,"MET09506/11/21 10:56:02 METAR KART 111556Z 00000KT 10SM OVC065 22/14 A2994 RMK AO2 SLP135 T02220144 $","FM-15","7",,,,,,,,,,,,,,,,,,,,,,,,,,,,"2005-11-07"
"72622794790","2021-06-11T11:56:00","FM-15","7",,,,,,,,,,,,,,,,,,,,,,,,,,,,,,,,,,,,,,"29.93","56","72","0.00",,,,"57","29.92","OVC:08 65","29.57","10.00","63","000",,"0",,,,,,,,,,,,,,,,,,,,,,,,,,,,,,,,,,,,,"MET09306/11/21 11:56:02 METAR KART 111656Z 00000KT 10SM OVC065 22/13 A2993 RMK AO2 SLP131 T02220133","FM-15","7",,,,,,,,,,,,,,,,,,,,,,,,,,,,"2005-11-07"
"72622794790","2021-06-11T12:56:00","FM-15","7",,,,,,,,,,,,,,,,,,,,,,,,,,,,,,,,,,,,,,"29.91","56","74","0.00",,"+0.04","8","54","29.90","OVC:08 70","29.55","10.00","63","000",,"0",,,,,,,,,,,,,,,,,,,,,,,,,,,,,,,,,,,,,"MET11106/11/21 12:56:02 METAR KART 111756Z 00000KT 10SM OVC070 23/13 A2991 RMK AO2 SLP126 T02330133 10244 20144 58012","FM-15","7",,,,,,,,,,,,,,,,,,,,,,,,,,,,"2005-11-07"
"72622794790","2021-06-11T13:56:00","FM-15","7",,,,,,,,,,,,,,,,,,,,,,,,,,,,,,,,,,,,,,"29.90","59","74","T","-RA:02 |RA |RA",,,"60","29.89","FEW:02 42 BKN:07 70 OVC:08 95","29.54","10.00","65","270",,"6",,,,,,,,,,,,,,,,,,,,,,,,,,,,,,,,,,,,,"MET12306/11/21 13:56:02 METAR KART 111856Z 27005KT 10SM -RA FEW042 BKN070 OVC095 23/15 A2990 RMK AO2 RAB48 SLP121 P0000 T02330150","FM-15","7",,,,,,,,,,,,,,,,,,,,,,,,,,,,"2005-11-07"
"72622794790","2021-06-11T14:56:00","FM-15","7",,,,,,,,,,,,,,,,,,,,,,,,,,,,,,,,,,,,,,"29.90","58","71","T",,,,"63","29.89","FEW:02 50 BKN:07 80 OVC:08 110","29.54","10.00","63","010",,"9",,,,,,,,,,,,,,,,,,,,,,,,,,,,,,,,,,,,,"MET11906/11/21 14:56:02 METAR KART 111956Z 01008KT 10SM FEW050 BKN080 OVC110 22/14 A2990 RMK AO2 RAE04 SLP121 P0000 T02170144","FM-15","7",,,,,,,,,,,,,,,,,,,,,,,,,,,,"2005-11-07"
"72622794790","2021-06-11T15:56:00","FM-15","7",,,,,,,,,,,,,,,,,,,,,,,,,,,,,,,,,,,,,,"29.89","58","66","0.01s","-RA:02 |RA |RA","+0.02","6","75","29.88","OVC:08 110","29.53","10.00","61","030",,"10",,,,,,,,,,,,,,,,,,,,,,,,,,,,,,,,,,,,,"MET12306/11/21 15:56:02 METAR KART 112056Z 03009KT 10SM -RA OVC110 19/14 A2989 RMK AO2 RAB1959 SLP119 P0000 60000 T01890144 56007","FM-15","7",,,,,,,,,,,,,,,,,,,,,,,,,,,,"2005-11-07"
"72622794790","2021-06-11T16:56:00","FM-15","7",,,,,,,,,,,,,,,,,,,,,,,,,,,,,,,,,,,,,,"29.88","59","65","0.01","-RA:02 |RA |RA",,,"81","29.87","BKN:07 90 OVC:08 110","29.52","10.00","61","050",,"7",,,,,,,,,,,,,,,,,,,,,,,,,,,,,,,,,,,,,"MET11006/11/21 16:56:02 METAR KART 112156Z 05006KT 10SM -RA BKN090 OVC110 18/15 A2988 RMK AO2 SLP115 P0002 T01830150","FM-15","7",,,,,,,,,,,,,,,,,,,,,,,,,,,,"2005-11-07"
"72622794790","2021-06-11T17:56:00","FM-15","7",,,,,,,,,,,,,,,,,,,,,,,,,,,,,,,,,,,,,,"29.88","60","65","T","-RA:02 |RA |RA",,,"84","29.87","OVC:08 60","29.52","10.00","62","060",,"8",,,,,,,,,,,,,,,,,,,,,,,,,,,,,,,,,,,,,"MET11206/11/21 17:56:02 METAR KART 112256Z 06007KT 10SM -RA OVC060 18/16 A2988 RMK AO2 RAE21B42 SLP115 P0000 T01830156","FM-15","7",,,,,,,,,,,,,,,,,,,,,,,,,,,,"2005-11-07"
"72622794790","2021-06-11T18:56:00","FM-15","7",,,,,,,,,,,,,,,,,,,,,,,,,,,,,,,,,,,,,,"29.87","58","63","T",,"+0.02","6","84","29.86","OVC:08 70","29.51","10.00","60","070",,"10",,,,,,,,,,,,,,,,,,,,,,,,,,,,,,,,,,,,,"MET12906/11/21 18:56:02 METAR KART 112356Z 07009KT 10SM OVC070 17/14 A2987 RMK AO2 RAE46 SLP112 P0000 60002 T01720144 10250 20172 56006","FM-15","7",,,,,,,,,,,,,,,,,,,,,,,,,,,,"2005-11-07"
"72622794790","2021-06-11T19:56:00","FM-15","7",,,,,,,,,,,,,,,,,,,,,,,,,,,,,,,,,,,,,,"29.87","58","62","0.00",,,,"86","29.86","OVC:08 60","29.51","10.00","60","060",,"8",,,,,,,,,,,,,,,,,,,,,,,,,,,,,,,,,,,,,"MET09306/11/21 19:56:01 METAR KART 120056Z 06007KT 10SM OVC060 17/14 A2987 RMK AO2 SLP111 T01670144","FM-15","7",,,,,,,,,,,,,,,,,,,,,,,,,,,,"2005-11-07"
"72622794790","2021-06-11T20:56:00","FM-15","7",,,,,,,,,,,,,,,,,,,,,,,,,,,,,,,,,,,,,,"29.86","58","62","0.00",,,,"86","29.85","BKN:07 50 OVC:08 60","29.50","10.00","60","080",,"6",,,,,,,,,,,,,,,,,,,,,,,,,,,,,,,,,,,,,"MET10006/11/21 20:56:01 METAR KART 120156Z 08005KT 10SM BKN050 OVC060 17/14 A2986 RMK AO2 SLP108 T01670144","FM-15","7",,,,,,,,,,,,,,,,,,,,,,,,,,,,"2005-11-07"
"72622794790","2021-06-11T21:56:00","FM-15","7",,,,,,,,,,,,,,,,,,,,,,,,,,,,,,,,,,,,,,"29.87","57","63","0.00",,"-0.00","3","81","29.86","BKN:07 48 OVC:08 60","29.51","10.00","60","080",,"5",,,,,,,,,,,,,,,,,,,,,,,,,,,,,,,,,,,,,"MET10606/11/21 21:56:02 METAR KART 120256Z 08004KT 10SM BKN048 OVC060 17/14 A2987 RMK AO2 SLP113 T01720139 53001","FM-15","7",,,,,,,,,,,,,,,,,,,,,,,,,,,,"2005-11-07"
"72622794790","2021-06-11T22:56:00","FM-15","7",,,,,,,,,,,,,,,,,,,,,,,,,,,,,,,,,,,,,,"29.88","58","62","T","-RA:02 |RA |RA",,,"86","29.87","FEW:02 47 OVC:08 55","29.52","10.00","60","010",,"8",,,,,,,,,,,,,,,,,,,,,,,,,,,,,,,,,,,,,"MET11606/11/21 22:56:02 METAR KART 120356Z 01007KT 10SM -RA FEW047 OVC055 17/14 A2988 RMK AO2 RAB56 SLP115 P0000 T01670144","FM-15","7",,,,,,,,,,,,,,,,,,,,,,,,,,,,"2005-11-07"
"72622794790","2021-06-11T23:56:00","FM-15","7",,,,,,,,,,,,,,,,,,,,,,,,,,,,,,,,,,,,,,"29.88","59","61","0.01",,,,"93","29.86","OVC:08 55","29.52","10.00","60","060",,"5",,,,,,,,,,,,,,,,,,,,,,,,,,,,,,,,,,,,,"MET11506/11/21 23:56:02 METAR KART 120456Z 06004KT 10SM OVC055 16/15 A2988 RMK AO2 RAE25 SLP113 P0001 T01610150 402500122","FM-15","7",,,,,,,,,,,,,,,,,,,,,,,,,,,,"2005-11-07"
"72622794790","2021-06-11T23:59:00","SOD  ","6",,,,,,,,,,,,,,,,"66",,,"29.57",,"5.6","1","4.0","0","77","54","010","17","0.03",,,"020","13","RA",,,,,,,,,,,,,,,,,,,,,,,,,,,,,,,,,,,,,,,,,,,,,,,,,,,,,,,,"SOD69224 HR PRECIPITATION (IN): 0.03 24 HR MAX TEMP (F): 7724 HR MIN TEMP (F): 54AVERAGE STATION PRESSURE:29.570 MINIMUM SEA LEVEL PRESSURE:29.85 TIME OF OCCURRENCE:2114 PEAK WIND SPEED (MPH): 17 PEAK WIND DIR (DEG): 10 PEAK WIND TIME (LST):      FASTEST 2MIN SPEED (MPH): 13FASTEST 2MIN DIR (DEG): 20 FASTEST 2MIN TIME (LST):     AVERAGE WIND SPEED (MPH): 5.6 24 HR AVG TEMP (F): 66DEPART FROM NORMAL:  3  HEATING DEGREE DAYS:  0 COOLING DEGREE DAYS:  1 LATEST DAY MAX TEMP (0700-1900 LST):77  LATEST NIGHT MIN TEMP(1900-0800 LST):54 HOURLY INCREMENTAL PRECIPITATION VALUES (IN):.00 0.00 0.00 0.00 0.00 T    T    0.00 0.00 0.00 0.00 0.00 0.00 T    T    0.01 0.01 T    T    0.00 0.00 0.00 T    0.01","SOD  ","6",,,,,,,,,,,,,,,,,,,,,,,,,"0421","1947",,"2005-11-07"
"72622794790","2021-06-12T00:56:00","FM-15","7",,,,,,,,,,,,,,,,,,,,,,,,,,,,,,,,,,,,,,"29.88","59","61","0.00",,"-0.00","1","93","29.87","OVC:08 60","29.52","10.00","60","020",,"3",,,,,,,,,,,,,,,,,,,,,,,,,,,,,,,,,,,,,"MET11706/12/21 00:56:02 METAR KART 120556Z 02003KT 10SM OVC060 16/15 A2988 RMK AO2 SLP114 60001 T01610150 10172 20161 51001","FM-15","7",,,,,,,,,,,,,,,,,,,,,,,,,,,,"2005-11-07"
"72622794790","2021-06-12T01:22:00","FM-16","7",,,,,,,,,,,,,,,,,,,,,,,,,,,,,,,,,,,,,,"29.87","59","61",,,,,"93",,"SCT:04 5 OVC:08 55","29.51","10.00","60","060",,"3",,,,,,,,,,,,,,,,,,,,,,,,,,,,,,,,,,,,,"MET09306/12/21 01:22:02 SPECI KART 120622Z 06003KT 10SM SCT005 OVC055 16/15 A2987 RMK AO2 T01610150","FM-16","7",,,,,,,,,,,,,,,,,,,,,,,,,,,,"2005-11-07"
"72622794790","2021-06-12T01:56:00","FM-15","7",,,,,,,,,,,,,,,,,,,,,,,,,,,,,,,,,,,,,,"29.85","59","61","T",,,,"93","29.84","OVC:08 65","29.49","10.00","60","090",,"5",,,,,,,,,,,,,,,,,,,,,,,,,,,,,,,,,,,,,"MET10806/12/21 01:56:02 METAR KART 120656Z 09004KT 10SM OVC065 16/15 A2985 RMK AO2 RAB35E44 SLP105 P0000 T01610150","FM-15","7",,,,,,,,,,,,,,,,,,,,,,,,,,,,"2005-11-07"
"72622794790","2021-06-12T02:56:00","FM-15","7",,,,,,,,,,,,,,,,,,,,,,,,,,,,,,,,,,,,,,"29.84","58","61","0.00",,,,"90","29.83","OVC:08 70","29.48","10.00","59","080",,"6",,,,,,,,,,,,,,,,,,,,,,,,,,,,,,,,,,,,,"MET09306/12/21 02:56:02 METAR KART 120756Z 08005KT 10SM OVC070 16/14 A2984 RMK AO2 SLP100 T01610144","FM-15","7",,,,,,,,,,,,,,,,,,,,,,,,,,,,"2005-11-07"
"72622794790","2021-06-12T03:56:00","FM-15","7",,,,,,,,,,,,,,,,,,,,,,,,,,,,,,,,,,,,,,"29.85","57","60","0.00",,"+0.03","5","90","29.84","SCT:04 75 SCT:04 110","29.49","10.00","58","030",,"5",,,,,,,,,,,,,,,,,,,,,,,,,,,,,,,,,,,,,"MET11206/12/21 03:56:02 METAR KART 120856Z 03004KT 10SM SCT075 SCT110 16/14 A2985 RMK AO2 SLP105 60000 T01560139 55009","FM-15","7",,,,,,,,,,,,,,,,,,,,,,,,,,,,"2005-11-07"
"72622794790","2021-06-12T04:56:00","FM-15","7",,,,,,,,,,,,,,,,,,,,,,,,,,,,,,,,,,,,,,"29.87","57","59","0.00",,,,"93","29.86","FEW:02 75 SCT:04 110","29.51","10.00","58","030",,"5",,,,,,,,,,,,,,,,,,,,,,,,,,,,,,,,,,,,,"MET10006/12/21 04:56:02 METAR KART 120956Z 03004KT 10SM FEW075 SCT110 15/14 A2987 RMK AO2 SLP112 T01500139","FM-15","7",,,,,,,,,,,,,,,,,,,,,,,,,,,,"2005-11-07"
"72622794790","2021-06-12T05:56:00","FM-15","7",,,,,,,,,,,,,,,,,,,,,,,,,,,,,,,,,,,,,,"29.87","58","63","0.00",,,,"84","29.86","CLR:00","29.51","10.00","60","080",,"5",,,,,,,,,,,,,,,,,,,,,,,,,,,,,,,,,,,,,"MET09006/12/21 05:56:02 METAR KART 121056Z 08004KT 10SM CLR 17/14 A2987 RMK AO2 SLP113 T01720144","FM-15","7",,,,,,,,,,,,,,,,,,,,,,,,,,,,"2005-11-07"
"72622794790","2021-06-12T06:56:00","FM-15","7",,,,,,,,,,,,,,,,,,,,,,,,,,,,,,,,,,,,,,"29.87","57","65","0.00",,"-0.02","1","76","29.87","CLR:00","29.51","10.00","60","060",,"7",,,,,,,,,,,,,,,,,,,,,,,,,,,,,,,,,,,,,"MET12006/12/21 06:56:02 METAR KART 121156Z 06006KT 10SM CLR 18/14 A2987 RMK AO2 SLP114 60000 70003 T01830139 10183 20144 51008","FM-15","7",,,,,,,,,,,,,,,,,,,,,,,,,,,,"2005-11-07"
"72622794790","2021-06-12T07:56:00","FM-15","7",,,,,,,,,,,,,,,,,,,,,,,,,,,,,,,,,,,,,,"29.88","57","69","0.00",,,,"66","29.87","CLR:00","29.52","10.00","62","080",,"3",,,,,,,,,,,,,,,,,,,,,,,,,,,,,,,,,,,,,"MET09006/12/21 07:56:02 METAR KART 121256Z 08003KT 10SM CLR 21/14 A2988 RMK AO2 SLP115 T02060139","FM-15","7",,,,,,,,,,,,,,,,,,,,,,,,,,,,"2005-11-07"
"72622794790","2021-06-12T08:56:00","FM-15","7",,,,,,,,,,,,,,,,,,,,,,,,,,,,,,,,,,,,,,"29.88","56","72","0.00",,,,"57","29.87","CLR:00","29.52","10.00","62","070",,"6",,,,,,,,,,,,,,,,,,,,,,,,,,,,,,,,,,,,,"MET09006/12/21 08:56:02 METAR KART 121356Z 07005KT 10SM CLR 22/13 A2988 RMK AO2 SLP116 T02220133","FM-15","7",,,,,,,,,,,,,,,,,,,,,,,,,,,,"2005-11-07"
"72622794790","2021-06-12T09:56:00","FM-15","7",,,,,,,,,,,,,,,,,,,,,,,,,,,,,,,,,,,,,,"29.89","54","75","0.00",,"-0.01","1","48","29.87","CLR:00","29.53","10.00","63","010",,"7",,,,,,,,,,,,,,,,,,,,,,,,,,,,,,,,,,,,,"MET09606/12/21 09:56:02 METAR KART 121456Z 01006KT 10SM CLR 24/12 A2989 RMK AO2 SLP115 T02390122 51003","FM-15","7",,,,,,,,,,,,,,,,,,,,,,,,,,,,"2005-11-07"
"72622794790","2021-06-12T10:56:00","FM-15","7",,,,,,,,,,,,,,,,,,,,,,,,,,,,,,,,,,,,,,"29.87","52","76","0.00",,,,"43","29.86","FEW:02 55","29.51","10.00","62","340",,"9",,,,,,,,,,,,,,,,,,,,,,,,,,,,,,,,,,,,,"MET09306/12/21 10:56:02 METAR KART 121556Z 34008KT 10SM FEW055 24/11 A2987 RMK AO2 SLP111 T02440111","FM-15","7",,,,,,,,,,,,,,,,,,,,,,,,,,,,"2005-11-07"
"72622794790","2021-06-12T11:56:00","FM-15","7",,,,,,,,,,,,,,,,,,,,,,,,,,,,,,,,,,,,,,"29.86","49","76","0.00",,,,"39","29.85","CLR:00","29.50","10.00","61","000",,"0",,,,,,,,,,,,,,,,,,,,,,,,,,,,,,,,,,,,,"MET09006/12/21 11:56:02 METAR KART 121656Z 00000KT 10SM CLR 24/09 A2986 RMK AO2 SLP107 T02440094","FM-15","7",,,,,,,,,,,,,,,,,,,,,,,,,,,,"2005-11-07"
"72622794790","2021-06-12T12:56:00","FM-15","7",,,,,,,,,,,,,,,,,,,,,,,,,,,,,,,,,,,,,,"29.85","49","79","0.00",,"+0.04","8","35","29.83","FEW:02 70","29.49","10.00","62","VRB",,"6",,,,,,,,,,,,,,,,,,,,,,,,,,,,,,,,,,,,,"MET11106/12/21 12:56:02 METAR KART 121756Z VRB05KT 10SM FEW070 26/09 A2985 RMK AO2 SLP102 T02610094 10267 20183 58013","FM-15","7",,,,,,,,,,,,,,,,,,,,,,,,,,,,"2005-11-07"
"72622794790","2021-06-12T13:56:00","FM-15","7",,,,,,,,,,,,,,,,,,,,,,,,,,,,,,,,,,,,,,"29.84","49","80","0.00",,,,"34","29.82","FEW:02 65","29.48","10.00","62","VRB",,"5",,,,,,,,,,,,,,,,,,,,,,,,,,,,,,,,,,,,,"MET09306/12/21 13:56:02 METAR KART 121856Z VRB04KT 10SM FEW065 27/09 A2984 RMK AO2 SLP099 T02670094","FM-15","7",,,,,,,,,,,,,,,,,,,,,,,,,,,,"2005-11-07"
"72622794790","2021-06-12T14:56:00","FM-15","7",,,,,,,,,,,,,,,,,,,,,,,,,,,,,,,,,,,,,,"29.84","48","79","0.00",,,,"34","29.82","SCT:04 70","29.48","10.00","61","VRB",,"3",,,,,,,,,,,,,,,,,,,,,,,,,,,,,,,,,,,,,"MET09306/12/21 14:56:02 METAR KART 121956Z VRB03KT 10SM SCT070 26/09 A2984 RMK AO2 SLP099 T02610089","FM-15","7",,,,,,,,,,,,,,,,,,,,,,,,,,,,"2005-11-07"
"72622794790","2021-06-12T15:56:00","FM-15","7",,,,,,,,,,,,,,,,,,,,,,,,,,,,,,,,,,,,,,"29.83","46","81","0.00",,"+0.01","6","29","29.82","CLR:00","29.47","10.00","61","VRB",,"3",,,,,,,,,,,,,,,,,,,,,,,,,,,,,,,,,,,,,"MET09606/12/21 15:56:02 METAR KART 122056Z VRB03KT 10SM CLR 27/08 A2983 RMK AO2 SLP098 T02720078 56004","FM-15","7",,,,,,,,,,,,,,,,,,,,,,,,,,,,"2005-11-07"
"72622794790","2021-06-12T16:56:00","FM-15","7",,,,,,,,,,,,,,,,,,,,,,,,,,,,,,,,,,,,,,"29.83","46","80","0.00",,,,"30","29.81","CLR:00","29.47","10.00","61","010",,"7",,,,,,,,,,,,,,,,,,,,,,,,,,,,,,,,,,,,,"MET09006/12/21 16:56:02 METAR KART 122156Z 01006KT 10SM CLR 27/08 A2983 RMK AO2 SLP096 T02670078","FM-15","7",,,,,,,,,,,,,,,,,,,,,,,,,,,,"2005-11-07"
"72622794790","2021-06-12T17:56:00","FM-15","7",,,,,,,,,,,,,,,,,,,,,,,,,,,,,,,,,,,,,,"29.82","45","79","0.00",,,,"30","29.81","CLR:00","29.47","10.00","60","350",,"8",,,,,,,,,,,,,,,,,,,,,,,,,,,,,,,,,,,,,"MET09006/12/21 17:56:02 METAR KART 122256Z 35007KT 10SM CLR 26/07 A2982 RMK AO2 SLP094 T02610072","FM-15","7",,,,,,,,,,,,,,,,,,,,,,,,,,,,"2005-11-07"
"72622794790","2021-06-12T18:56:00","FM-15","7",,,,,,,,,,,,,,,,,,,,,,,,,,,,,,,,,,,,,,"29.83","46","75","0.00",,"+0.01","5","36","29.81","CLR:00","29.47","10.00","59","000",,"0",,,,,,,,,,,,,,,,,,,,,,,,,,,,,,,,,,,,,"MET10806/12/21 18:56:02 METAR KART 122356Z 00000KT 10SM CLR 24/08 A2983 RMK AO2 SLP095 T02390078 10278 20228 55003","FM-15","7",,,,,,,,,,,,,,,,,,,,,,,,,,,,"2005-11-07"
"72622794790","2021-06-12T19:56:00","FM-15","7",,,,,,,,,,,,,,,,,,,,,,,,,,,,,,,,,,,,,,"29.83","52","64","0.00",,,,"65","29.82","CLR:00","29.47","10.00","57","150",,"3",,,,,,,,,,,,,,,,,,,,,,,,,,,,,,,,,,,,,"MET09006/12/21 19:56:01 METAR KART 130056Z 15003KT 10SM CLR 18/11 A2983 RMK AO2 SLP098 T01780111","FM-15","7",,,,,,,,,,,,,,,,,,,,,,,,,,,,"2005-11-07"
"72622794790","2021-06-12T20:56:00","FM-15","7",,,,,,,,,,,,,,,,,,,,,,,,,,,,,,,,,,,,,,"29.86","52","59","0.00",,,,"78","29.84","CLR:00","29.50","10.00","55","000",,"0",,,,,,,,,,,,,,,,,,,,,,,,,,,,,,,,,,,,,"MET09006/12/21 20:56:01 METAR KART 130156Z 00000KT 10SM CLR 15/11 A2986 RMK AO2 SLP106 T01500111","FM-15","7",,,,,,,,,,,,,,,,,,,,,,,,,,,,"2005-11-07"
"72622794790","2021-06-12T21:56:00","FM-15","7",,,,,,,,,,,,,,,,,,,,,,,,,,,,,,,,,,,,,,"29.86","51","56","0.00",,"-0.04","3","84","29.85","CLR:00","29.50","10.00","53","000",,"0",,,,,,,,,,,,,,,,,,,,,,,,,,,,,,,,,,,,,"MET09606/12/21 21:56:01 METAR KART 130256Z 00000KT 10SM CLR 13/11 A2986 RMK AO2 SLP109 T01330106 53013","FM-15","7",,,,,,,,,,,,,,,,,,,,,,,,,,,,"2005-11-07"
"72622794790","2021-06-12T22:56:00","FM-15","7",,,,,,,,,,,,,,,,,,,,,,,,,,,,,,,,,,,,,,"29.86","51","56","0.00",,,,"84","29.85","CLR:00","29.50","10.00","53","000",,"0",,,,,,,,,,,,,,,,,,,,,,,,,,,,,,,,,,,,,"MET09006/12/21 22:56:02 METAR KART 130356Z 00000KT 10SM CLR 13/11 A2986 RMK AO2 SLP107 T01330106","FM-15","7",,,,,,,,,,,,,,,,,,,,,,,,,,,,"2005-11-07"
"72622794790","2021-06-12T23:56:00","FM-15","7",,,,,,,,,,,,,,,,,,,,,,,,,,,,,,,,,,,,,,"29.85","50","54","0.00",,,,"87","29.84","CLR:00","29.49","10.00","52","080",,"3",,,,,,,,,,,,,,,,,,,,,,,,,,,,,,,,,,,,,"MET10006/12/21 23:56:02 METAR KART 130456Z 08003KT 10SM CLR 12/10 A2985 RMK AO2 SLP105 T01220100 402780111","FM-15","7",,,,,,,,,,,,,,,,,,,,,,,,,,,,"2005-11-07"
"72622794790","2021-06-12T23:59:00","SOD  ","6",,,,,,,,,,,,,,,,"67",,,"29.49",,"4.1","2","4.7","0","82","52","080","16","T",,,"330","13",,,,,,,,,,,,,,,,,,,,,,,,,,,,,,,,,,,,,,,,,,,,,,,,,,,,,,,,,"SOD69224 HR PRECIPITATION (IN):    T 24 HR MAX TEMP (F): 8224 HR MIN TEMP (F): 52AVERAGE STATION PRESSURE:29.495 MINIMUM SEA LEVEL PRESSURE:29.80 TIME OF OCCURRENCE:1819 PEAK WIND SPEED (MPH): 16 PEAK WIND DIR (DEG): 80 PEAK WIND TIME (LST):      FASTEST 2MIN SPEED (MPH): 13FASTEST 2MIN DIR (DEG):330 FASTEST 2MIN TIME (LST):     AVERAGE WIND SPEED (MPH): 4.1 24 HR AVG TEMP (F): 67DEPART FROM NORMAL:  4  HEATING DEGREE DAYS:  0 COOLING DEGREE DAYS:  2 LATEST DAY MAX TEMP (0700-1900 LST):82  LATEST NIGHT MIN TEMP(1900-0800 LST):58 HOURLY INCREMENTAL PRECIPITATION VALUES (IN):.00 T    0.00 0.00 0.00 0.00 0.00 0.00 0.00 0.00 0.00 0.00 0.00 0.00 0.00 0.00 0.00 0.00 0.00 0.00 0.00 0.00 0.00 0.00","SOD  ","6",,,,,,,,,,,,,,,,,,,,,,,,,"0421","1947",,"2005-11-07"
"72622794790","2021-06-13T00:56:00","FM-15","7",,,,,,,,,,,,,,,,,,,,,,,,,,,,,,,,,,,,,,"29.86","52","56","0.00",,"+0.01","5","87","29.85","CLR:00","29.50","10.00","54","000",,"0",,,,,,,,,,,,,,,,,,,,,,,,,,,,,,,,,,,,,"MET10806/13/21 00:56:02 METAR KART 130556Z 00000KT 10SM CLR 13/11 A2986 RMK AO2 SLP107 T01330111 10239 20111 55002","FM-15","7",,,,,,,,,,,,,,,,,,,,,,,,,,,,"2005-11-07"
"72622794790","2021-06-13T01:56:00","FM-15","7",,,,,,,,,,,,,,,,,,,,,,,,,,,,,,,,,,,,,,"29.86","51","54","0.00",,,,"90","29.85","CLR:00","29.50","10.00","52","130",,"5",,,,,,,,,,,,,,,,,,,,,,,,,,,,,,,,,,,,,"MET09006/13/21 01:56:02 METAR KART 130656Z 13004KT 10SM CLR 12/11 A2986 RMK AO2 SLP109 T01220106","FM-15","7",,,,,,,,,,,,,,,,,,,,,,,,,,,,"2005-11-07"
"72622794790","2021-06-13T02:56:00","FM-15","7",,,,,,,,,,,,,,,,,,,,,,,,,,,,,,,,,,,,,,"29.86","49","51","0.00",,,,"92","29.85","CLR:00","29.50","10.00","50","220",,"3",,,,,,,,,,,,,,,,,,,,,,,,,,,,,,,,,,,,,"MET09006/13/21 02:56:02 METAR KART 130756Z 22003KT 10SM CLR 11/09 A2986 RMK AO2 SLP108 T01060094","FM-15","7",,,,,,,,,,,,,,,,,,,,,,,,,,,,"2005-11-07"
"72622794790","2021-06-13T03:56:00","FM-15","7",,,,,,,,,,,,,,,,,,,,,,,,,,,,,,,,,,,,,,"29.86","47","52","0.00",,"-0.00","0","83","29.85","CLR:00","29.50","10.00","49","000",,"0",,,,,,,,,,,,,,,,,,,,,,,,,,,,,,,,,,,,,"MET09606/13/21 03:56:02 METAR KART 130856Z 00000KT 10SM CLR 11/08 A2986 RMK AO2 SLP108 T01110083 50001","FM-15","7",,,,,,,,,,,,,,,,,,,,,,,,,,,,"2005-11-07"
"72622794790","2021-06-13T04:56:00","FM-15","7",,,,,,,,,,,,,,,,,,,,,,,,,,,,,,,,,,,,,,"29.86","47","52","0.00",,,,"83","29.85","CLR:00","29.50","10.00","49","000",,"0",,,,,,,,,,,,,,,,,,,,,,,,,,,,,,,,,,,,,"MET09006/13/21 04:56:02 METAR KART 130956Z 00000KT 10SM CLR 11/08 A2986 RMK AO2 SLP108 T01110083","FM-15","7",,,,,,,,,,,,,,,,,,,,,,,,,,,,"2005-11-07"
"72622794790","2021-06-13T05:56:00","FM-15","7",,,,,,,,,,,,,,,,,,,,,,,,,,,,,,,,,,,,,,"29.87","52","59","0.00",,,,"78","29.86","CLR:00","29.51","10.00","55","000",,"0",,,,,,,,,,,,,,,,,,,,,,,,,,,,,,,,,,,,,"MET09006/13/21 05:56:02 METAR KART 131056Z 00000KT 10SM CLR 15/11 A2987 RMK AO2 SLP111 T01500111","FM-15","7",,,,,,,,,,,,,,,,,,,,,,,,,,,,"2005-11-07"
"72622794790","2021-06-13T06:56:00","FM-15","7",,,,,,,,,,,,,,,,,,,,,,,,,,,,,,,,,,,,,,"29.88","53","68","0.00",,"-0.01","3","59","29.86","CLR:00","29.52","10.00","59","000",,"0",,,,,,,,,,,,,,,,,,,,,,,,,,,,,,,,,,,,,"MET10806/13/21 06:56:02 METAR KART 131156Z 00000KT 10SM CLR 20/12 A2988 RMK AO2 SLP112 T02000117 10200 20100 53005","FM-15","7",,,,,,,,,,,,,,,,,,,,,,,,,,,,"2005-11-07"
"72622794790","2021-06-13T07:56:00","FM-15","7",,,,,,,,,,,,,,,,,,,,,,,,,,,,,,,,,,,,,,"29.86","53","75","0.00",,,,"46","29.85","CLR:00","29.50","10.00","62","000",,"0",,,,,,,,,,,,,,,,,,,,,,,,,,,,,,,,,,,,,"MET09006/13/21 07:56:02 METAR KART 131256Z 00000KT 10SM CLR 24/12 A2986 RMK AO2 SLP108 T02390117","FM-15","7",,,,,,,,,,,,,,,,,,,,,,,,,,,,"2005-11-07"
"72622794790","2021-06-13T08:56:00","FM-15","7",,,,,,,,,,,,,,,,,,,,,,,,,,,,,,,,,,,,,,"29.86","52","76","0.00",,,,"43","29.85","CLR:00","29.50","10.00","62","260",,"7",,,,,,,,,,,,,,,,,,,,,,,,,,,,,,,,,,,,,"MET09006/13/21 08:56:02 METAR KART 131356Z 26006KT 10SM CLR 24/11 A2986 RMK AO2 SLP108 T02440111","FM-15","7",,,,,,,,,,,,,,,,,,,,,,,,,,,,"2005-11-07"
"72622794790","2021-06-13T09:56:00","FM-15","7",,,,,,,,,,,,,,,,,,,,,,,,,,,,,,,,,,,,,,"29.87","48","78","0.00",,"+0.01","5","35","29.86","CLR:00","29.51","10.00","61","260",,"8",,,,,,,,,,,,,,,,,,,,,,,,,,,,,,,,,,,,,"MET09606/13/21 09:56:02 METAR KART 131456Z 26007KT 10SM CLR 26/09 A2987 RMK AO2 SLP111 T02560089 55002","FM-15","7",,,,,,,,,,,,,,,,,,,,,,,,,,,,"2005-11-07"
"72622794790","2021-06-13T10:56:00","FM-15","7",,,,,,,,,,,,,,,,,,,,,,,,,,,,,,,,,,,,,,"29.86","48","79","0.00",,,,"34","29.85","CLR:00","29.50","10.00","61","280",,"9",,,,,,,,,,,,,,,,,,,,,,,,,,,,,,,,,,,,,"MET09006/13/21 10:56:02 METAR KART 131556Z 28008KT 10SM CLR 26/09 A2986 RMK AO2 SLP109 T02610089","FM-15","7",,,,,,,,,,,,,,,,,,,,,,,,,,,,"2005-11-07"
"72622794790","2021-06-13T11:56:00","FM-15","7",,,,,,,,,,,,,,,,,,,,,,,,,,,,,,,,,,,,,,"29.86","48","80","0.00",,,,"33","29.84","CLR:00","29.50","10.00","62","260",,"9",,,,,,,,,,,,,,,,,,,,,,,,,,,,,,,,,,,,,"MET09006/13/21 11:56:02 METAR KART 131656Z 26008KT 10SM CLR 27/09 A2986 RMK AO2 SLP106 T02670089","FM-15","7",,,,,,,,,,,,,,,,,,,,,,,,,,,,"2005-11-07"
"72622794790","2021-06-13T12:56:00","FM-15","7",,,,,,,,,,,,,,,,,,,,,,,,,,,,,,,,,,,,,,"29.84","50","81","0.00",,"+0.03","8","34","29.83","CLR:00","29.48","10.00","63","270",,"9",,,,,,,,,,,,,,,,,,,,,,,,,,,,,,,,,,,,,"MET10806/13/21 12:56:02 METAR KART 131756Z 27008KT 10SM CLR 27/10 A2984 RMK AO2 SLP100 T02720100 10278 20200 58009","FM-15","7",,,,,,,,,,,,,,,,,,,,,,,,,,,,"2005-11-07"
"72622794790","2021-06-13T13:56:00","FM-15","7",,,,,,,,,,,,,,,,,,,,,,,,,,,,,,,,,,,,,,"29.83","50","81","0.00",,,,"34","29.81","CLR:00","29.47","10.00","63","260",,"9",,,,,,,,,,,,,,,,,,,,,,,,,,,,,,,,,,,,,"MET09006/13/21 13:56:02 METAR KART 131856Z 26008KT 10SM CLR 27/10 A2983 RMK AO2 SLP096 T02720100","FM-15","7",,,,,,,,,,,,,,,,,,,,,,,,,,,,"2005-11-07"
"72622794790","2021-06-13T14:56:00","FM-15","7",,,,,,,,,,,,,,,,,,,,,,,,,,,,,,,,,,,,,,"29.82","51","81","0.00",,,,"35","29.80","CLR:00","29.47","10.00","63","260",,"10",,,,,,,,,,,,,,,,,,,,,,,,,,,,,,,,,,,,,"MET09006/13/21 14:56:02 METAR KART 131956Z 26009KT 10SM CLR 27/11 A2982 RMK AO2 SLP093 T02720106","FM-15","7",,,,,,,,,,,,,,,,,,,,,,,,,,,,"2005-11-07"
"72622794790","2021-06-13T15:56:00","FM-15","7",,,,,,,,,,,,,,,,,,,,,,,,,,,,,,,,,,,,,,"29.80","51","80","0.00",,"+0.04","6","37","29.79","OVC:08 75","29.44","10.00","63","260",,"7",,,,,,,,,,,,,,,,,,,,,,,,,,,,,,,,,,,,,"MET09906/13/21 15:56:02 METAR KART 132056Z 26006KT 10SM OVC075 27/11 A2980 RMK AO2 SLP088 T02670106 56013","FM-15","7",,,,,,,,,,,,,,,,,,,,,,,,,,,,"2005-11-07"
"72622794790","2021-06-13T16:56:00","FM-15","7",,,,,,,,,,,,,,,,,,,,,,,,,,,,,,,,,,,,,,"29.78","52","78","0.00",,,,"40","29.77","FEW:02 70 OVC:08 80","29.42","10.00","63","260",,"6",,,,,,,,,,,,,,,,,,,,,,,,,,,,,,,,,,,,,"MET10006/13/21 16:56:02 METAR KART 132156Z 26005KT 10SM FEW070 OVC080 26/11 A2978 RMK AO2 SLP081 T02560111","FM-15","7",,,,,,,,,,,,,,,,,,,,,,,,,,,,"2005-11-07"
"72622794790","2021-06-13T17:56:00","FM-15","7",,,,,,,,,,,,,,,,,,,,,,,,,,,,,,,,,,,,,,"29.77","53","78","0.00",,,,"42","29.75","FEW:02 80 SCT:04 100","29.41","10.00","63","270",,"7",,,,,,,,,,,,,,,,,,,,,,,,,,,,,,,,,,,,,"MET10006/13/21 17:56:02 METAR KART 132256Z 27006KT 10SM FEW080 SCT100 26/12 A2977 RMK AO2 SLP075 T02560117","FM-15","7",,,,,,,,,,,,,,,,,,,,,,,,,,,,"2005-11-07"
"72622794790","2021-06-13T18:56:00","FM-15","7",,,,,,,,,,,,,,,,,,,,,,,,,,,,,,,,,,,,,,"29.76","54","75","0.00",,"+0.04","6","48","29.74","BKN:07 65 OVC:08 85","29.41","10.00","63","000",,"0",,,,,,,,,,,,,,,,,,,,,,,,,,,,,,,,,,,,,"MET11806/13/21 18:56:02 METAR KART 132356Z 00000KT 10SM BKN065 OVC085 24/12 A2976 RMK AO2 SLP072 T02390122 10283 20233 56015","FM-15","7",,,,,,,,,,,,,,,,,,,,,,,,,,,,"2005-11-07"
"72622794790","2021-06-13T19:56:00","FM-15","7",,,,,,,,,,,,,,,,,,,,,,,,,,,,,,,,,,,,,,"29.75","58","70","0.00",,,,"66","29.73","SCT:04 120","29.39","10.00","63","150",,"5",,,,,,,,,,,,,,,,,,,,,,,,,,,,,,,,,,,,,"MET09306/13/21 19:56:01 METAR KART 140056Z 15004KT 10SM SCT120 21/14 A2975 RMK AO2 SLP069 T02110144","FM-15","7",,,,,,,,,,,,,,,,,,,,,,,,,,,,"2005-11-07"
"72622794790","2021-06-13T20:56:00","FM-15","7",,,,,,,,,,,,,,,,,,,,,,,,,,,,,,,,,,,,,,"29.75","58","67","0.00",,,,"73","29.74","SCT:04 70","29.39","10.00","62","070",,"3",,,,,,,,,,,,,,,,,,,,,,,,,,,,,,,,,,,,,"MET10506/13/21 20:56:01 METAR KART 140156Z 07003KT 10SM SCT070 19/14 A2975 RMK AO2 LTG DSNT NE SLP071 T01940144","FM-15","7",,,,,,,,,,,,,,,,,,,,,,,,,,,,"2005-11-07"
"72622794790","2021-06-13T21:56:00","FM-15","7",,,,,,,,,,,,,,,,,,,,,,,,,,,,,,,,,,,,,,"29.73","57","66","0.00",,"+0.03","8","73","29.71","FEW:02 65","29.38","10.00","61","000",,"0",,,,,,,,,,,,,,,,,,,,,,,,,,,,,,,,,,,,,"MET11706/13/21 21:56:01 METAR KART 140256Z 00000KT 10SM FEW065 19/14 A2973 RMK AO2 LTG DSNT W AND NW SLP062 T01890139 58009","FM-15","7",,,,,,,,,,,,,,,,,,,,,,,,,,,,"2005-11-07"
"72622794790","2021-06-13T22:50:00","FM-16","7",,,,,,,,,,,,,,,,,,,,,,,,,,,,,,,,,,,,,,"29.73","59","66","T","TS:7 -RA:02 |RA TS TS |RA",,,"78",,"OVC:08 70","29.38","10.00","62","000",,"0",,,,,,,,,,,,,,,,,,,,,,,,,,,,,,,,,,,,,"MET11506/13/21 22:50:02 SPECI KART 140350Z 00000KT 10SM -TSRA OVC070 19/15 A2973 RMK AO2 LTG DSNT ALQDS RAB41 TSB50 P0000","FM-16","7",,,,,,,,,,,,,,,,,,,,,,,,,,,,"2005-11-07"
"72622794790","2021-06-13T22:51:00","FM-15","7",,,,,,,,,,,,,,,,,,,,,,,,,,,,,,,,,,,,,,"29.73","60","66","0.02","TS:7 -RA:02 |RA TS TS |RA",,,"81","29.71","OVC:08 70","29.38","10.00","62","000",,"0",,,,,,,,,,,,,,,,,,,,,,,,,,,,,,,,,,,,,"MET13206/13/21 22:51:02 METAR KART 140351Z 00000KT 10SM -TSRA OVC070 19/16 A2973 RMK AO2 LTG DSNT ALQDS RAB41 TSB50 SLP062 P0000 T01890156","FM-15","7",,,,,,,,,,,,,,,,,,,,,,,,,,,,"2005-11-07"
"72622794790","2021-06-13T23:11:00","FM-16","7",,,,,,,,,,,,,,,,,,,,,,,,,,,,,,,,,,,,,,"29.81","62","65","0.12","TS:7 +RA:02 BR:1 |RA TS |RA",,,"90",,"FEW:02 41 BKN:07 55 OVC:08 70","29.45","2.50","63","240","31","16",,,,,,,,,,,,,,,,,,,,,,,,,,,,,,,,,,,,,"MET17206/13/21 23:11:02 SPECI KART 140411Z 24014G27KT 2 1/2SM +TSRA BR FEW041 BKN055 OVC070 18/17 A2981 RMK AO2 PK WND 26028/0359 WSHFT 0357 LTG DSNT ALQDS PRESRR P0012 T01830167","FM-16","7",,,,,,,,,,,,,,,,,,,,,,,,,,,,"2005-11-07"
"72622794790","2021-06-13T23:19:00","FM-16","7",,,,,,,,,,,,,,,,,,,,,,,,,,,,,,,,,,,,,,"29.81","62","65","0.17","TS:7 +RA:02 BR:1 |RA TS |RA",,,"90",,"FEW:02 41 BKN:07 50 OVC:08 65","29.45","3.00","63","250",,"10",,,,,,,,,,,,,,,,,,,,,,,,,,,,,,,,,,,,,"MET15806/13/21 23:19:02 SPECI KART 140419Z 25009KT 3SM +TSRA BR FEW041 BKN050 OVC065 18/17 A2981 RMK AO2 PK WND 26028/0359 WSHFT 0357 LTG DSNT ALQDS P0017 T01830167","FM-16","7",,,,,,,,,,,,,,,,,,,,,,,,,,,,"2005-11-07"
"72622794790","2021-06-13T23:24:00","FM-16","7",,,,,,,,,,,,,,,,,,,,,,,,,,,,,,,,,,,,,,"29.81","62","65","0.24","TS:7 +RA:02 BR:1 |RA TS |RA",,,"90",,"BKN:07 45 OVC:08 60","29.45","1.75","63","220",,"7",,,,,,,,,,,,,,,,,,,,,,,,,,,,,,,,,,,,,"MET15506/13/21 23:24:02 SPECI KART 140424Z 22006KT 1 3/4SM +TSRA BR BKN045 OVC060 18/17 A2981 RMK AO2 PK WND 26028/0359 WSHFT 0357 LTG DSNT ALQDS P0024 T01830167","FM-16","7",,,,,,,,,,,,,,,,,,,,,,,,,,,,"2005-11-07"
"72622794790","2021-06-13T23:40:00","FM-16","7",,,,,,,,,,,,,,,,,,,,,,,,,,,,,,,,,,,,,,"29.79","62","64","0.34","TS:7 RA:02 BR:1 |RA TS |RA",,,"93",,"BKN:07 47 BKN:07 60 OVC:08 75","29.44","3.00","63","130",,"6",,,,,,,,,,,,,,,,,,,,,,,,,,,,,,,,,,,,,"MET15706/13/21 23:40:02 SPECI KART 140440Z 13005KT 3SM TSRA BR BKN047 BKN060 OVC075 18/17 A2979 RMK AO2 PK WND 26028/0359 WSHFT 0357 LTG DSNT ALQDS P0034 T01780167","FM-16","7",,,,,,,,,,,,,,,,,,,,,,,,,,,,"2005-11-07"
"72622794790","2021-06-13T23:56:00","FM-15","7",,,,,,,,,,,,,,,,,,,,,,,,,,,,,,,,,,,,,,"29.77","62","63","0.37","TS:7 RA:02 BR:1 |RA TS |RA",,,"97","29.75","FEW:02 45 OVC:08 75","29.41","3.00","62","000",,"0",,,,,,,,,,,,,,,,,,,,,,,,,,,,,,,,,,,,,"MET16706/13/21 23:56:02 METAR KART 140456Z 00000KT 3SM TSRA BR FEW045 OVC075 17/17 A2977 RMK AO2 PK WND 26028/0359 WSHFT 0357 LTG DSNT ALQDS SLP075 P0038 T01720167 402830100","FM-15","7",,,,,,,,,,,,,,,,,,,,,,,,,,,,"2005-11-07"
"72622794790","2021-06-13T23:59:00","SOD  ","6",,,,,,,,,,,,,,,,"67",,,"29.47",,"4.1","2","4.4","0","83","50","260","32","0.39",,,"260","23","TS RA BR",,,,,,,,,,,,,,,,,,,,,,,,,,,,,,,,,,,,,,,,,,,,,,,,,,,,,,,,"SOD71024 HR PRECIPITATION (IN): 0.39 WEATHER(CODE):13  24 HR MAX TEMP (F): 8324 HR MIN TEMP (F): 50AVERAGE STATION PRESSURE:29.470 MINIMUM SEA LEVEL PRESSURE:29.70 TIME OF OCCURRENCE:2246 PEAK WIND SPEED (MPH): 32 PEAK WIND DIR (DEG):260 PEAK WIND TIME (LST):      FASTEST 2MIN SPEED (MPH): 23FASTEST 2MIN DIR (DEG):260 FASTEST 2MIN TIME (LST):     AVERAGE WIND SPEED (MPH): 4.1 24 HR AVG TEMP (F): 67DEPART FROM NORMAL:  4  HEATING DEGREE DAYS:  0 COOLING DEGREE DAYS:  2 LATEST DAY MAX TEMP (0700-1900 LST):83  LATEST NIGHT MIN TEMP(1900-0800 LST):50 HOURLY INCREMENTAL PRECIPITATION VALUES (IN):.00 0.00 0.00 0.00 0.00 0.00 0.00 0.00 0.00 0.00 0.00 0.00 0.00 0.00 0.00 0.00 0.00 0.00 0.00 0.00 0.00 0.00 0.02 0.37","SOD  ","6",,,,,,,,,,,,,,,,,,,,,,,,,"0421","1948",,"2005-11-07"
"72622794790","2021-06-14T00:07:00","FM-16","7",,,,,,,,,,,,,,,,,,,,,,,,,,,,,,,,,,,,,,"29.77","61","63","0.03","VCTS:7 RA:02 BR:1 |RA |RA",,,"93",,"OVC:08 75","29.41","4.00","62","160",,"7",,,,,,,,,,,,,,,,,,,,,,,,,,,,,,,,,,,,,"MET12306/14/21 00:07:02 SPECI KART 140507Z 16006KT 4SM VCTS RA BR OVC075 17/16 A2977 RMK AO2 LTG DSNT ALQDS TSE01 P0003 T01720161","FM-16","7",,,,,,,,,,,,,,,,,,,,,,,,,,,,"2005-11-07"
"72622794790","2021-06-14T00:29:00","FM-16","7",,,,,,,,,,,,,,,,,,,,,,,,,,,,,,,,,,,,,,"29.75","61","63","0.05","-RA:02 |RA |RA",,,"93",,"FEW:02 75 OVC:08 100","29.39","9.00","62","VRB",,"3",,,,,,,,,,,,,,,,,,,,,,,,,,,,,,,,,,,,,"MET12306/14/21 00:29:02 SPECI KART 140529Z VRB03KT 9SM -RA FEW075 OVC100 17/16 A2975 RMK AO2 LTG DSNT ALQDS TSE01 P0005 T01720161","FM-16","7",,,,,,,,,,,,,,,,,,,,,,,,,,,,"2005-11-07"
"72622794790","2021-06-14T00:56:00","FM-15","7",,,,,,,,,,,,,,,,,,,,,,,,,,,,,,,,,,,,,,"29.75","61","63","0.07","-RA:02 |RA |RA","-0.02","0","93","29.74","BKN:07 95 OVC:08 110","29.39","10.00","62","070",,"5",,,,,,,,,,,,,,,,,,,,,,,,,,,,,,,,,,,,,"MET15406/14/21 00:56:02 METAR KART 140556Z 07004KT 10SM -RA BKN095 OVC110 17/16 A2975 RMK AO2 LTG DSNT N-SE TSE01 SLP070 P0008 60046 T01720161 10239 20172 50008","FM-15","7",,,,,,,,,,,,,,,,,,,,,,,,,,,,"2005-11-07"
"72622794790","2021-06-14T01:56:00","FM-15","7",,,,,,,,,,,,,,,,,,,,,,,,,,,,,,,,,,,,,,"29.72","60","63","T",,,,"90","29.71","BKN:07 90 BKN:07 110","29.36","10.00","61","160",,"6",,,,,,,,,,,,,,,,,,,,,,,,,,,,,,,,,,,,,"MET11206/14/21 01:56:02 METAR KART 140656Z 16005KT 10SM BKN090 BKN110 17/16 A2972 RMK AO2 RAE40 SLP060 P0000 T01720156","FM-15","7",,,,,,,,,,,,,,,,,,,,,,,,,,,,"2005-11-07"
"72622794790","2021-06-14T02:56:00","FM-15","7",,,,,,,,,,,,,,,,,,,,,,,,,,,,,,,,,,,,,,"29.73","60","62","0.00",,,,"93","29.71","BKN:07 95 BKN:07 110","29.38","10.00","61","000",,"0",,,,,,,,,,,,,,,,,,,,,,,,,,,,,,,,,,,,,"MET10006/14/21 02:56:02 METAR KART 140756Z 00000KT 10SM BKN095 BKN110 17/16 A2973 RMK AO2 SLP061 T01670156","FM-15","7",,,,,,,,,,,,,,,,,,,,,,,,,,,,"2005-11-07"
"72622794790","2021-06-14T03:56:00","FM-15","7",,,,,,,,,,,,,,,,,,,,,,,,,,,,,,,,,,,,,,"29.73","58","60","0.00",,"+0.02","5","93","29.72","SCT:04 95","29.38","10.00","59","000",,"0",,,,,,,,,,,,,,,,,,,,,,,,,,,,,,,,,,,,,"MET10506/14/21 03:56:02 METAR KART 140856Z 00000KT 10SM SCT095 16/14 A2973 RMK AO2 SLP064 60000 T01560144 55006","FM-15","7",,,,,,,,,,,,,,,,,,,,,,,,,,,,"2005-11-07"
"72622794790","2021-06-14T04:56:00","FM-15","7",,,,,,,,,,,,,,,,,,,,,,,,,,,,,,,,,,,,,,"29.73","58","60","0.00",,,,"93","29.72","FEW:02 55 BKN:07 70 BKN:07 90","29.38","10.00","59","000",,"0",,,,,,,,,,,,,,,,,,,,,,,,,,,,,,,,,,,,,"MET10706/14/21 04:56:02 METAR KART 140956Z 00000KT 10SM FEW055 BKN070 BKN090 16/14 A2973 RMK AO2 SLP064 T01560144","FM-15","7",,,,,,,,,,,,,,,,,,,,,,,,,,,,"2005-11-07"
"72622794790","2021-06-14T05:39:00","FM-16","7",,,,,,,,,,,,,,,,,,,,,,,,,,,,,,,,,,,,,,"29.73","60","62",,,,,"93",,"BKN:07 19 BKN:07 60 OVC:08 70","29.38","10.00","61","000",,"0",,,,,,,,,,,,,,,,,,,,,,,,,,,,,,,,,,,,,"MET10006/14/21 05:39:02 SPECI KART 141039Z 00000KT 10SM BKN019 BKN060 OVC070 17/16 A2973 RMK AO2 T01670156","FM-16","7",,,,,,,,,,,,,,,,,,,,,,,,,,,,"2005-11-07"
"72622794790","2021-06-14T05:54:00","FM-16","6",,,,,,,,,,,,,,,,,,,,,,,,,,,,,,,,,,,,,,"29.74","61","63",,,,,"94",,"BKN:07 14 BKN:07 19","29.39","10.00","62","000",,"0",,,,,,,,,,,,,,,,,,,,,,,,,,,,,,,,,,,,,"MET08806/14/21 05:54:02 SPECI KART 141054Z 00000KT 10SM BKN014 BKN019 17/16 A2974 RMK AO2 FIBI","FM-16","6",,,,,,,,,,,,,,,,,,,,,,,,,,,,"2005-11-07"
"72622794790","2021-06-14T05:56:00","FM-15","7",,,,,,,,,,,,,,,,,,,,,,,,,,,,,,,,,,,,,,"29.74","60","63","0.00",,,,"90","29.72","BKN:07 15 BKN:07 21","29.39","10.00","61","220",,"3",,,,,,,,,,,,,,,,,,,,,,,,,,,,,,,,,,,,,"MET10006/14/21 05:56:02 METAR KART 141056Z 22003KT 10SM BKN015 BKN021 17/16 A2974 RMK AO2 SLP065 T01720156","FM-15","7",,,,,,,,,,,,,,,,,,,,,,,,,,,,"2005-11-07"
"72622794790","2021-06-14T06:29:00","FM-16","7",,,,,,,,,,,,,,,,,,,,,,,,,,,,,,,,,,,,,,"29.74","62","65",,,,,"90",,"SCT:04 13","29.39","10.00","63","210",,"5",,,,,,,,,,,,,,,,,,,,,,,,,,,,,,,,,,,,,"MET08606/14/21 06:29:02 SPECI KART 141129Z 21004KT 10SM SCT013 18/17 A2974 RMK AO2 T01830167","FM-16","7",,,,,,,,,,,,,,,,,,,,,,,,,,,,"2005-11-07"
"72622794790","2021-06-14T06:56:00","FM-15","7",,,,,,,,,,,,,,,,,,,,,,,,,,,,,,,,,,,,,,"29.74","63","67","0.00",,"-0.01","3","87","29.73","CLR:00","29.39","10.00","65","220",,"9",,,,,,,,,,,,,,,,,,,,,,,,,,,,,,,,,,,,,"MET12006/14/21 06:56:02 METAR KART 141156Z 22008KT 10SM CLR 19/17 A2974 RMK AO2 SLP067 60000 70046 T01940172 10194 20150 53003","FM-15","7",,,,,,,,,,,,,,,,,,,,,,,,,,,,"2005-11-07"
"72622794790","2021-06-14T07:14:00","FM-16","7",,,,,,,,,,,,,,,,,,,,,,,,,,,,,,,,,,,,,,"29.75","62","66",,,,,"87",,"BKN:07 10 BKN:07 13","29.39","10.00","64","220","18","9",,,,,,,,,,,,,,,,,,,,,,,,,,,,,,,,,,,,,"MET10806/14/21 07:14:02 SPECI KART 141214Z 22008G16KT 10SM BKN010 BKN013 19/17 A2975 RMK AO2 CIG 008V011 T01890167","FM-16","7",,,,,,,,,,,,,,,,,,,,,,,,,,,,"2005-11-07"
"72622794790","2021-06-14T07:39:00","FM-16","7",,,,,,,,,,,,,,,,,,,,,,,,,,,,,,,,,,,,,,"29.75","61","66",,,,,"84",,"SCT:04 9 BKN:07 15 BKN:07 60","29.39","10.00","63","210",,"10",,,,,,,,,,,,,,,,,,,,,,,,,,,,,,,,,,,,,"MET10006/14/21 07:39:02 SPECI KART 141239Z 21009KT 10SM SCT009 BKN015 BKN060 19/16 A2975 RMK AO2 T01890161","FM-16","7",,,,,,,,,,,,,,,,,,,,,,,,,,,,"2005-11-07"
"72622794790","2021-06-14T07:46:00","FM-16","7",,,,,,,,,,,,,,,,,,,,,,,,,,,,,,,,,,,,,,"29.75","62","66",,,,,"87",,"BKN:07 12 BKN:07 60","29.39","10.00","64","210",,"10",,,,,,,,,,,,,,,,,,,,,,,,,,,,,,,,,,,,,"MET09306/14/21 07:46:02 SPECI KART 141246Z 21009KT 10SM BKN012 BKN060 19/17 A2975 RMK AO2 T01890167","FM-16","7",,,,,,,,,,,,,,,,,,,,,,,,,,,,"2005-11-07"
"72622794790","2021-06-14T07:54:00","FM-16","6",,,,,,,,,,,,,,,,,,,,,,,,,,,,,,,,,,,,,,"29.75","63","68",,,,,"83",,"SCT:04 12","29.39","10.00","65","210",,"7",,,,,,,,,,,,,,,,,,,,,,,,,,,,,,,,,,,,,"MET08106/14/21 07:54:02 SPECI KART 141254Z 21006KT 10SM SCT012 20/17 A2975 RMK AO2 FIBI","FM-16","6",,,,,,,,,,,,,,,,,,,,,,,,,,,,"2005-11-07"
"72622794790","2021-06-14T07:56:00","FM-15","7",,,,,,,,,,,,,,,,,,,,,,,,,,,,,,,,,,,,,,"29.75","62","68","0.00",,,,"81","29.73","FEW:02 12","29.39","10.00","64","210",,"8",,,,,,,,,,,,,,,,,,,,,,,,,,,,,,,,,,,,,"MET09306/14/21 07:56:02 METAR KART 141256Z 21007KT 10SM FEW012 20/17 A2975 RMK AO2 SLP068 T02000167","FM-15","7",,,,,,,,,,,,,,,,,,,,,,,,,,,,"2005-11-07"
"72622794790","2021-06-14T08:56:00","FM-15","7",,,,,,,,,,,,,,,,,,,,,,,,,,,,,,,,,,,,,,"29.74","61","70","0.00",,,,"73","29.72","FEW:02 16 SCT:04 65","29.39","10.00","64","190",,"8",,,,,,,,,,,,,,,,,,,,,,,,,,,,,,,,,,,,,"MET10006/14/21 08:56:02 METAR KART 141356Z 19007KT 10SM FEW016 SCT065 21/16 A2974 RMK AO2 SLP065 T02110161","FM-15","7",,,,,,,,,,,,,,,,,,,,,,,,,,,,"2005-11-07"
"72622794790","2021-06-14T09:56:00","FM-15","7",,,,,,,,,,,,,,,,,,,,,,,,,,,,,,,,,,,,,,"29.74","61","70","0.00",,"+0.01","5","73","29.73","FEW:02 18 SCT:04 70","29.39","10.00","64","210",,"14",,,,,,,,,,,,,,,,,,,,,,,,,,,,,,,,,,,,,"MET10606/14/21 09:56:02 METAR KART 141456Z 21012KT 10SM FEW018 SCT070 21/16 A2974 RMK AO2 SLP067 T02110161 55002","FM-15","7",,,,,,,,,,,,,,,,,,,,,,,,,,,,"2005-11-07"
"72622794790","2021-06-14T10:56:00","FM-15","7",,,,,,,,,,,,,,,,,,,,,,,,,,,,,,,,,,,,,,"29.75","60","71","0.00",,,,"68","29.73","FEW:02 21","29.39","10.00","64","210",,"14",,,,,,,,,,,,,,,,,,,,,,,,,,,,,,,,,,,,,"MET09306/14/21 10:56:02 METAR KART 141556Z 21012KT 10SM FEW021 22/16 A2975 RMK AO2 SLP068 T02170156","FM-15","7",,,,,,,,,,,,,,,,,,,,,,,,,,,,"2005-11-07"
"72622794790","2021-06-14T11:56:00","FM-15","7",,,,,,,,,,,,,,,,,,,,,,,,,,,,,,,,,,,,,,"29.74","59","74","0.00",,,,"60","29.72","CLR:00","29.39","10.00","65","230","21","11",,,,,,,,,,,,,,,,,,,,,,,,,,,,,,,,,,,,,"MET09306/14/21 11:56:02 METAR KART 141656Z 23010G18KT 10SM CLR 23/15 A2974 RMK AO2 SLP066 T02330150","FM-15","7",,,,,,,,,,,,,,,,,,,,,,,,,,,,"2005-11-07"
"72622794790","2021-06-14T12:56:00","FM-15","7",,,,,,,,,,,,,,,,,,,,,,,,,,,,,,,,,,,,,,"29.75","59","70","0.00",,"-0.01","3","68","29.73","FEW:02 19","29.39","10.00","63","230","25","18",,,,,,,,,,,,,,,,,,,,,,,,,,,,,,,,,,,,,"MET11406/14/21 12:56:02 METAR KART 141756Z 23016G22KT 10SM FEW019 21/15 A2975 RMK AO2 SLP069 T02110150 10233 20189 53002","FM-15","7",,,,,,,,,,,,,,,,,,,,,,,,,,,,"2005-11-07"
"72622794790","2021-06-14T13:56:00","FM-15","7",,,,,,,,,,,,,,,,,,,,,,,,,,,,,,,,,,,,,,"29.74","59","66","0.00",,,,"78","29.73","FEW:02 34 BKN:07 43 BKN:07 50","29.39","10.00","62","230","25","17",,,,,,,,,,,,,,,,,,,,,,,,,,,,,,,,,,,,,"MET11006/14/21 13:56:02 METAR KART 141856Z 23015G22KT 10SM FEW034 BKN043 BKN050 19/15 A2974 RMK AO2 SLP069 T01890150","FM-15","7",,,,,,,,,,,,,,,,,,,,,,,,,,,,"2005-11-07"
"72622794790","2021-06-14T14:56:00","FM-15","7",,,,,,,,,,,,,,,,,,,,,,,,,,,,,,,,,,,,,,"29.75","57","65","0.00",,,,"76","29.74","BKN:07 110","29.39","10.00","60","250","21","14",,,,,,,,,,,,,,,,,,,,,,,,,,,,,,,,,,,,,"MET09606/14/21 14:56:02 METAR KART 141956Z 25012G18KT 10SM BKN110 18/14 A2975 RMK AO2 SLP071 T01830139","FM-15","7",,,,,,,,,,,,,,,,,,,,,,,,,,,,"2005-11-07"
"72622794790","2021-06-14T15:56:00","FM-15","7",,,,,,,,,,,,,,,,,,,,,,,,,,,,,,,,,,,,,,"29.76","56","63","0.00",,"-0.01","3","78","29.75","FEW:02 70 OVC:08 90","29.41","10.00","59","220",,"9",,,,,,,,,,,,,,,,,,,,,,,,,,,,,,,,,,,,,"MET10606/14/21 15:56:02 METAR KART 142056Z 22008KT 10SM FEW070 OVC090 17/13 A2976 RMK AO2 SLP073 T01720133 53003","FM-15","7",,,,,,,,,,,,,,,,,,,,,,,,,,,,"2005-11-07"
"72622794790","2021-06-14T16:56:00","FM-15","7",,,,,,,,,,,,,,,,,,,,,,,,,,,,,,,,,,,,,,"29.74","55","66","0.00",,,,"68","29.73","BKN:07 100","29.39","10.00","60","220",,"13",,,,,,,,,,,,,,,,,,,,,,,,,,,,,,,,,,,,,"MET09306/14/21 16:56:02 METAR KART 142156Z 22011KT 10SM BKN100 19/13 A2974 RMK AO2 SLP068 T01890128","FM-15","7",,,,,,,,,,,,,,,,,,,,,,,,,,,,"2005-11-07"
"72622794790","2021-06-14T17:56:00","FM-15","7",,,,,,,,,,,,,,,,,,,,,,,,,,,,,,,,,,,,,,"29.75","56","65","0.00",,,,"73","29.74","BKN:07 90 BKN:07 120","29.39","10.00","60","230",,"9",,,,,,,,,,,,,,,,,,,,,,,,,,,,,,,,,,,,,"MET10006/14/21 17:56:02 METAR KART 142256Z 23008KT 10SM BKN090 BKN120 18/13 A2975 RMK AO2 SLP071 T01830133","FM-15","7",,,,,,,,,,,,,,,,,,,,,,,,,,,,"2005-11-07"
"72622794790","2021-06-14T18:56:00","FM-15","7",,,,,,,,,,,,,,,,,,,,,,,,,,,,,,,,,,,,,,"29.74","56","64","0.00",,"+0.01","6","75","29.73","CLR:00","29.39","10.00","59","200",,"7",,,,,,,,,,,,,,,,,,,,,,,,,,,,,,,,,,,,,"MET10806/14/21 18:56:02 METAR KART 142356Z 20006KT 10SM CLR 18/13 A2974 RMK AO2 SLP068 T01780133 10211 20172 56004","FM-15","7",,,,,,,,,,,,,,,,,,,,,,,,,,,,"2005-11-07"
"72622794790","2021-06-14T19:56:00","FM-15","7",,,,,,,,,,,,,,,,,,,,,,,,,,,,,,,,,,,,,,"29.74","55","62","0.00",,,,"78","29.73","FEW:02 95","29.39","10.00","58","210",,"3",,,,,,,,,,,,,,,,,,,,,,,,,,,,,,,,,,,,,"MET09306/14/21 19:56:01 METAR KART 150056Z 21003KT 10SM FEW095 17/13 A2974 RMK AO2 SLP068 T01670128","FM-15","7",,,,,,,,,,,,,,,,,,,,,,,,,,,,"2005-11-07"
"72622794790","2021-06-14T20:56:00","FM-15","7",,,,,,,,,,,,,,,,,,,,,,,,,,,,,,,,,,,,,,"29.76","56","61","0.00",,,,"84","29.75","SCT:04 75","29.41","10.00","58","190",,"5",,,,,,,,,,,,,,,,,,,,,,,,,,,,,,,,,,,,,"MET09306/14/21 20:56:01 METAR KART 150156Z 19004KT 10SM SCT075 16/13 A2976 RMK AO2 SLP073 T01610133","FM-15","7",,,,,,,,,,,,,,,,,,,,,,,,,,,,"2005-11-07"
"72622794790","2021-06-14T21:56:00","FM-15","7",,,,,,,,,,,,,,,,,,,,,,,,,,,,,,,,,,,,,,"29.75","56","60","0.00",,"-0.01","0","86","29.74","FEW:02 29 FEW:02 55 SCT:04 90","29.39","10.00","58","200",,"7",,,,,,,,,,,,,,,,,,,,,,,,,,,,,,,,,,,,,"MET11306/14/21 21:56:01 METAR KART 150256Z 20006KT 10SM FEW029 FEW055 SCT090 16/13 A2975 RMK AO2 SLP071 T01560133 50003","FM-15","7",,,,,,,,,,,,,,,,,,,,,,,,,,,,"2005-11-07"
"72622794790","2021-06-14T22:56:00","FM-15","7",,,,,,,,,,,,,,,,,,,,,,,,,,,,,,,,,,,,,,"29.75","57","60","0.00",,,,"90","29.73","CLR:00","29.39","10.00","58","200",,"6",,,,,,,,,,,,,,,,,,,,,,,,,,,,,,,,,,,,,"MET09006/14/21 22:56:02 METAR KART 150356Z 20005KT 10SM CLR 16/14 A2975 RMK AO2 SLP069 T01560139","FM-15","7",,,,,,,,,,,,,,,,,,,,,,,,,,,,"2005-11-07"
"72622794790","2021-06-14T23:56:00","FM-15","7",,,,,,,,,,,,,,,,,,,,,,,,,,,,,,,,,,,,,,"29.74","56","60","0.00",,,,"86","29.72","FEW:02 37","29.39","10.00","58","210",,"8",,,,,,,,,,,,,,,,,,,,,,,,,,,,,,,,,,,,,"MET10306/14/21 23:56:02 METAR KART 150456Z 21007KT 10SM FEW037 16/13 A2974 RMK AO2 SLP066 T01560133 402330150","FM-15","7",,,,,,,,,,,,,,,,,,,,,,,,,,,,"2005-11-07"
"72622794790","2021-06-14T23:59:00","SOD  ","6",,,,,,,,,,,,,,,,"67",,,"29.39",,"8.1","2","4.1","0","74","59","230","27","0.07",,,"260","18","TS RA BR",,,,,,,,,,,,,,,,,,,,,,,,,,,,,,,,,,,,,,,,,,,,,,,,,,,,,,,,"SOD71024 HR PRECIPITATION (IN): 0.07 WEATHER(CODE):13  24 HR MAX TEMP (F): 7424 HR MIN TEMP (F): 59AVERAGE STATION PRESSURE:29.385 MINIMUM SEA LEVEL PRESSURE:29.70 TIME OF OCCURRENCE:0222 PEAK WIND SPEED (MPH): 27 PEAK WIND DIR (DEG):230 PEAK WIND TIME (LST):      FASTEST 2MIN SPEED (MPH): 18FASTEST 2MIN DIR (DEG):260 FASTEST 2MIN TIME (LST):     AVERAGE WIND SPEED (MPH): 8.1 24 HR AVG TEMP (F): 67DEPART FROM NORMAL:  3  HEATING DEGREE DAYS:  0 COOLING DEGREE DAYS:  2 LATEST DAY MAX TEMP (0700-1900 LST):74  LATEST NIGHT MIN TEMP(1900-0800 LST):59 HOURLY INCREMENTAL PRECIPITATION VALUES (IN):.07 T    0.00 0.00 0.00 0.00 0.00 0.00 0.00 0.00 0.00 0.00 0.00 0.00 0.00 0.00 0.00 0.00 0.00 0.00 0.00 0.00 0.00 0.00","SOD  ","6",,,,,,,,,,,,,,,,,,,,,,,,,"0421","1948",,"2005-11-07"
"72622794790","2021-06-15T00:56:00","FM-15","7",,,,,,,,,,,,,,,,,,,,,,,,,,,,,,,,,,,,,,"29.73","57","59","0.00",,"+0.02","6","93","29.72","FEW:02 12 SCT:04 27 BKN:07 34","29.38","10.00","58","000",,"0",,,,,,,,,,,,,,,,,,,,,,,,,,,,,,,,,,,,,"MET12506/15/21 00:56:02 METAR KART 150556Z 00000KT 10SM FEW012 SCT027 BKN034 15/14 A2973 RMK AO2 SLP065 T01500139 10178 20150 56006","FM-15","7",,,,,,,,,,,,,,,,,,,,,,,,,,,,"2005-11-07"
"72622794790","2021-06-15T01:06:00","FM-16","7",,,,,,,,,,,,,,,,,,,,,,,,,,,,,,,,,,,,,,"29.73","57","59",,,,,"93",,"SCT:04 10 BKN:07 26 OVC:08 34","29.38","10.00","58","000",,"0",,,,,,,,,,,,,,,,,,,,,,,,,,,,,,,,,,,,,"MET10006/15/21 01:06:02 SPECI KART 150606Z 00000KT 10SM SCT010 BKN026 OVC034 15/14 A2973 RMK AO2 T01500139","FM-16","7",,,,,,,,,,,,,,,,,,,,,,,,,,,,"2005-11-07"
"72622794790","2021-06-15T01:41:00","FM-16","7",,,,,,,,,,,,,,,,,,,,,,,,,,,,,,,,,,,,,,"29.73","57","58",,,,,"97",,"BKN:07 10 BKN:07 27","29.38","10.00","57","210",,"3",,,,,,,,,,,,,,,,,,,,,,,,,,,,,,,,,,,,,"MET09306/15/21 01:41:02 SPECI KART 150641Z 21003KT 10SM BKN010 BKN027 14/14 A2973 RMK AO2 T01440139","FM-16","7",,,,,,,,,,,,,,,,,,,,,,,,,,,,"2005-11-07"
"72622794790","2021-06-15T01:56:00","FM-15","7",,,,,,,,,,,,,,,,,,,,,,,,,,,,,,,,,,,,,,"29.73","57","59","0.00",,,,"93","29.72","OVC:08 10","29.38","9.00","58","180",,"3",,,,,,,,,,,,,,,,,,,,,,,,,,,,,,,,,,,,,"MET09206/15/21 01:56:02 METAR KART 150656Z 18003KT 9SM OVC010 15/14 A2973 RMK AO2 SLP065 T01500139","FM-15","7",,,,,,,,,,,,,,,,,,,,,,,,,,,,"2005-11-07"
"72622794790","2021-06-15T02:54:00","FM-16","6",,,,,,,,,,,,,,,,,,,,,,,,,,,,,,,,,,,,,,"29.73","57","61",,,,,"88",,"OVC:08 9","29.38","10.00","59","200",,"7",,,,,,,,,,,,,,,,,,,,,,,,,,,,,,,,,,,,,"MET08106/15/21 02:54:02 SPECI KART 150754Z 20006KT 10SM OVC009 16/14 A2973 RMK AO2 FIBI","FM-16","6",,,,,,,,,,,,,,,,,,,,,,,,,,,,"2005-11-07"
"72622794790","2021-06-15T02:56:00","FM-15","7",,,,,,,,,,,,,,,,,,,,,,,,,,,,,,,,,,,,,,"29.73","58","61","0.00",,,,"90","29.72","OVC:08 9","29.38","10.00","59","200",,"7",,,,,,,,,,,,,,,,,,,,,,,,,,,,,,,,,,,,,"MET09306/15/21 02:56:02 METAR KART 150756Z 20006KT 10SM OVC009 16/14 A2973 RMK AO2 SLP065 T01610144","FM-15","7",,,,,,,,,,,,,,,,,,,,,,,,,,,,"2005-11-07"
"72622794790","2021-06-15T03:56:00","FM-15","7",,,,,,,,,,,,,,,,,,,,,,,,,,,,,,,,,,,,,,"29.73","58","61","0.00",,"+0.00","6","90","29.72","BKN:07 9 OVC:08 26","29.38","10.00","59","200",,"5",,,,,,,,,,,,,,,,,,,,,,,,,,,,,,,,,,,,,"MET10606/15/21 03:56:02 METAR KART 150856Z 20004KT 10SM BKN009 OVC026 16/14 A2973 RMK AO2 SLP065 T01610144 56001","FM-15","7",,,,,,,,,,,,,,,,,,,,,,,,,,,,"2005-11-07"
"72622794790","2021-06-15T04:56:00","FM-15","7",,,,,,,,,,,,,,,,,,,,,,,,,,,,,,,,,,,,,,"29.73","59","61","0.01",,,,"93","29.72","BKN:07 9 BKN:07 18 OVC:08 23","29.38","10.00","60","200",,"5",,,,,,,,,,,,,,,,,,,,,,,,,,,,,,,,,,,,,"MET13406/15/21 04:56:02 METAR KART 150956Z 20004KT 10SM BKN009 BKN018 OVC023 16/15 A2973 RMK AO2 RAB05E30 CIG 005V013 SLP063 P0001 T01610150","FM-15","7",,,,,,,,,,,,,,,,,,,,,,,,,,,,"2005-11-07"
"72622794790","2021-06-15T05:56:00","FM-15","7",,,,,,,,,,,,,,,,,,,,,,,,,,,,,,,,,,,,,,"29.73","58","60","0.00",,,,"93","29.72","BKN:07 7 OVC:08 16","29.38","10.00","59","200",,"7",,,,,,,,,,,,,,,,,,,,,,,,,,,,,,,,,,,,,"MET10006/15/21 05:56:02 METAR KART 151056Z 20006KT 10SM BKN007 OVC016 16/14 A2973 RMK AO2 SLP065 T01560144","FM-15","7",,,,,,,,,,,,,,,,,,,,,,,,,,,,"2005-11-07"
"72622794790","2021-06-15T06:56:00","FM-15","7",,,,,,,,,,,,,,,,,,,,,,,,,,,,,,,,,,,,,,"29.74","58","61","T",,"-0.01","3","90","29.73","OVC:08 7","29.39","10.00","59","200",,"7",,,,,,,,,,,,,,,,,,,,,,,,,,,,,,,,,,,,,"MET13806/15/21 06:56:02 METAR KART 151156Z 20006KT 10SM OVC007 16/14 A2974 RMK AO2 RAB16E36 SLP067 P0000 60001 70001 T01610144 10161 20144 53003","FM-15","7",,,,,,,,,,,,,,,,,,,,,,,,,,,,"2005-11-07"
"72622794790","2021-06-15T07:56:00","FM-15","7",,,,,,,,,,,,,,,,,,,,,,,,,,,,,,,,,,,,,,"29.74","59","62","T",,,,"90","29.73","BKN:07 9 OVC:08 14","29.39","10.00","60","200",,"6",,,,,,,,,,,,,,,,,,,,,,,,,,,,,,,,,,,,,"MET11506/15/21 07:56:02 METAR KART 151256Z 20005KT 10SM BKN009 OVC014 17/15 A2974 RMK AO2 RAB04E16 SLP068 P0000 T01670150","FM-15","7",,,,,,,,,,,,,,,,,,,,,,,,,,,,"2005-11-07"
"72622794790","2021-06-15T08:33:00","FM-16","7",,,,,,,,,,,,,,,,,,,,,,,,,,,,,,,,,,,,,,"29.74","59","63",,,,,"87",,"OVC:08 10","29.39","10.00","61","200",,"7",,,,,,,,,,,,,,,,,,,,,,,,,,,,,,,,,,,,,"MET09806/15/21 08:33:02 SPECI KART 151333Z 20006KT 10SM OVC010 17/15 A2974 RMK AO2 CIG 007V014 T01720150","FM-16","7",,,,,,,,,,,,,,,,,,,,,,,,,,,,"2005-11-07"
"72622794790","2021-06-15T08:56:00","FM-15","7",,,,,,,,,,,,,,,,,,,,,,,,,,,,,,,,,,,,,,"29.74","60","63","0.01",,,,"90","29.73","SCT:04 10 BKN:07 20 OVC:08 29","29.39","9.00","61","210",,"9",,,,,,,,,,,,,,,,,,,,,,,,,,,,,,,,,,,,,"MET10606/15/21 08:56:02 METAR KART 151356Z 21008KT 9SM SCT010 BKN020 OVC029 17/16 A2974 RMK AO2 SLP068 T01720156","FM-15","7",,,,,,,,,,,,,,,,,,,,,,,,,,,,"2005-11-07"
"72622794790","2021-06-15T09:01:00","FM-16","7",,,,,,,,,,,,,,,,,,,,,,,,,,,,,,,,,,,,,,"29.74","60","63","0.05","-RA:02 BR:1 |RA |RA",,,"90",,"SCT:04 10 BKN:07 20 OVC:08 27","29.39","1.50","61","VRB",,"5",,,,,,,,,,,,,,,,,,,,,,,,,,,,,,,,,,,,,"MET12406/15/21 09:01:02 SPECI KART 151401Z VRB04KT 1 1/2SM -RA BR SCT010 BKN020 OVC027 17/16 A2974 RMK AO2 RAB1358 P0005 T01720156","FM-16","7",,,,,,,,,,,,,,,,,,,,,,,,,,,,"2005-11-07"
"72622794790","2021-06-15T09:08:00","FM-16","7",,,,,,,,,,,,,,,,,,,,,,,,,,,,,,,,,,,,,,"29.74","60","63","0.08","RA:02 BR:1 |RA |RA",,,"90",,"FEW:02 8 BKN:07 20 OVC:08 27","29.39","0.75","61","220",,"7",,,,,,,,,,,,,,,,,,,,,,,,,,,,,,,,,,,,,"MET12106/15/21 09:08:02 SPECI KART 151408Z 22006KT 3/4SM RA BR FEW008 BKN020 OVC027 17/16 A2974 RMK AO2 RAB1358 P0008 T01720156","FM-16","7",,,,,,,,,,,,,,,,,,,,,,,,,,,,"2005-11-07"
"72622794790","2021-06-15T09:16:00","FM-16","7",,,,,,,,,,,,,,,,,,,,,,,,,,,,,,,,,,,,,,"29.74","59","63","0.12","+RA:02 BR:1 |RA |RA",,,"87",,"FEW:02 8 SCT:04 12 OVC:08 20","29.39","1.25","61","220",,"8",,,,,,,,,,,,,,,,,,,,,,,,,,,,,,,,,,,,,"MET12406/15/21 09:16:02 SPECI KART 151416Z 22007KT 1 1/4SM +RA BR FEW008 SCT012 OVC020 17/15 A2974 RMK AO2 RAB1358 P0012 T01720150","FM-16","7",,,,,,,,,,,,,,,,,,,,,,,,,,,,"2005-11-07"
"72622794790","2021-06-15T09:24:00","FM-16","7",,,,,,,,,,,,,,,,,,,,,,,,,,,,,,,,,,,,,,"29.74","60","63","0.13","RA:02 BR:1 |RA |RA",,,"90",,"BKN:07 10 OVC:08 19","29.39","2.00","61","VRB",,"5",,,,,,,,,,,,,,,,,,,,,,,,,,,,,,,,,,,,,"MET11206/15/21 09:24:02 SPECI KART 151424Z VRB04KT 2SM RA BR BKN010 OVC019 17/16 A2974 RMK AO2 RAB1358 P0013 T01720156","FM-16","7",,,,,,,,,,,,,,,,,,,,,,,,,,,,"2005-11-07"
"72622794790","2021-06-15T09:33:00","FM-16","7",,,,,,,,,,,,,,,,,,,,,,,,,,,,,,,,,,,,,,"29.74","62","64","0.13","-RA:02 |RA |RA",,,"93",,"BKN:07 11 OVC:08 18","29.39","10.00","63","230",,"8",,,,,,,,,,,,,,,,,,,,,,,,,,,,,,,,,,,,,"MET11106/15/21 09:33:02 SPECI KART 151433Z 23007KT 10SM -RA BKN011 OVC018 18/17 A2974 RMK AO2 RAB1358 P0013 T01780167","FM-16","7",,,,,,,,,,,,,,,,,,,,,,,,,,,,"2005-11-07"
"72622794790","2021-06-15T09:54:00","FM-16","6",,,,,,,,,,,,,,,,,,,,,,,,,,,,,,,,,,,,,,"29.74","61","64",,,,,"88",,"SCT:04 10 BKN:07 18 BKN:07 65","29.39","10.00","62","230",,"8",,,,,,,,,,,,,,,,,,,,,,,,,,,,,,,,,,,,,"MET11206/15/21 09:54:02 SPECI KART 151454Z 23007KT 10SM SCT010 BKN018 BKN065 18/16 A2974 RMK AO2 RAB1358E52 P0013 FIBI","FM-16","6",,,,,,,,,,,,,,,,,,,,,,,,,,,,"2005-11-07"
"72622794790","2021-06-15T09:56:00","FM-15","7",,,,,,,,,,,,,,,,,,,,,,,,,,,,,,,,,,,,,,"29.74","61","66","0.12",,"-0.00","0","84","29.73","SCT:04 10 BKN:07 18 BKN:07 65","29.39","10.00","63","240",,"7",,,,,,,,,,,,,,,,,,,,,,,,,,,,,,,,,,,,,"MET13606/15/21 09:56:02 METAR KART 151456Z 24006KT 10SM SCT010 BKN018 BKN065 19/16 A2974 RMK AO2 RAB1358E52 SLP068 P0013 60013 T01890161 50001","FM-15","7",,,,,,,,,,,,,,,,,,,,,,,,,,,,"2005-11-07"
"72622794790","2021-06-15T10:17:00","FM-16","7",,,,,,,,,,,,,,,,,,,,,,,,,,,,,,,,,,,,,,"29.75","60","64","0.07","-RA:02 BR:1 |RA |RA",,,"87",,"FEW:02 14 BKN:07 23 BKN:07 28","29.39","1.75","62","240",,"9",,,,,,,,,,,,,,,,,,,,,,,,,,,,,,,,,,,,,"MET12206/15/21 10:17:02 SPECI KART 151517Z 24008KT 1 3/4SM -RA BR FEW014 BKN023 BKN028 18/16 A2975 RMK AO2 RAB16 P0007 T01780156","FM-16","7",,,,,,,,,,,,,,,,,,,,,,,,,,,,"2005-11-07"
"72622794790","2021-06-15T10:25:00","FM-16","7",,,,,,,,,,,,,,,,,,,,,,,,,,,,,,,,,,,,,,"29.75","59","62","0.23","+RA:02 FG:2 |FG RA |RA",,,"90",,"FEW:02 14 SCT:04 22 BKN:07 27","29.39","0.50","60","330",,"7",,,,,,,,,,,,,,,,,,,,,,,,,,,,,,,,,,,,,"MET12006/15/21 10:25:02 SPECI KART 151525Z 33006KT 1/2SM +RA FG FEW014 SCT022 BKN027 17/15 A2975 RMK AO2 RAB16 P0023 T01670150","FM-16","7",,,,,,,,,,,,,,,,,,,,,,,,,,,,"2005-11-07"
"72622794790","2021-06-15T10:35:00","FM-16","7",,,,,,,,,,,,,,,,,,,,,,,,,,,,,,,,,,,,,,"29.75","61","63","0.27","+RA:02 BR:1 |RA |RA",,,"93",,"FEW:02 14 BKN:07 30 OVC:08 60","29.39","1.50","62","310",,"9",,,,,,,,,,,,,,,,,,,,,,,,,,,,,,,,,,,,,"MET12206/15/21 10:35:02 SPECI KART 151535Z 31008KT 1 1/2SM +RA BR FEW014 BKN030 OVC060 17/16 A2975 RMK AO2 RAB16 P0027 T01720161","FM-16","7",,,,,,,,,,,,,,,,,,,,,,,,,,,,"2005-11-07"
"72622794790","2021-06-15T10:45:00","FM-16","7",,,,,,,,,,,,,,,,,,,,,,,,,,,,,,,,,,,,,,"29.76","60","63","0.28","RA:02 BR:1 |RA |RA",,,"90",,"FEW:02 8 BKN:07 34 OVC:08 50","29.41","2.50V","61","330",,"14",,,,,,,,,,,,,,,,,,,,,,,,,,,,,,,,,,,,,"MET12906/15/21 10:45:02 SPECI KART 151545Z 33012KT 2 1/2SM RA BR FEW008 BKN034 OVC050 17/16 A2976 RMK AO2 VIS 2V4 RAB16 P0028 T01720156","FM-16","7",,,,,,,,,,,,,,,,,,,,,,,,,,,,"2005-11-07"
"72622794790","2021-06-15T10:52:00","FM-16","7",,,,,,,,,,,,,,,,,,,,,,,,,,,,,,,,,,,,,,"29.76","61","63","0.28","-RA:02 BR:1 |RA |RA",,,"94",,"SCT:04 10 BKN:07 27 OVC:08 55","29.41","5.00","62","320",,"11",,,,,,,,,,,,,,,,,,,,,,,,,,,,,,,,,,,,,"MET10806/15/21 10:52:02 SPECI KART 151552Z 32010KT 5SM -RA BR SCT010 BKN027 OVC055 17/16 A2976 RMK AO2 RAB16 P0028","FM-16","7",,,,,,,,,,,,,,,,,,,,,,,,,,,,"2005-11-07"
"72622794790","2021-06-15T10:54:00","FM-16","6",,,,,,,,,,,,,,,,,,,,,,,,,,,,,,,,,,,,,,"29.76","61","63",,"-RA:02 |RA |RA",,,"94",,"BKN:07 10 BKN:07 31 OVC:08 55","29.41","8.00","62","320",,"11",,,,,,,,,,,,,,,,,,,,,,,,,,,,,,,,,,,,,"MET11006/15/21 10:54:02 SPECI KART 151554Z 32010KT 8SM -RA BKN010 BKN031 OVC055 17/16 A2976 RMK AO2 RAB16 P0028 FIBI","FM-16","6",,,,,,,,,,,,,,,,,,,,,,,,,,,,"2005-11-07"
"72622794790","2021-06-15T10:56:00","FM-15","7",,,,,,,,,,,,,,,,,,,,,,,,,,,,,,,,,,,,,,"29.76","60","63","0.28","-RA:02 |RA |RA",,,"90","29.75","BKN:07 10 BKN:07 31 OVC:08 55","29.41","10.00","61","320",,"13",,,,,,,,,,,,,,,,,,,,,,,,,,,,,,,,,,,,,"MET12306/15/21 10:56:02 METAR KART 151556Z 32011KT 10SM -RA BKN010 BKN031 OVC055 17/16 A2976 RMK AO2 RAB16 SLP075 P0028 T01720156","FM-15","7",,,,,,,,,,,,,,,,,,,,,,,,,,,,"2005-11-07"
"72622794790","2021-06-15T11:07:00","FM-16","7",,,,,,,,,,,,,,,,,,,,,,,,,,,,,,,,,,,,,,"29.77","60","63","T","-RA:02 |RA |RA",,,"90",,"FEW:02 7 BKN:07 12 OVC:08 29","29.41","7.00","61","320",,"10",,,,,,,,,,,,,,,,,,,,,,,,,,,,,,,,,,,,,"MET10906/15/21 11:07:02 SPECI KART 151607Z 32009KT 7SM -RA FEW007 BKN012 OVC029 17/16 A2977 RMK AO2 P0000 T01720156","FM-16","7",,,,,,,,,,,,,,,,,,,,,,,,,,,,"2005-11-07"
"72622794790","2021-06-15T11:56:00","FM-15","7",,,,,,,,,,,,,,,,,,,,,,,,,,,,,,,,,,,,,,"29.78","60","64","T",,,,"87","29.77","OVC:08 14","29.42","10.00","62","310",,"10",,,,,,,,,,,,,,,,,,,,,,,,,,,,,,,,,,,,,"MET10506/15/21 11:56:02 METAR KART 151656Z 31009KT 10SM OVC014 18/16 A2978 RMK AO2 RAE13 SLP080 P0000 T01780156","FM-15","7",,,,,,,,,,,,,,,,,,,,,,,,,,,,"2005-11-07"
"72622794790","2021-06-15T12:16:00","FM-16","7",,,,,,,,,,,,,,,,,,,,,,,,,,,,,,,,,,,,,,"29.78","59","64",,,,,"84",,"OVC:08 16","29.42","10.00","61","340",,"9",,,,,,,,,,,,,,,,,,,,,,,,,,,,,,,,,,,,,"MET08606/15/21 12:16:02 SPECI KART 151716Z 34008KT 10SM OVC016 18/15 A2978 RMK AO2 T01780150","FM-16","7",,,,,,,,,,,,,,,,,,,,,,,,,,,,"2005-11-07"
"72622794790","2021-06-15T12:56:00","FM-15","7",,,,,,,,,,,,,,,,,,,,,,,,,,,,,,,,,,,,,,"29.78","58","67","0.00",,"-0.02","3","73","29.77","BKN:07 19 OVC:08 23","29.42","10.00","62","330",,"8",,,,,,,,,,,,,,,,,,,,,,,,,,,,,,,,,,,,,"MET12406/15/21 12:56:02 METAR KART 151756Z 33007KT 10SM BKN019 OVC023 19/14 A2978 RMK AO2 SLP081 60041 T01940144 10194 20161 53006","FM-15","7",,,,,,,,,,,,,,,,,,,,,,,,,,,,"2005-11-07"
"72622794790","2021-06-15T13:56:00","FM-15","7",,,,,,,,,,,,,,,,,,,,,,,,,,,,,,,,,,,,,,"29.79","58","68","0.00",,,,"70","29.78","BKN:07 20 BKN:07 26 OVC:08 38","29.44","10.00","62","310",,"14",,,,,,,,,,,,,,,,,,,,,,,,,,,,,,,,,,,,,"MET10706/15/21 13:56:02 METAR KART 151856Z 31012KT 10SM BKN020 BKN026 OVC038 20/14 A2979 RMK AO2 SLP084 T02000144","FM-15","7",,,,,,,,,,,,,,,,,,,,,,,,,,,,"2005-11-07"
"72622794790","2021-06-15T14:30:00","FM-16","7",,,,,,,,,,,,,,,,,,,,,,,,,,,,,,,,,,,,,,"29.80","56","66",,,,,"70",,"SCT:04 26 BKN:07 31 OVC:08 43","29.44","10.00","60","320",,"16",,,,,,,,,,,,,,,,,,,,,,,,,,,,,,,,,,,,,"MET10006/15/21 14:30:02 SPECI KART 151930Z 32014KT 10SM SCT026 BKN031 OVC043 19/13 A2980 RMK AO2 T01890133","FM-16","7",,,,,,,,,,,,,,,,,,,,,,,,,,,,"2005-11-07"
"72622794790","2021-06-15T14:38:00","FM-16","7",,,,,,,,,,,,,,,,,,,,,,,,,,,,,,,,,,,,,,"29.80","55","65",,,,,"70",,"BKN:07 29 OVC:08 35","29.44","10.00","59","300",,"15",,,,,,,,,,,,,,,,,,,,,,,,,,,,,,,,,,,,,"MET09306/15/21 14:38:02 SPECI KART 151938Z 30013KT 10SM BKN029 OVC035 18/13 A2980 RMK AO2 T01830128","FM-16","7",,,,,,,,,,,,,,,,,,,,,,,,,,,,"2005-11-07"
"72622794790","2021-06-15T14:54:00","FM-16","6",,,,,,,,,,,,,,,,,,,,,,,,,,,,,,,,,,,,,,"29.81","54","64",,,,,"68",,"BKN:07 31 OVC:08 42","29.45","10.00","58","320",,"14",,,,,,,,,,,,,,,,,,,,,,,,,,,,,,,,,,,,,"MET08806/15/21 14:54:02 SPECI KART 151954Z 32012KT 10SM BKN031 OVC042 18/12 A2981 RMK AO2 FIBI","FM-16","6",,,,,,,,,,,,,,,,,,,,,,,,,,,,"2005-11-07"
"72622794790","2021-06-15T14:56:00","FM-15","7",,,,,,,,,,,,,,,,,,,,,,,,,,,,,,,,,,,,,,"29.81","54","65","0.00",,,,"68","29.80","BKN:07 31 BKN:07 42 OVC:08 90","29.45","10.00","59","320",,"11",,,,,,,,,,,,,,,,,,,,,,,,,,,,,,,,,,,,,"MET10706/15/21 14:56:02 METAR KART 151956Z 32010KT 10SM BKN031 BKN042 OVC090 18/12 A2981 RMK AO2 SLP092 T01830122","FM-15","7",,,,,,,,,,,,,,,,,,,,,,,,,,,,"2005-11-07"
"72622794790","2021-06-15T15:56:00","FM-15","7",,,,,,,,,,,,,,,,,,,,,,,,,,,,,,,,,,,,,,"29.81","54","69","0.00",,"-0.02","1","59","29.80","SCT:04 43 BKN:07 80 BKN:07 110","29.45","10.00","60","VRB",,"6",,,,,,,,,,,,,,,,,,,,,,,,,,,,,,,,,,,,,"MET11506/15/21 15:56:02 METAR KART 152056Z VRB05KT 10SM SCT043 BKN080 BKN110 21/12 A2981 RMK AO2 SLP091 T02060122 51008 $","FM-15","7",,,,,,,,,,,,,,,,,,,,,,,,,,,,"2005-11-07"
"72622794790","2021-06-15T16:56:00","FM-15","7",,,,,,,,,,,,,,,,,,,,,,,,,,,,,,,,,,,,,,"29.82","54","68","0.00",,,,"61","29.80","OVC:08 95","29.47","10.00","60","VRB",,"3",,,,,,,,,,,,,,,,,,,,,,,,,,,,,,,,,,,,,"MET09506/15/21 16:56:02 METAR KART 152156Z VRB03KT 10SM OVC095 20/12 A2982 RMK AO2 SLP093 T02000122 $","FM-15","7",,,,,,,,,,,,,,,,,,,,,,,,,,,,"2005-11-07"
"72622794790","2021-06-15T17:56:00","FM-15","7",,,,,,,,,,,,,,,,,,,,,,,,,,,,,,,,,,,,,,"29.83","55","65","0.00",,,,"70","29.82","SCT:04 40 OVC:08 100","29.47","10.00","59","260",,"9",,,,,,,,,,,,,,,,,,,,,,,,,,,,,,,,,,,,,"MET10206/15/21 17:56:02 METAR KART 152256Z 26008KT 10SM SCT040 OVC100 18/13 A2983 RMK AO2 SLP098 T01830128 $","FM-15","7",,,,,,,,,,,,,,,,,,,,,,,,,,,,"2005-11-07"
"72622794790","2021-06-15T18:56:00","FM-15","7",,,,,,,,,,,,,,,,,,,,,,,,,,,,,,,,,,,,,,"29.84","56","63","0.00",,"-0.03","3","78","29.83","BKN:07 90","29.48","10.00","59","220",,"6",,,,,,,,,,,,,,,,,,,,,,,,,,,,,,,,,,,,,"MET11306/15/21 18:56:02 METAR KART 152356Z 22005KT 10SM BKN090 17/13 A2984 RMK AO2 SLP102 T01720133 10211 20172 53010 $","FM-15","7",,,,,,,,,,,,,,,,,,,,,,,,,,,,"2005-11-07"
"72622794790","2021-06-15T19:56:00","FM-15","7",,,,,,,,,,,,,,,,,,,,,,,,,,,,,,,,,,,,,,"29.84","55","61","0.00",,,,"81","29.83","BKN:07 95","29.48","10.00","58","000",,"0",,,,,,,,,,,,,,,,,,,,,,,,,,,,,,,,,,,,,"MET09506/15/21 19:56:01 METAR KART 160056Z 00000KT 10SM BKN095 16/13 A2984 RMK AO2 SLP103 T01610128 $","FM-15","7",,,,,,,,,,,,,,,,,,,,,,,,,,,,"2005-11-07"
"72622794790","2021-06-15T20:56:00","FM-15","7",,,,,,,,,,,,,,,,,,,,,,,,,,,,,,,,,,,,,,"29.86","53","56","0.00",,,,"90","29.85","CLR:00","29.50","10.00","54","000",,"0",,,,,,,,,,,,,,,,,,,,,,,,,,,,,,,,,,,,,"MET09206/15/21 20:56:01 METAR KART 160156Z 00000KT 10SM CLR 13/12 A2986 RMK AO2 SLP109 T01330117 $","FM-15","7",,,,,,,,,,,,,,,,,,,,,,,,,,,,"2005-11-07"
"72622794790","2021-06-15T21:56:00","FM-15","7",,,,,,,,,,,,,,,,,,,,,,,,,,,,,,,,,,,,,,"29.87","50","51","0.00",,"-0.02","3","96","29.86","CLR:00","29.51","7.00","50","070",,"5",,,,,,,,,,,,,,,,,,,,,,,,,,,,,,,,,,,,,"MET09706/15/21 21:56:01 METAR KART 160256Z 07004KT 7SM CLR 11/10 A2987 RMK AO2 SLP112 T01060100 53008 $","FM-15","7",,,,,,,,,,,,,,,,,,,,,,,,,,,,"2005-11-07"
"72622794790","2021-06-15T22:56:00","FM-15","7",,,,,,,,,,,,,,,,,,,,,,,,,,,,,,,,,,,,,,"29.87","47","49","0.00",,,,"93","29.87","CLR:00","29.51","10.00","48","330",,"3",,,,,,,,,,,,,,,,,,,,,,,,,,,,,,,,,,,,,"MET09206/15/21 22:56:01 METAR KART 160356Z 33003KT 10SM CLR 09/08 A2987 RMK AO2 SLP114 T00940083 $","FM-15","7",,,,,,,,,,,,,,,,,,,,,,,,,,,,"2005-11-07"
"72622794790","2021-06-15T23:56:00","FM-15","7",,,,,,,,,,,,,,,,,,,,,,,,,,,,,,,,,,,,,,"29.87","42","50","0.00",,,,"74","29.86","CLR:00","29.51","10.00","46","020",,"5",,,,,,,,,,,,,,,,,,,,,,,,,,,,,,,,,,,,,"MET10206/15/21 23:56:02 METAR KART 160456Z 02004KT 10SM CLR 10/06 A2987 RMK AO2 SLP112 T01000056 402110094 $","FM-15","7",,,,,,,,,,,,,,,,,,,,,,,,,,,,"2005-11-07"
"72622794790","2021-06-15T23:59:00","SOD  ","6",,,,,,,,,,,,,,,,"60",,,"29.41",,"6.2","0","-3.2","5","70","49","310","22","0.42",,,"310","18","RA FG BR",,,,,,,,,,,,,,,,,,,,,,,,,,,,,,,,,,,,,,,,,,,,,,,,,,,,,,,,"SOD71024 HR PRECIPITATION (IN): 0.42 WEATHER(CODE):18  24 HR MAX TEMP (F): 7024 HR MIN TEMP (F): 49AVERAGE STATION PRESSURE:29.410 MINIMUM SEA LEVEL PRESSURE:29.71 TIME OF OCCURRENCE:0449 PEAK WIND SPEED (MPH): 22 PEAK WIND DIR (DEG):310 PEAK WIND TIME (LST):      FASTEST 2MIN SPEED (MPH): 18FASTEST 2MIN DIR (DEG):310 FASTEST 2MIN TIME (LST):     AVERAGE WIND SPEED (MPH): 6.2 24 HR AVG TEMP (F): 60DEPART FROM NORMAL: -4  HEATING DEGREE DAYS:  5 COOLING DEGREE DAYS:  0 LATEST DAY MAX TEMP (0700-1900 LST):70  LATEST NIGHT MIN TEMP(1900-0800 LST):58 HOURLY INCREMENTAL PRECIPITATION VALUES (IN):.00 0.00 0.00 0.00 0.01 0.00 T    T    0.01 0.12 0.28 T    0.00 0.00 0.00 0.00 0.00 0.00 0.00 0.00 0.00 0.00 0.00 0.00","SOD  ","6",,,,,,,,,,,,,,,,,,,,,,,,,"0421","1949",,"2005-11-07"
"72622794790","2021-06-16T00:56:00","FM-15","7",,,,,,,,,,,,,,,,,,,,,,,,,,,,,,,,,,,,,,"29.88","42","44","0.00",,"-0.01","3","93","29.88","CLR:00","29.52","10.00","43","000",,"0",,,,,,,,,,,,,,,,,,,,,,,,,,,,,,,,,,,,,"MET11006/16/21 00:56:02 METAR KART 160556Z 00000KT 10SM CLR 07/06 A2988 RMK AO2 SLP117 T00670056 10172 20067 53004 $","FM-15","7",,,,,,,,,,,,,,,,,,,,,,,,,,,,"2005-11-07"
"72622794790","2021-06-16T01:56:00","FM-15","7",,,,,,,,,,,,,,,,,,,,,,,,,,,,,,,,,,,,,,"29.89","40","43","0.00",,,,"89","29.88","CLR:00","29.53","10.00","42","000",,"0",,,,,,,,,,,,,,,,,,,,,,,,,,,,,,,,,,,,,"MET09206/16/21 01:56:02 METAR KART 160656Z 00000KT 10SM CLR 06/04 A2989 RMK AO2 SLP120 T00610044 $","FM-15","7",,,,,,,,,,,,,,,,,,,,,,,,,,,,"2005-11-07"
"72622794790","2021-06-16T02:56:00","FM-15","7",,,,,,,,,,,,,,,,,,,,,,,,,,,,,,,,,,,,,,"29.91","39","41","0.00",,,,"93","29.90","CLR:00","29.55","10.00","40","000",,"0",,,,,,,,,,,,,,,,,,,,,,,,,,,,,,,,,,,,,"MET09206/16/21 02:56:02 METAR KART 160756Z 00000KT 10SM CLR 05/04 A2991 RMK AO2 SLP126 T00500039 $","FM-15","7",,,,,,,,,,,,,,,,,,,,,,,,,,,,"2005-11-07"
"72622794790","2021-06-16T03:56:00","FM-15","7",,,,,,,,,,,,,,,,,,,,,,,,,,,,,,,,,,,,,,"29.91","39","42","0.00",,"-0.03","1","89","29.91","CLR:00","29.55","10.00","41","120",,"3",,,,,,,,,,,,,,,,,,,,,,,,,,,,,,,,,,,,,"MET09806/16/21 03:56:02 METAR KART 160856Z 12003KT 10SM CLR 06/04 A2991 RMK AO2 SLP128 T00560039 51011 $","FM-15","7",,,,,,,,,,,,,,,,,,,,,,,,,,,,"2005-11-07"
"72622794790","2021-06-16T04:56:00","FM-15","7",,,,,,,,,,,,,,,,,,,,,,,,,,,,,,,,,,,,,,"29.93","39","41","0.00",,,,"93","29.93","CLR:00","29.57","10.00","40","140",,"3",,,,,,,,,,,,,,,,,,,,,,,,,,,,,,,,,,,,,"MET09206/16/21 04:56:02 METAR KART 160956Z 14003KT 10SM CLR 05/04 A2993 RMK AO2 SLP135 T00500039 $","FM-15","7",,,,,,,,,,,,,,,,,,,,,,,,,,,,"2005-11-07"
"72622794790","2021-06-16T05:56:00","FM-15","7",,,,,,,,,,,,,,,,,,,,,,,,,,,,,,,,,,,,,,"29.94","45","51","0.00",,,,"80","29.93","CLR:00","29.58","10.00","48","000",,"0",,,,,,,,,,,,,,,,,,,,,,,,,,,,,,,,,,,,,"MET09206/16/21 05:56:02 METAR KART 161056Z 00000KT 10SM CLR 11/07 A2994 RMK AO2 SLP136 T01060072 $","FM-15","7",,,,,,,,,,,,,,,,,,,,,,,,,,,,"2005-11-07"
"72622794790","2021-06-16T06:56:00","FM-15","7",,,,,,,,,,,,,,,,,,,,,,,,,,,,,,,,,,,,,,"29.94","44","56","0.00",,"-0.03","1","65","29.93","CLR:00","29.58","10.00","50","340",,"6",,,,,,,,,,,,,,,,,,,,,,,,,,,,,,,,,,,,,"MET11406/16/21 06:56:02 METAR KART 161156Z 34005KT 10SM CLR 13/07 A2994 RMK AO2 SLP137 70041 T01330067 10133 20044 51010","FM-15","7",,,,,,,,,,,,,,,,,,,,,,,,,,,,"2005-11-07"
"72622794790","2021-06-16T07:56:00","FM-15","7",,,,,,,,,,,,,,,,,,,,,,,,,,,,,,,,,,,,,,"29.94","44","60","0.00",,,,"56","29.93","CLR:00","29.58","10.00","52","340",,"9",,,,,,,,,,,,,,,,,,,,,,,,,,,,,,,,,,,,,"MET09006/16/21 07:56:02 METAR KART 161256Z 34008KT 10SM CLR 16/07 A2994 RMK AO2 SLP137 T01560067","FM-15","7",,,,,,,,,,,,,,,,,,,,,,,,,,,,"2005-11-07"
"72622794790","2021-06-16T08:56:00","FM-15","7",,,,,,,,,,,,,,,,,,,,,,,,,,,,,,,,,,,,,,"29.94","42","62","0.00",,,,"48","29.94","CLR:00","29.58","10.00","52","330",,"8",,,,,,,,,,,,,,,,,,,,,,,,,,,,,,,,,,,,,"MET09006/16/21 08:56:02 METAR KART 161356Z 33007KT 10SM CLR 17/06 A2994 RMK AO2 SLP138 T01670056","FM-15","7",,,,,,,,,,,,,,,,,,,,,,,,,,,,"2005-11-07"
"72622794790","2021-06-16T09:56:00","FM-15","7",,,,,,,,,,,,,,,,,,,,,,,,,,,,,,,,,,,,,,"29.94","43","64","0.00",,"+0.00","8","46","29.93","CLR:00","29.58","10.00","53","280",,"14",,,,,,,,,,,,,,,,,,,,,,,,,,,,,,,,,,,,,"MET09606/16/21 09:56:02 METAR KART 161456Z 28012KT 10SM CLR 18/06 A2994 RMK AO2 SLP136 T01780061 58001","FM-15","7",,,,,,,,,,,,,,,,,,,,,,,,,,,,"2005-11-07"
"72622794790","2021-06-16T10:56:00","FM-15","7",,,,,,,,,,,,,,,,,,,,,,,,,,,,,,,,,,,,,,"29.94","42","64","0.00",,,,"45","29.94","CLR:00","29.58","10.00","53","250",,"10",,,,,,,,,,,,,,,,,,,,,,,,,,,,,,,,,,,,,"MET09006/16/21 10:56:02 METAR KART 161556Z 25009KT 10SM CLR 18/06 A2994 RMK AO2 SLP138 T01780056","FM-15","7",,,,,,,,,,,,,,,,,,,,,,,,,,,,"2005-11-07"
"72622794790","2021-06-16T11:56:00","FM-15","7",,,,,,,,,,,,,,,,,,,,,,,,,,,,,,,,,,,,,,"29.94","42","65","0.00",,,,"43","29.94","CLR:00","29.58","10.00","53","260","20","11",,,,,,,,,,,,,,,,,,,,,,,,,,,,,,,,,,,,,"MET09306/16/21 11:56:02 METAR KART 161656Z 26010G17KT 10SM CLR 18/06 A2994 RMK AO2 SLP138 T01830056","FM-15","7",,,,,,,,,,,,,,,,,,,,,,,,,,,,"2005-11-07"
"72622794790","2021-06-16T12:56:00","FM-15","7",,,,,,,,,,,,,,,,,,,,,,,,,,,,,,,,,,,,,,"29.93","43","66","0.00",,"+0.01","8","43","29.92","CLR:00","29.57","10.00","54","240","22","14",,,,,,,,,,,,,,,,,,,,,,,,,,,,,,,,,,,,,"MET11106/16/21 12:56:02 METAR KART 161756Z 24012G19KT 10SM CLR 19/06 A2993 RMK AO2 SLP133 T01890061 10189 20133 58004","FM-15","7",,,,,,,,,,,,,,,,,,,,,,,,,,,,"2005-11-07"
"72622794790","2021-06-16T13:56:00","FM-15","7",,,,,,,,,,,,,,,,,,,,,,,,,,,,,,,,,,,,,,"29.93","43","66","0.00",,,,"43","29.92","CLR:00","29.57","10.00","54","230","22","13",,,,,,,,,,,,,,,,,,,,,,,,,,,,,,,,,,,,,"MET09306/16/21 13:56:02 METAR KART 161856Z 23011G19KT 10SM CLR 19/06 A2993 RMK AO2 SLP133 T01890061","FM-15","7",,,,,,,,,,,,,,,,,,,,,,,,,,,,"2005-11-07"
"72622794790","2021-06-16T14:56:00","FM-15","7",,,,,,,,,,,,,,,,,,,,,,,,,,,,,,,,,,,,,,"29.92","46","65","0.00",,,,"51","29.92","CLR:00","29.56","10.00","55","230","22","15",,,,,,,,,,,,,,,,,,,,,,,,,,,,,,,,,,,,,"MET09306/16/21 14:56:02 METAR KART 161956Z 23013G19KT 10SM CLR 18/08 A2992 RMK AO2 SLP132 T01830078","FM-15","7",,,,,,,,,,,,,,,,,,,,,,,,,,,,"2005-11-07"
"72622794790","2021-06-16T15:56:00","FM-15","7",,,,,,,,,,,,,,,,,,,,,,,,,,,,,,,,,,,,,,"29.92","47","65","0.00",,"+0.01","8","52","29.91","CLR:00","29.56","10.00","55","240","23","13",,,,,,,,,,,,,,,,,,,,,,,,,,,,,,,,,,,,,"MET09906/16/21 15:56:02 METAR KART 162056Z 24011G20KT 10SM CLR 18/08 A2992 RMK AO2 SLP130 T01830083 58003","FM-15","7",,,,,,,,,,,,,,,,,,,,,,,,,,,,"2005-11-07"
"72622794790","2021-06-16T16:56:00","FM-15","7",,,,,,,,,,,,,,,,,,,,,,,,,,,,,,,,,,,,,,"29.91","48","64","0.00",,,,"56","29.91","CLR:00","29.55","10.00","55","230","24","16",,,,,,,,,,,,,,,,,,,,,,,,,,,,,,,,,,,,,"MET09306/16/21 16:56:02 METAR KART 162156Z 23014G21KT 10SM CLR 18/09 A2991 RMK AO2 SLP128 T01780089","FM-15","7",,,,,,,,,,,,,,,,,,,,,,,,,,,,"2005-11-07"
"72622794790","2021-06-16T17:56:00","FM-15","7",,,,,,,,,,,,,,,,,,,,,,,,,,,,,,,,,,,,,,"29.90","48","62","0.00",,,,"60","29.90","CLR:00","29.54","10.00","54","230",,"8",,,,,,,,,,,,,,,,,,,,,,,,,,,,,,,,,,,,,"MET09006/16/21 17:56:02 METAR KART 162256Z 23007KT 10SM CLR 17/09 A2990 RMK AO2 SLP125 T01670089","FM-15","7",,,,,,,,,,,,,,,,,,,,,,,,,,,,"2005-11-07"
"72622794790","2021-06-16T18:56:00","FM-15","7",,,,,,,,,,,,,,,,,,,,,,,,,,,,,,,,,,,,,,"29.90","49","62","0.00",,"+0.02","6","62","29.89","CLR:00","29.54","10.00","55","220",,"6",,,,,,,,,,,,,,,,,,,,,,,,,,,,,,,,,,,,,"MET10806/16/21 18:56:02 METAR KART 162356Z 22005KT 10SM CLR 17/09 A2990 RMK AO2 SLP123 T01670094 10194 20167 56006","FM-15","7",,,,,,,,,,,,,,,,,,,,,,,,,,,,"2005-11-07"
"72622794790","2021-06-16T19:56:00","FM-15","7",,,,,,,,,,,,,,,,,,,,,,,,,,,,,,,,,,,,,,"29.90","50","59","0.00",,,,"72","29.89","SCT:04 90","29.54","10.00","54","200",,"7",,,,,,,,,,,,,,,,,,,,,,,,,,,,,,,,,,,,,"MET09306/16/21 19:56:01 METAR KART 170056Z 20006KT 10SM SCT090 15/10 A2990 RMK AO2 SLP123 T01500100","FM-15","7",,,,,,,,,,,,,,,,,,,,,,,,,,,,"2005-11-07"
"72622794790","2021-06-16T20:56:00","FM-15","7",,,,,,,,,,,,,,,,,,,,,,,,,,,,,,,,,,,,,,"29.92","49","55","0.00",,,,"80","29.91","OVC:08 90","29.56","10.00","52","160",,"5",,,,,,,,,,,,,,,,,,,,,,,,,,,,,,,,,,,,,"MET09306/16/21 20:56:01 METAR KART 170156Z 16004KT 10SM OVC090 13/09 A2992 RMK AO2 SLP128 T01280094","FM-15","7",,,,,,,,,,,,,,,,,,,,,,,,,,,,"2005-11-07"
"72622794790","2021-06-16T21:56:00","FM-15","7",,,,,,,,,,,,,,,,,,,,,,,,,,,,,,,,,,,,,,"29.92","48","53","0.00",,"-0.03","3","83","29.92","SCT:04 90","29.56","10.00","50","140",,"5",,,,,,,,,,,,,,,,,,,,,,,,,,,,,,,,,,,,,"MET09906/16/21 21:56:02 METAR KART 170256Z 14004KT 10SM SCT090 12/09 A2992 RMK AO2 SLP132 T01170089 53009","FM-15","7",,,,,,,,,,,,,,,,,,,,,,,,,,,,"2005-11-07"
"72622794790","2021-06-16T22:56:00","FM-15","7",,,,,,,,,,,,,,,,,,,,,,,,,,,,,,,,,,,,,,"29.93","48","53","0.00",,,,"83","29.93","CLR:00","29.57","10.00","50","170",,"6",,,,,,,,,,,,,,,,,,,,,,,,,,,,,,,,,,,,,"MET09206/16/21 22:56:02 METAR KART 170356Z 17005KT 10SM CLR 12/09 A2993 RMK AO2 SLP134 T01170089 $","FM-15","7",,,,,,,,,,,,,,,,,,,,,,,,,,,,"2005-11-07"
"72622794790","2021-06-16T23:56:00","FM-15","7",,,,,,,,,,,,,,,,,,,,,,,,,,,,,,,,,,,,,,"29.93","47","51","0.00",,,,"86","29.93","CLR:00","29.57","10.00","49","170",,"7",,,,,,,,,,,,,,,,,,,,,,,,,,,,,,,,,,,,,"MET10206/16/21 23:56:02 METAR KART 170456Z 17006KT 10SM CLR 11/08 A2993 RMK AO2 SLP134 T01060083 401940044 $","FM-15","7",,,,,,,,,,,,,,,,,,,,,,,,,,,,"2005-11-07"
"72622794790","2021-06-16T23:59:00","SOD  ","6",,,,,,,,,,,,,,,,"54",,,"29.55",,"7.4","0","-9.5","11","67","40","230","25","0.00",,,"260","20",,,,,,,,,,,,,,,,,,,,,,,,,,,,,,,,,,,,,,,,,,,,,,,,,,,,,,,,,"SOD69224 HR PRECIPITATION (IN): 0.00 24 HR MAX TEMP (F): 6724 HR MIN TEMP (F): 40AVERAGE STATION PRESSURE:29.550 MINIMUM SEA LEVEL PRESSURE:29.86 TIME OF OCCURRENCE:0024 PEAK WIND SPEED (MPH): 25 PEAK WIND DIR (DEG):230 PEAK WIND TIME (LST):      FASTEST 2MIN SPEED (MPH): 20FASTEST 2MIN DIR (DEG):260 FASTEST 2MIN TIME (LST):     AVERAGE WIND SPEED (MPH): 7.4 24 HR AVG TEMP (F): 54DEPART FROM NORMAL:-10  HEATING DEGREE DAYS: 11 COOLING DEGREE DAYS:  0 LATEST DAY MAX TEMP (0700-1900 LST):67  LATEST NIGHT MIN TEMP(1900-0800 LST):40 HOURLY INCREMENTAL PRECIPITATION VALUES (IN):.00 0.00 0.00 0.00 0.00 0.00 0.00 0.00 0.00 0.00 0.00 0.00 0.00 0.00 0.00 0.00 0.00 0.00 0.00 0.00 0.00 0.00 0.00 0.00","SOD  ","6",,,,,,,,,,,,,,,,,,,,,,,,,"0421","1949",,"2005-11-07"
"72622794790","2021-06-17T00:56:00","FM-15","7",,,,,,,,,,,,,,,,,,,,,,,,,,,,,,,,,,,,,,"29.93","45","47","0.00",,"-0.00","0","93","29.92","CLR:00","29.57","10.00","46","130",,"3",,,,,,,,,,,,,,,,,,,,,,,,,,,,,,,,,,,,,"MET11006/17/21 00:56:02 METAR KART 170556Z 13003KT 10SM CLR 08/07 A2993 RMK AO2 SLP133 T00830072 10167 20083 50001 $","FM-15","7",,,,,,,,,,,,,,,,,,,,,,,,,,,,"2005-11-07"
"72622794790","2021-06-17T01:56:00","FM-15","7",,,,,,,,,,,,,,,,,,,,,,,,,,,,,,,,,,,,,,"29.93","43","46","0.00",,,,"89","29.93","CLR:00","29.57","10.00","45","130",,"3",,,,,,,,,,,,,,,,,,,,,,,,,,,,,,,,,,,,,"MET09206/17/21 01:56:02 METAR KART 170656Z 13003KT 10SM CLR 08/06 A2993 RMK AO2 SLP134 T00780061 $","FM-15","7",,,,,,,,,,,,,,,,,,,,,,,,,,,,"2005-11-07"
"72622794790","2021-06-17T02:56:00","FM-15","7",,,,,,,,,,,,,,,,,,,,,,,,,,,,,,,,,,,,,,"29.93","44","46","0.00",,,,"93","29.93","CLR:00","29.57","10.00","45","000",,"0",,,,,,,,,,,,,,,,,,,,,,,,,,,,,,,,,,,,,"MET09206/17/21 02:56:02 METAR KART 170756Z 00000KT 10SM CLR 08/07 A2993 RMK AO2 SLP136 T00780067 $","FM-15","7",,,,,,,,,,,,,,,,,,,,,,,,,,,,"2005-11-07"
"72622794790","2021-06-17T03:56:00","FM-15","7",,,,,,,,,,,,,,,,,,,,,,,,,,,,,,,,,,,,,,"29.94","42","44","0.00",,"-0.01","3","93","29.94","CLR:00","29.58","10.00","43","160",,"3",,,,,,,,,,,,,,,,,,,,,,,,,,,,,,,,,,,,,"MET09806/17/21 03:56:02 METAR KART 170856Z 16003KT 10SM CLR 07/06 A2994 RMK AO2 SLP139 T00670056 53005 $","FM-15","7",,,,,,,,,,,,,,,,,,,,,,,,,,,,"2005-11-07"
"72622794790","2021-06-17T04:56:00","FM-15","7",,,,,,,,,,,,,,,,,,,,,,,,,,,,,,,,,,,,,,"29.95","45","49","0.00",,,,"86","29.95","CLR:00","29.59","10.00","47","180",,"6",,,,,,,,,,,,,,,,,,,,,,,,,,,,,,,,,,,,,"MET09206/17/21 04:56:02 METAR KART 170956Z 18005KT 10SM CLR 09/07 A2995 RMK AO2 SLP141 T00940072 $","FM-15","7",,,,,,,,,,,,,,,,,,,,,,,,,,,,"2005-11-07"
"72622794790","2021-06-17T05:56:00","FM-15","7",,,,,,,,,,,,,,,,,,,,,,,,,,,,,,,,,,,,,,"29.96","47","52","0.00",,,,"83","29.96","CLR:00","29.60","10.00","49","180",,"5",,,,,,,,,,,,,,,,,,,,,,,,,,,,,,,,,,,,,"MET09006/17/21 05:56:02 METAR KART 171056Z 18004KT 10SM CLR 11/08 A2996 RMK AO2 SLP144 T01110083","FM-15","7",,,,,,,,,,,,,,,,,,,,,,,,,,,,"2005-11-07"
"72622794790","2021-06-17T06:56:00","FM-15","7",,,,,,,,,,,,,,,,,,,,,,,,,,,,,,,,,,,,,,"29.98","50","57","0.00",,"-0.04","3","78","29.98","CLR:00","29.62","10.00","53","210",,"3",,,,,,,,,,,,,,,,,,,,,,,,,,,,,,,,,,,,,"MET11006/17/21 06:56:02 METAR KART 171156Z 21003KT 10SM CLR 14/10 A2998 RMK AO2 SLP152 T01390100 10139 20061 53014 $","FM-15","7",,,,,,,,,,,,,,,,,,,,,,,,,,,,"2005-11-07"
"72622794790","2021-06-17T07:56:00","FM-15","7",,,,,,,,,,,,,,,,,,,,,,,,,,,,,,,,,,,,,,"30.00","51","63","0.00",,,,"65","29.99","CLR:00","29.64","10.00","56","230",,"8",,,,,,,,,,,,,,,,,,,,,,,,,,,,,,,,,,,,,"MET09206/17/21 07:56:02 METAR KART 171256Z 23007KT 10SM CLR 17/11 A3000 RMK AO2 SLP155 T01720106 $","FM-15","7",,,,,,,,,,,,,,,,,,,,,,,,,,,,"2005-11-07"
"72622794790","2021-06-17T08:56:00","FM-15","7",,,,,,,,,,,,,,,,,,,,,,,,,,,,,,,,,,,,,,"30.00","52","65","0.00",,,,"63","30.00","CLR:00","29.64","10.00","58","260",,"11",,,,,,,,,,,,,,,,,,,,,,,,,,,,,,,,,,,,,"MET09206/17/21 08:56:02 METAR KART 171356Z 26010KT 10SM CLR 18/11 A3000 RMK AO2 SLP158 T01830111 $","FM-15","7",,,,,,,,,,,,,,,,,,,,,,,,,,,,"2005-11-07"
"72622794790","2021-06-17T09:56:00","FM-15","7",,,,,,,,,,,,,,,,,,,,,,,,,,,,,,,,,,,,,,"30.00","52","66","0.00",,"-0.01","0","61","29.99","CLR:00","29.64","10.00","58","240",,"8",,,,,,,,,,,,,,,,,,,,,,,,,,,,,,,,,,,,,"MET09806/17/21 09:56:02 METAR KART 171456Z 24007KT 10SM CLR 19/11 A3000 RMK AO2 SLP157 T01890111 50005 $","FM-15","7",,,,,,,,,,,,,,,,,,,,,,,,,,,,"2005-11-07"
"72622794790","2021-06-17T10:56:00","FM-15","7",,,,,,,,,,,,,,,,,,,,,,,,,,,,,,,,,,,,,,"29.99","50","68","0.00",,,,"53","29.98","CLR:00","29.63","10.00","58","230",,"9",,,,,,,,,,,,,,,,,,,,,,,,,,,,,,,,,,,,,"MET09206/17/21 10:56:02 METAR KART 171556Z 23008KT 10SM CLR 20/10 A2999 RMK AO2 SLP153 T02000100 $","FM-15","7",,,,,,,,,,,,,,,,,,,,,,,,,,,,"2005-11-07"
"72622794790","2021-06-17T11:56:00","FM-15","7",,,,,,,,,,,,,,,,,,,,,,,,,,,,,,,,,,,,,,"29.99","50","69","0.00",,,,"51","29.99","CLR:00","29.63","10.00","58","250",,"8",,,,,,,,,,,,,,,,,,,,,,,,,,,,,,,,,,,,,"MET09206/17/21 11:56:02 METAR KART 171656Z 25007KT 10SM CLR 21/10 A2999 RMK AO2 SLP155 T02060100 $","FM-15","7",,,,,,,,,,,,,,,,,,,,,,,,,,,,"2005-11-07"
"72622794790","2021-06-17T12:56:00","FM-15","7",,,,,,,,,,,,,,,,,,,,,,,,,,,,,,,,,,,,,,"30.00","51","70","0.00",,"+0.01","5","51","29.99","CLR:00","29.64","10.00","59","230","18","13",,,,,,,,,,,,,,,,,,,,,,,,,,,,,,,,,,,,,"MET11306/17/21 12:56:02 METAR KART 171756Z 23011G16KT 10SM CLR 21/11 A3000 RMK AO2 SLP156 T02110106 10211 20139 55002 $","FM-15","7",,,,,,,,,,,,,,,,,,,,,,,,,,,,"2005-11-07"
"72622794790","2021-06-17T13:56:00","FM-15","7",,,,,,,,,,,,,,,,,,,,,,,,,,,,,,,,,,,,,,"29.99","46","70","0.00",,,,"42","29.98","CLR:00","29.63","10.00","57","230","23","13",,,,,,,,,,,,,,,,,,,,,,,,,,,,,,,,,,,,,"MET09306/17/21 13:56:02 METAR KART 171856Z 23011G20KT 10SM CLR 21/08 A2999 RMK AO2 SLP152 T02110078","FM-15","7",,,,,,,,,,,,,,,,,,,,,,,,,,,,"2005-11-07"
"72622794790","2021-06-17T14:56:00","FM-15","7",,,,,,,,,,,,,,,,,,,,,,,,,,,,,,,,,,,,,,"29.97","44","70","0.00",,,,"39","29.97","CLR:00","29.61","10.00","56","260",,"14",,,,,,,,,,,,,,,,,,,,,,,,,,,,,,,,,,,,,"MET09006/17/21 14:56:02 METAR KART 171956Z 26012KT 10SM CLR 21/07 A2997 RMK AO2 SLP148 T02110067","FM-15","7",,,,,,,,,,,,,,,,,,,,,,,,,,,,"2005-11-07"
"72622794790","2021-06-17T15:56:00","FM-15","7",,,,,,,,,,,,,,,,,,,,,,,,,,,,,,,,,,,,,,"29.97","42","69","0.00",,"+0.03","6","38","29.96","CLR:00","29.61","10.00","55","240","24","13",,,,,,,,,,,,,,,,,,,,,,,,,,,,,,,,,,,,,"MET09906/17/21 15:56:02 METAR KART 172056Z 24011G21KT 10SM CLR 21/06 A2997 RMK AO2 SLP146 T02060056 56010","FM-15","7",,,,,,,,,,,,,,,,,,,,,,,,,,,,"2005-11-07"
"72622794790","2021-06-17T16:56:00","FM-15","7",,,,,,,,,,,,,,,,,,,,,,,,,,,,,,,,,,,,,,"29.95","44","70","0.00",,,,"39","29.95","CLR:00","29.59","10.00","56","220",,"10",,,,,,,,,,,,,,,,,,,,,,,,,,,,,,,,,,,,,"MET09006/17/21 16:56:02 METAR KART 172156Z 22009KT 10SM CLR 21/07 A2995 RMK AO2 SLP141 T02110067","FM-15","7",,,,,,,,,,,,,,,,,,,,,,,,,,,,"2005-11-07"
"72622794790","2021-06-17T17:56:00","FM-15","7",,,,,,,,,,,,,,,,,,,,,,,,,,,,,,,,,,,,,,"29.96","42","69","0.00",,,,"38","29.95","CLR:00","29.60","10.00","55","230",,"10",,,,,,,,,,,,,,,,,,,,,,,,,,,,,,,,,,,,,"MET09006/17/21 17:56:02 METAR KART 172256Z 23009KT 10SM CLR 21/06 A2996 RMK AO2 SLP141 T02060056","FM-15","7",,,,,,,,,,,,,,,,,,,,,,,,,,,,"2005-11-07"
"72622794790","2021-06-17T18:56:00","FM-15","7",,,,,,,,,,,,,,,,,,,,,,,,,,,,,,,,,,,,,,"29.95","44","66","0.00",,"+0.02","6","45","29.94","CLR:00","29.59","10.00","54","210",,"6",,,,,,,,,,,,,,,,,,,,,,,,,,,,,,,,,,,,,"MET10806/17/21 18:56:02 METAR KART 172356Z 21005KT 10SM CLR 19/07 A2995 RMK AO2 SLP139 T01890067 10217 20189 56006","FM-15","7",,,,,,,,,,,,,,,,,,,,,,,,,,,,"2005-11-07"
"72622794790","2021-06-17T19:05:00","FM-16","7",,,,,,,,,,,,,,,,,,,,,,,,,,,,,,,,,,,,,,"29.95","44","66",,,,,"45",,"FEW:02 2","29.59","10.00","54","220",,"7",,,,,,,,,,,,,,,,,,,,,,,,,,,,,,,,,,,,,"MET08606/17/21 19:05:01 SPECI KART 180005Z 22006KT 10SM FEW002 19/07 A2995 RMK AO2 T01890067","FM-16","7",,,,,,,,,,,,,,,,,,,,,,,,,,,,"2005-11-07"
"72622794790","2021-06-17T19:56:00","FM-15","7",,,,,,,,,,,,,,,,,,,,,,,,,,,,,,,,,,,,,,"29.94","44","62","0.00",,,,"52","29.93","CLR:00","29.58","10.00","53","170",,"5",,,,,,,,,,,,,,,,,,,,,,,,,,,,,,,,,,,,,"MET09006/17/21 19:56:01 METAR KART 180056Z 17004KT 10SM CLR 17/07 A2994 RMK AO2 SLP134 T01670067","FM-15","7",,,,,,,,,,,,,,,,,,,,,,,,,,,,"2005-11-07"
"72622794790","2021-06-17T20:56:00","FM-15","7",,,,,,,,,,,,,,,,,,,,,,,,,,,,,,,,,,,,,,"29.95","43","60","0.00",,,,"53","29.94","CLR:00","29.59","10.00","51","VRB",,"3",,,,,,,,,,,,,,,,,,,,,,,,,,,,,,,,,,,,,"MET09006/17/21 20:56:01 METAR KART 180156Z VRB03KT 10SM CLR 16/06 A2995 RMK AO2 SLP139 T01560061","FM-15","7",,,,,,,,,,,,,,,,,,,,,,,,,,,,"2005-11-07"
"72622794790","2021-06-17T21:56:00","FM-15","7",,,,,,,,,,,,,,,,,,,,,,,,,,,,,,,,,,,,,,"29.95","42","59","0.00",,"-0.01","3","54","29.94","CLR:00","29.59","10.00","50","000",,"0",,,,,,,,,,,,,,,,,,,,,,,,,,,,,,,,,,,,,"MET09606/17/21 21:56:02 METAR KART 180256Z 00000KT 10SM CLR 15/06 A2995 RMK AO2 SLP140 T01500056 53002","FM-15","7",,,,,,,,,,,,,,,,,,,,,,,,,,,,"2005-11-07"
"72622794790","2021-06-17T22:56:00","FM-15","7",,,,,,,,,,,,,,,,,,,,,,,,,,,,,,,,,,,,,,"29.95","42","57","0.00",,,,"58","29.94","CLR:00","29.59","10.00","50","000",,"0",,,,,,,,,,,,,,,,,,,,,,,,,,,,,,,,,,,,,"MET09006/17/21 22:56:02 METAR KART 180356Z 00000KT 10SM CLR 14/06 A2995 RMK AO2 SLP140 T01390056","FM-15","7",,,,,,,,,,,,,,,,,,,,,,,,,,,,"2005-11-07"
"72622794790","2021-06-17T23:56:00","FM-15","7",,,,,,,,,,,,,,,,,,,,,,,,,,,,,,,,,,,,,,"29.95","41","58","0.00",,,,"53","29.94","CLR:00","29.59","10.00","50","180",,"6",,,,,,,,,,,,,,,,,,,,,,,,,,,,,,,,,,,,,"MET10006/17/21 23:56:02 METAR KART 180456Z 18005KT 10SM CLR 14/05 A2995 RMK AO2 SLP139 T01440050 402170061","FM-15","7",,,,,,,,,,,,,,,,,,,,,,,,,,,,"2005-11-07"
"72622794790","2021-06-17T23:59:00","SOD  ","6",,,,,,,,,,,,,,,,"57",,,"29.60",,"6.7","0","-6.8","8","71","43","260","24","0.00",,,"260","17",,,,,,,,,,,,,,,,,,,,,,,,,,,,,,,,,,,,,,,,,,,,,,,,,,,,,,,,,"SOD69224 HR PRECIPITATION (IN): 0.00 24 HR MAX TEMP (F): 7124 HR MIN TEMP (F): 43AVERAGE STATION PRESSURE:29.600 MINIMUM SEA LEVEL PRESSURE:29.92 TIME OF OCCURRENCE:0228 PEAK WIND SPEED (MPH): 24 PEAK WIND DIR (DEG):260 PEAK WIND TIME (LST):      FASTEST 2MIN SPEED (MPH): 17FASTEST 2MIN DIR (DEG):260 FASTEST 2MIN TIME (LST):     AVERAGE WIND SPEED (MPH): 6.7 24 HR AVG TEMP (F): 57DEPART FROM NORMAL: -7  HEATING DEGREE DAYS:  8 COOLING DEGREE DAYS:  0 LATEST DAY MAX TEMP (0700-1900 LST):71  LATEST NIGHT MIN TEMP(1900-0800 LST):43 HOURLY INCREMENTAL PRECIPITATION VALUES (IN):.00 0.00 0.00 0.00 0.00 0.00 0.00 0.00 0.00 0.00 0.00 0.00 0.00 0.00 0.00 0.00 0.00 0.00 0.00 0.00 0.00 0.00 0.00 0.00","SOD  ","6",,,,,,,,,,,,,,,,,,,,,,,,,"0421","1949",,"2005-11-07"
"72622794790","2021-06-18T00:56:00","FM-15","7",,,,,,,,,,,,,,,,,,,,,,,,,,,,,,,,,,,,,,"29.94","41","58","0.00",,"+0.01","8","53","29.93","CLR:00","29.58","10.00","50","180",,"6",,,,,,,,,,,,,,,,,,,,,,,,,,,,,,,,,,,,,"MET10806/18/21 00:56:02 METAR KART 180556Z 18005KT 10SM CLR 14/05 A2994 RMK AO2 SLP136 T01440050 10189 20133 58004","FM-15","7",,,,,,,,,,,,,,,,,,,,,,,,,,,,"2005-11-07"
"72622794790","2021-06-18T01:56:00","FM-15","7",,,,,,,,,,,,,,,,,,,,,,,,,,,,,,,,,,,,,,"29.94","42","58","0.00",,,,"56","29.93","CLR:00","29.58","10.00","50","VRB",,"5",,,,,,,,,,,,,,,,,,,,,,,,,,,,,,,,,,,,,"MET09006/18/21 01:56:02 METAR KART 180656Z VRB04KT 10SM CLR 14/06 A2994 RMK AO2 SLP135 T01440056","FM-15","7",,,,,,,,,,,,,,,,,,,,,,,,,,,,"2005-11-07"
"72622794790","2021-06-18T02:56:00","FM-15","7",,,,,,,,,,,,,,,,,,,,,,,,,,,,,,,,,,,,,,"29.93","43","60","0.00",,,,"53","29.92","CLR:00","29.57","10.00","51","VRB",,"5",,,,,,,,,,,,,,,,,,,,,,,,,,,,,,,,,,,,,"MET09006/18/21 02:56:02 METAR KART 180756Z VRB04KT 10SM CLR 16/06 A2993 RMK AO2 SLP133 T01560061","FM-15","7",,,,,,,,,,,,,,,,,,,,,,,,,,,,"2005-11-07"
"72622794790","2021-06-18T03:56:00","FM-15","7",,,,,,,,,,,,,,,,,,,,,,,,,,,,,,,,,,,,,,"29.91","43","61","0.00",,"+0.03","8","52","29.90","CLR:00","29.55","10.00","52","170",,"7",,,,,,,,,,,,,,,,,,,,,,,,,,,,,,,,,,,,,"MET09606/18/21 03:56:02 METAR KART 180856Z 17006KT 10SM CLR 16/06 A2991 RMK AO2 SLP125 T01610061 58010","FM-15","7",,,,,,,,,,,,,,,,,,,,,,,,,,,,"2005-11-07"
"72622794790","2021-06-18T04:56:00","FM-15","7",,,,,,,,,,,,,,,,,,,,,,,,,,,,,,,,,,,,,,"29.91","43","61","0.00",,,,"52","29.89","CLR:00","29.55","10.00","52","VRB",,"5",,,,,,,,,,,,,,,,,,,,,,,,,,,,,,,,,,,,,"MET09006/18/21 04:56:02 METAR KART 180956Z VRB04KT 10SM CLR 16/06 A2991 RMK AO2 SLP123 T01610061","FM-15","7",,,,,,,,,,,,,,,,,,,,,,,,,,,,"2005-11-07"
"72622794790","2021-06-18T05:56:00","FM-15","7",,,,,,,,,,,,,,,,,,,,,,,,,,,,,,,,,,,,,,"29.89","45","64","0.00",,,,"50","29.88","CLR:00","29.53","10.00","54","170",,"7",,,,,,,,,,,,,,,,,,,,,,,,,,,,,,,,,,,,,"MET09006/18/21 05:56:02 METAR KART 181056Z 17006KT 10SM CLR 18/07 A2989 RMK AO2 SLP118 T01780072","FM-15","7",,,,,,,,,,,,,,,,,,,,,,,,,,,,"2005-11-07"
"72622794790","2021-06-18T06:56:00","FM-15","7",,,,,,,,,,,,,,,,,,,,,,,,,,,,,,,,,,,,,,"29.88","47","67","0.00",,"+0.03","8","49","29.87","CLR:00","29.52","10.00","56","210",,"6",,,,,,,,,,,,,,,,,,,,,,,,,,,,,,,,,,,,,"MET10806/18/21 06:56:02 METAR KART 181156Z 21005KT 10SM CLR 19/08 A2988 RMK AO2 SLP115 T01940083 10194 20144 58010","FM-15","7",,,,,,,,,,,,,,,,,,,,,,,,,,,,"2005-11-07"
"72622794790","2021-06-18T07:56:00","FM-15","7",,,,,,,,,,,,,,,,,,,,,,,,,,,,,,,,,,,,,,"29.87","49","69","0.00",,,,"49","29.86","CLR:00","29.51","10.00","58","190",,"8",,,,,,,,,,,,,,,,,,,,,,,,,,,,,,,,,,,,,"MET09206/18/21 07:56:02 METAR KART 181256Z 19007KT 10SM CLR 21/09 A2987 RMK AO2 SLP113 T02060094 $","FM-15","7",,,,,,,,,,,,,,,,,,,,,,,,,,,,"2005-11-07"
"72622794790","2021-06-18T08:56:00","FM-15","7",,,,,,,,,,,,,,,,,,,,,,,,,,,,,,,,,,,,,,"29.85","51","72","0.00",,,,"48","29.84","CLR:00","29.49","10.00","60","190",,"10",,,,,,,,,,,,,,,,,,,,,,,,,,,,,,,,,,,,,"MET09206/18/21 08:56:02 METAR KART 181356Z 19009KT 10SM CLR 22/11 A2985 RMK AO2 SLP105 T02220106 $","FM-15","7",,,,,,,,,,,,,,,,,,,,,,,,,,,,"2005-11-07"
"72622794790","2021-06-18T09:56:00","FM-15","7",,,,,,,,,,,,,,,,,,,,,,,,,,,,,,,,,,,,,,"29.86","53","76","0.00",,"+0.02","5","45","29.84","SCT:04 110","29.50","10.00","62","220","25","16",,,,,,,,,,,,,,,,,,,,,,,,,,,,,,,,,,,,,"MET10406/18/21 09:56:02 METAR KART 181456Z 22014G22KT 10SM SCT110 24/12 A2986 RMK AO2 SLP106 T02440117 55008 $","FM-15","7",,,,,,,,,,,,,,,,,,,,,,,,,,,,"2005-11-07"
"72622794790","2021-06-18T10:56:00","FM-15","7",,,,,,,,,,,,,,,,,,,,,,,,,,,,,,,,,,,,,,"29.85","53","75","0.00",,,,"46","29.84","CLR:00","29.49","10.00","62","220","28","21",,,,,,,,,,,,,,,,,,,,,,,,,,,,,,,,,,,,,"MET09506/18/21 10:56:02 METAR KART 181556Z 22018G24KT 10SM CLR 24/12 A2985 RMK AO2 SLP104 T02390117 $","FM-15","7",,,,,,,,,,,,,,,,,,,,,,,,,,,,"2005-11-07"
"72622794790","2021-06-18T11:56:00","FM-15","7",,,,,,,,,,,,,,,,,,,,,,,,,,,,,,,,,,,,,,"29.86","55","74","0.00",,,,"52","29.84","CLR:00","29.50","10.00","63","240","23","15",,,,,,,,,,,,,,,,,,,,,,,,,,,,,,,,,,,,,"MET09506/18/21 11:56:02 METAR KART 181656Z 24013G20KT 10SM CLR 23/13 A2986 RMK AO2 SLP106 T02330128 $","FM-15","7",,,,,,,,,,,,,,,,,,,,,,,,,,,,"2005-11-07"
"72622794790","2021-06-18T12:56:00","FM-15","7",,,,,,,,,,,,,,,,,,,,,,,,,,,,,,,,,,,,,,"29.86","58","69","T","-RA:02 |RA |RA","-0.01","3","68","29.85","BKN:07 100","29.50","10.00","62","240",,"13",,,,,,,,,,,,,,,,,,,,,,,,,,,,,,,,,,,,,"MET14106/18/21 12:56:02 METAR KART 181756Z 24011KT 10SM -RA BKN100 21/14 A2986 RMK AO2 RAB09E26B56 SLP110 P0000 60000 T02060144 10256 20194 53003 $","FM-15","7",,,,,,,,,,,,,,,,,,,,,,,,,,,,"2005-11-07"
"72622794790","2021-06-18T13:56:00","FM-15","7",,,,,,,,,,,,,,,,,,,,,,,,,,,,,,,,,,,,,,"29.86","60","66","T","-RA:02 |RA |RA",,,"81","29.85","SCT:04 55 BKN:07 70 OVC:08 100","29.50","10.00","62","250","21","11",,,,,,,,,,,,,,,,,,,,,,,,,,,,,,,,,,,,,"MET12206/18/21 13:56:02 METAR KART 181856Z 25010G18KT 10SM -RA SCT055 BKN070 OVC100 19/16 A2986 RMK AO2 SLP110 P0000 T01890156 $","FM-15","7",,,,,,,,,,,,,,,,,,,,,,,,,,,,"2005-11-07"
"72622794790","2021-06-18T14:56:00","FM-15","7",,,,,,,,,,,,,,,,,,,,,,,,,,,,,,,,,,,,,,"29.83","61","65","0.03","-RA:02 BR:1 |RA |RA",,,"87","29.82","BKN:07 80 OVC:08 100","29.47","5.00","63","210",,"8",,,,,,,,,,,,,,,,,,,,,,,,,,,,,,,,,,,,,"MET11406/18/21 14:56:02 METAR KART 181956Z 21007KT 5SM -RA BR BKN080 OVC100 18/16 A2983 RMK AO2 SLP098 P0002 T01830161 $","FM-15","7",,,,,,,,,,,,,,,,,,,,,,,,,,,,"2005-11-07"
"72622794790","2021-06-18T15:56:00","FM-15","7",,,,,,,,,,,,,,,,,,,,,,,,,,,,,,,,,,,,,,"29.80","62","65","0.03","-RA:02 |RA |RA","+0.06","8","90","29.79","BKN:07 75 OVC:08 100","29.44","10.00","63","VRB",,"3",,,,,,,,,,,,,,,,,,,,,,,,,,,,,,,,,,,,,"MET12406/18/21 15:56:02 METAR KART 182056Z VRB03KT 10SM -RA BKN075 OVC100 18/17 A2980 RMK AO2 SLP088 P0004 60006 T01830167 58022 $","FM-15","7",,,,,,,,,,,,,,,,,,,,,,,,,,,,"2005-11-07"
"72622794790","2021-06-18T16:56:00","FM-15","7",,,,,,,,,,,,,,,,,,,,,,,,,,,,,,,,,,,,,,"29.78","62","66","0.04","-RA:02 BR:1 |RA |RA",,,"87","29.77","BKN:07 60 OVC:08 75","29.42","6.00","64","180",,"6",,,,,,,,,,,,,,,,,,,,,,,,,,,,,,,,,,,,,"MET11406/18/21 16:56:02 METAR KART 182156Z 18005KT 6SM -RA BR BKN060 OVC075 19/17 A2978 RMK AO2 SLP081 P0004 T01890167 $","FM-15","7",,,,,,,,,,,,,,,,,,,,,,,,,,,,"2005-11-07"
"72622794790","2021-06-18T17:56:00","FM-15","7",,,,,,,,,,,,,,,,,,,,,,,,,,,,,,,,,,,,,,"29.73","62","67","0.01",,,,"84","29.72","BKN:07 60","29.38","10.00","64","180",,"7",,,,,,,,,,,,,,,,,,,,,,,,,,,,,,,,,,,,,"MET10706/18/21 17:56:02 METAR KART 182256Z 18006KT 10SM BKN060 19/17 A2973 RMK AO2 RAE21 SLP064 P0001 T01940167 $","FM-15","7",,,,,,,,,,,,,,,,,,,,,,,,,,,,"2005-11-07"
"72622794790","2021-06-18T18:41:00","FM-16","7",,,,,,,,,,,,,,,,,,,,,,,,,,,,,,,,,,,,,,"29.72","62","67",,,,,"84",,"FEW:02 2","29.36","10.00","64","VRB",,"3",,,,,,,,,,,,,,,,,,,,,,,,,,,,,,,,,,,,,"MET08806/18/21 18:41:02 SPECI KART 182341Z VRB03KT 10SM FEW002 19/17 A2972 RMK AO2 T01940167 $","FM-16","7",,,,,,,,,,,,,,,,,,,,,,,,,,,,"2005-11-07"
"72622794790","2021-06-18T18:56:00","FM-15","7",,,,,,,,,,,,,,,,,,,,,,,,,,,,,,,,,,,,,,"29.72","61","67","0.00",,"+0.08","6","81","29.71","CLR:00","29.36","10.00","63","180",,"8",,,,,,,,,,,,,,,,,,,,,,,,,,,,,,,,,,,,,"MET11606/18/21 18:56:02 METAR KART 182356Z 18007KT 10SM CLR 19/16 A2972 RMK AO2 SLP060 60011 T01940161 10206 20183 56026 $","FM-15","7",,,,,,,,,,,,,,,,,,,,,,,,,,,,"2005-11-07"
"72622794790","2021-06-18T19:56:00","FM-15","7",,,,,,,,,,,,,,,,,,,,,,,,,,,,,,,,,,,,,,"29.70","61","68","0.00",,,,"78","29.68","SCT:04 110","29.34","10.00","64","170",,"8",,,,,,,,,,,,,,,,,,,,,,,,,,,,,,,,,,,,,"MET09506/18/21 19:56:01 METAR KART 190056Z 17007KT 10SM SCT110 20/16 A2970 RMK AO2 SLP052 T02000161 $","FM-15","7",,,,,,,,,,,,,,,,,,,,,,,,,,,,"2005-11-07"
"72622794790","2021-06-18T20:56:00","FM-15","7",,,,,,,,,,,,,,,,,,,,,,,,,,,,,,,,,,,,,,"29.69","60","69","0.00",,,,"73","29.67","SCT:04 50 SCT:04 110","29.34","10.00","64","170",,"10",,,,,,,,,,,,,,,,,,,,,,,,,,,,,,,,,,,,,"MET10206/18/21 20:56:01 METAR KART 190156Z 17009KT 10SM SCT050 SCT110 21/16 A2969 RMK AO2 SLP048 T02060156 $","FM-15","7",,,,,,,,,,,,,,,,,,,,,,,,,,,,"2005-11-07"
"72622794790","2021-06-18T21:56:00","FM-15","7",,,,,,,,,,,,,,,,,,,,,,,,,,,,,,,,,,,,,,"29.67","60","70","0.00",,"+0.05","6","71","29.65","SCT:04 55 BKN:07 110","29.31","10.00","64","170","16","9",,,,,,,,,,,,,,,,,,,,,,,,,,,,,,,,,,,,,"MET11106/18/21 21:56:01 METAR KART 190256Z 17008G14KT 10SM SCT055 BKN110 21/16 A2967 RMK AO2 SLP041 T02110156 56018 $","FM-15","7",,,,,,,,,,,,,,,,,,,,,,,,,,,,"2005-11-07"
"72622794790","2021-06-18T22:56:00","FM-15","7",,,,,,,,,,,,,,,,,,,,,,,,,,,,,,,,,,,,,,"29.67","61","71","0.00",,,,"71","29.65","BKN:07 42 OVC:08 50","29.31","10.00","65","210",,"9",,,,,,,,,,,,,,,,,,,,,,,,,,,,,,,,,,,,,"MET10206/18/21 22:56:02 METAR KART 190356Z 21008KT 10SM BKN042 OVC050 22/16 A2967 RMK AO2 SLP041 T02170161 $","FM-15","7",,,,,,,,,,,,,,,,,,,,,,,,,,,,"2005-11-07"
"72622794790","2021-06-18T23:56:00","FM-15","7",,,,,,,,,,,,,,,,,,,,,,,,,,,,,,,,,,,,,,"29.67","62","72","T","-RA:02 |RA |RA",,,"71","29.65","FEW:02 32 BKN:07 50 OVC:08 70","29.31","10.00","66","220",,"11",,,,,,,,,,,,,,,,,,,,,,,,,,,,,,,,,,,,,"MET14706/18/21 23:56:02 METAR KART 190456Z 22010KT 10SM -RA FEW032 BKN050 OVC070 22/17 A2967 RMK AO2 LTG DSNT NW RAB35 SLP041 P0000 T02220167 402560144 $","FM-15","7",,,,,,,,,,,,,,,,,,,,,,,,,,,,"2005-11-07"
"72622794790","2021-06-18T23:59:00","SOD  ","6",,,,,,,,,,,,,,,,"68",,,"29.49",,"8.9","3","3.9","0","78","58","220","28","0.11",,,"230","22","RA BR",,,,,,,,,,,,,,,,,,,,,,,,,,,,,,,,,,,,,,,,,,,,,,,,,,,,,,,,"SOD70624 HR PRECIPITATION (IN): 0.11 WEATHER(CODE):1  24 HR MAX TEMP (F): 7824 HR MIN TEMP (F): 58AVERAGE STATION PRESSURE:29.490 MINIMUM SEA LEVEL PRESSURE:29.64 TIME OF OCCURRENCE:2350 PEAK WIND SPEED (MPH): 28 PEAK WIND DIR (DEG):220 PEAK WIND TIME (LST):      FASTEST 2MIN SPEED (MPH): 22FASTEST 2MIN DIR (DEG):230 FASTEST 2MIN TIME (LST):     AVERAGE WIND SPEED (MPH): 8.9 24 HR AVG TEMP (F): 68DEPART FROM NORMAL:  3  HEATING DEGREE DAYS:  0 COOLING DEGREE DAYS:  3 LATEST DAY MAX TEMP (0700-1900 LST):78  LATEST NIGHT MIN TEMP(1900-0800 LST):56 HOURLY INCREMENTAL PRECIPITATION VALUES (IN):.00 0.00 0.00 0.00 0.00 0.00 0.00 0.00 0.00 0.00 0.00 0.00 T    T    0.03 0.03 0.04 0.01 0.00 0.00 0.00 0.00 0.00 T","SOD  ","6",,,,,,,,,,,,,,,,,,,,,,,,,"0421","1950",,"2005-11-07"
"72622794790","2021-06-19T00:56:00","FM-15","7",,,,,,,,,,,,,,,,,,,,,,,,,,,,,,,,,,,,,,"29.66","63","71","0.01","-RA:02 |RA |RA","+0.01","8","76","29.64","BKN:07 35 OVC:08 42","29.31","10.00","66","230","25","15",,,,,,,,,,,,,,,,,,,,,,,,,,,,,,,,,,,,,"MET15106/19/21 00:56:02 METAR KART 190556Z 23013G22KT 10SM -RA BKN035 OVC042 22/17 A2966 RMK AO2 LTG DSNT NE SLP038 P0001 60001 T02170172 10222 20194 58003 $","FM-15","7",,,,,,,,,,,,,,,,,,,,,,,,,,,,"2005-11-07"
"72622794790","2021-06-19T01:56:00","FM-15","7",,,,,,,,,,,,,,,,,,,,,,,,,,,,,,,,,,,,,,"29.68","61","67","T",,,,"81","29.67","OVC:08 75","29.33","10.00","63","250",,"10",,,,,,,,,,,,,,,,,,,,,,,,,,,,,,,,,,,,,"MET10706/19/21 01:56:02 METAR KART 190656Z 25009KT 10SM OVC075 19/16 A2968 RMK AO2 RAE06 SLP046 P0000 T01940161 $","FM-15","7",,,,,,,,,,,,,,,,,,,,,,,,,,,,"2005-11-07"
"72622794790","2021-06-19T02:56:00","FM-15","7",,,,,,,,,,,,,,,,,,,,,,,,,,,,,,,,,,,,,,"29.68","62","65","0.00",,,,"90","29.66","BKN:07 95","29.33","10.00","63","230",,"6",,,,,,,,,,,,,,,,,,,,,,,,,,,,,,,,,,,,,"MET09506/19/21 02:56:02 METAR KART 190756Z 23005KT 10SM BKN095 18/17 A2968 RMK AO2 SLP045 T01830167 $","FM-15","7",,,,,,,,,,,,,,,,,,,,,,,,,,,,"2005-11-07"
"72622794790","2021-06-19T03:56:00","FM-15","7",,,,,,,,,,,,,,,,,,,,,,,,,,,,,,,,,,,,,,"29.68","62","64","0.00",,"-0.01","0","93","29.66","OVC:08 110","29.33","8.00","63","200",,"5",,,,,,,,,,,,,,,,,,,,,,,,,,,,,,,,,,,,,"MET10606/19/21 03:56:02 METAR KART 190856Z 20004KT 8SM OVC110 18/17 A2968 RMK AO2 SLP045 60000 T01780167 50005 $","FM-15","7",,,,,,,,,,,,,,,,,,,,,,,,,,,,"2005-11-07"
"72622794790","2021-06-19T04:56:00","FM-15","7",,,,,,,,,,,,,,,,,,,,,,,,,,,,,,,,,,,,,,"29.69","61","63","0.00","BR:1 ||",,,"93","29.67","CLR:00","29.34","4.00","62","190",,"5",,,,,,,,,,,,,,,,,,,,,,,,,,,,,,,,,,,,,"MET09406/19/21 04:56:02 METAR KART 190956Z 19004KT 4SM BR CLR 17/16 A2969 RMK AO2 SLP049 T01720161 $","FM-15","7",,,,,,,,,,,,,,,,,,,,,,,,,,,,"2005-11-07"
"72622794790","2021-06-19T05:56:00","FM-15","7",,,,,,,,,,,,,,,,,,,,,,,,,,,,,,,,,,,,,,"29.71","62","65","0.00","BR:1 ||",,,"90","29.70","FEW:02 100","29.36","5.00","63","200",,"7",,,,,,,,,,,,,,,,,,,,,,,,,,,,,,,,,,,,,"MET09706/19/21 05:56:02 METAR KART 191056Z 20006KT 5SM BR FEW100 18/17 A2971 RMK AO2 SLP056 T01830167 $","FM-15","7",,,,,,,,,,,,,,,,,,,,,,,,,,,,"2005-11-07"
"72622794790","2021-06-19T06:08:00","FM-16","7",,,,,,,,,,,,,,,,,,,,,,,,,,,,,,,,,,,,,,"29.71","62","65",,"BR:1 ||",,,"90",,"FEW:02 5 SCT:04 95","29.36","4.00","63","210",,"7",,,,,,,,,,,,,,,,,,,,,,,,,,,,,,,,,,,,,"MET09706/19/21 06:08:02 SPECI KART 191108Z 21006KT 4SM BR FEW005 SCT095 18/17 A2971 RMK AO2 T01830167 $","FM-16","7",,,,,,,,,,,,,,,,,,,,,,,,,,,,"2005-11-07"
"72622794790","2021-06-19T06:56:00","FM-15","7",,,,,,,,,,,,,,,,,,,,,,,,,,,,,,,,,,,,,,"29.72","63","67","0.00","BR:1 ||","-0.04","1","87","29.70","FEW:02 6","29.36","4.00","65","220",,"6",,,,,,,,,,,,,,,,,,,,,,,,,,,,,,,,,,,,,"MET12706/19/21 06:56:02 METAR KART 191156Z 22005KT 4SM BR FEW006 19/17 A2972 RMK AO2 SLP059 60000 70012 T01940172 10217 20172 51014 $","FM-15","7",,,,,,,,,,,,,,,,,,,,,,,,,,,,"2005-11-07"
"72622794790","2021-06-19T07:56:00","FM-15","7",,,,,,,,,,,,,,,,,,,,,,,,,,,,,,,,,,,,,,"29.73","63","70","0.00",,,,"79","29.72","CLR:00","29.38","7.00","66","220",,"9",,,,,,,,,,,,,,,,,,,,,,,,,,,,,,,,,,,,,"MET09106/19/21 07:56:02 METAR KART 191256Z 22008KT 7SM CLR 21/17 A2973 RMK AO2 SLP063 T02110172 $","FM-15","7",,,,,,,,,,,,,,,,,,,,,,,,,,,,"2005-11-07"
"72622794790","2021-06-19T08:56:00","FM-15","7",,,,,,,,,,,,,,,,,,,,,,,,,,,,,,,,,,,,,,"29.72","62","73","0.00",,,,"69","29.70","CLR:00","29.36","10.00","66","220",,"13",,,,,,,,,,,,,,,,,,,,,,,,,,,,,,,,,,,,,"MET09206/19/21 08:56:02 METAR KART 191356Z 22011KT 10SM CLR 23/17 A2972 RMK AO2 SLP059 T02280167 $","FM-15","7",,,,,,,,,,,,,,,,,,,,,,,,,,,,"2005-11-07"
"72622794790","2021-06-19T09:56:00","FM-15","7",,,,,,,,,,,,,,,,,,,,,,,,,,,,,,,,,,,,,,"29.71","60","75","0.00",,"+0.01","8","60","29.70","CLR:00","29.36","10.00","66","230",,"10",,,,,,,,,,,,,,,,,,,,,,,,,,,,,,,,,,,,,"MET09806/19/21 09:56:02 METAR KART 191456Z 23009KT 10SM CLR 24/16 A2971 RMK AO2 SLP056 T02390156 58002 $","FM-15","7",,,,,,,,,,,,,,,,,,,,,,,,,,,,"2005-11-07"
"72622794790","2021-06-19T10:56:00","FM-15","7",,,,,,,,,,,,,,,,,,,,,,,,,,,,,,,,,,,,,,"29.71","62","75","0.00",,,,"64","29.70","CLR:00","29.36","10.00","67","260",,"13",,,,,,,,,,,,,,,,,,,,,,,,,,,,,,,,,,,,,"MET09206/19/21 10:56:02 METAR KART 191556Z 26011KT 10SM CLR 24/17 A2971 RMK AO2 SLP056 T02390167 $","FM-15","7",,,,,,,,,,,,,,,,,,,,,,,,,,,,"2005-11-07"
"72622794790","2021-06-19T11:56:00","FM-15","7",,,,,,,,,,,,,,,,,,,,,,,,,,,,,,,,,,,,,,"29.72","65","75","0.00",,,,"71","29.70","CLR:00","29.36","10.00","69","250","21","15",,,,,,,,,,,,,,,,,,,,,,,,,,,,,,,,,,,,,"MET09506/19/21 11:56:02 METAR KART 191656Z 25013G18KT 10SM CLR 24/18 A2972 RMK AO2 SLP059 T02390183 $","FM-15","7",,,,,,,,,,,,,,,,,,,,,,,,,,,,"2005-11-07"
"72622794790","2021-06-19T12:56:00","FM-15","7",,,,,,,,,,,,,,,,,,,,,,,,,,,,,,,,,,,,,,"29.72","68","76","0.00","HZ:7 |FU |HZ","-0.01","0","77","29.70","CLR:00","29.36","6.00","71","260","22","14",,,,,,,,,,,,,,,,,,,,,,,,,,,,,,,,,,,,,"MET11506/19/21 12:56:02 METAR KART 191756Z 26012G19KT 6SM HZ CLR 24/20 A2972 RMK AO2 SLP058 T02440200 10250 20194 50003 $","FM-15","7",,,,,,,,,,,,,,,,,,,,,,,,,,,,"2005-11-07"
"72622794790","2021-06-19T13:56:00","FM-15","7",,,,,,,,,,,,,,,,,,,,,,,,,,,,,,,,,,,,,,"29.71","66","78","0.00",,,,"67","29.69","CLR:00","29.36","10.00","70","250","21","14",,,,,,,,,,,,,,,,,,,,,,,,,,,,,,,,,,,,,"MET09506/19/21 13:56:02 METAR KART 191856Z 25012G18KT 10SM CLR 26/19 A2971 RMK AO2 SLP055 T02560189 $","FM-15","7",,,,,,,,,,,,,,,,,,,,,,,,,,,,"2005-11-07"
"72622794790","2021-06-19T14:56:00","FM-15","7",,,,,,,,,,,,,,,,,,,,,,,,,,,,,,,,,,,,,,"29.68","61","79","0.00",,,,"54","29.67","CLR:00","29.33","10.00","68","240",,"13",,,,,,,,,,,,,,,,,,,,,,,,,,,,,,,,,,,,,"MET09006/19/21 14:56:02 METAR KART 191956Z 24011KT 10SM CLR 26/16 A2968 RMK AO2 SLP046 T02610161","FM-15","7",,,,,,,,,,,,,,,,,,,,,,,,,,,,"2005-11-07"
"72622794790","2021-06-19T15:56:00","FM-15","7",,,,,,,,,,,,,,,,,,,,,,,,,,,,,,,,,,,,,,"29.67","59","80","0.00",,"+0.05","6","49","29.66","CLR:00","29.31","10.00","67","240",,"8",,,,,,,,,,,,,,,,,,,,,,,,,,,,,,,,,,,,,"MET09606/19/21 15:56:02 METAR KART 192056Z 24007KT 10SM CLR 27/15 A2967 RMK AO2 SLP043 T02670150 56016","FM-15","7",,,,,,,,,,,,,,,,,,,,,,,,,,,,"2005-11-07"
"72622794790","2021-06-19T16:56:00","FM-15","7",,,,,,,,,,,,,,,,,,,,,,,,,,,,,,,,,,,,,,"29.65","58","78","0.00",,,,"50","29.64","CLR:00","29.30","10.00","66","230",,"10",,,,,,,,,,,,,,,,,,,,,,,,,,,,,,,,,,,,,"MET09006/19/21 16:56:02 METAR KART 192156Z 23009KT 10SM CLR 26/14 A2965 RMK AO2 SLP037 T02560144","FM-15","7",,,,,,,,,,,,,,,,,,,,,,,,,,,,"2005-11-07"
"72622794790","2021-06-19T17:56:00","FM-15","7",,,,,,,,,,,,,,,,,,,,,,,,,,,,,,,,,,,,,,"29.67","57","78","0.00",,,,"48","29.65","CLR:00","29.31","10.00","65","210",,"9",,,,,,,,,,,,,,,,,,,,,,,,,,,,,,,,,,,,,"MET09006/19/21 17:56:02 METAR KART 192256Z 21008KT 10SM CLR 26/14 A2967 RMK AO2 SLP041 T02560139","FM-15","7",,,,,,,,,,,,,,,,,,,,,,,,,,,,"2005-11-07"
"72622794790","2021-06-19T18:56:00","FM-15","7",,,,,,,,,,,,,,,,,,,,,,,,,,,,,,,,,,,,,,"29.67","56","73","0.00",,"+0.00","5","55","29.66","CLR:00","29.31","10.00","63","230",,"7",,,,,,,,,,,,,,,,,,,,,,,,,,,,,,,,,,,,,"MET10806/19/21 18:56:02 METAR KART 192356Z 23006KT 10SM CLR 23/13 A2967 RMK AO2 SLP043 T02280133 10267 20228 55000","FM-15","7",,,,,,,,,,,,,,,,,,,,,,,,,,,,"2005-11-07"
"72622794790","2021-06-19T19:56:00","FM-15","7",,,,,,,,,,,,,,,,,,,,,,,,,,,,,,,,,,,,,,"29.68","55","70","0.00",,,,"59","29.67","CLR:00","29.33","10.00","61","230",,"5",,,,,,,,,,,,,,,,,,,,,,,,,,,,,,,,,,,,,"MET09006/19/21 19:56:01 METAR KART 200056Z 23004KT 10SM CLR 21/13 A2968 RMK AO2 SLP046 T02110128","FM-15","7",,,,,,,,,,,,,,,,,,,,,,,,,,,,"2005-11-07"
"72622794790","2021-06-19T20:56:00","FM-15","7",,,,,,,,,,,,,,,,,,,,,,,,,,,,,,,,,,,,,,"29.72","59","70","0.00",,,,"68","29.70","CLR:00","29.36","10.00","63","220",,"10",,,,,,,,,,,,,,,,,,,,,,,,,,,,,,,,,,,,,"MET10106/19/21 20:56:01 METAR KART 200156Z 22009KT 10SM CLR 21/15 A2972 RMK AO2 LTG DSNT S SLP059 T02110150","FM-15","7",,,,,,,,,,,,,,,,,,,,,,,,,,,,"2005-11-07"
"72622794790","2021-06-19T21:56:00","FM-15","7",,,,,,,,,,,,,,,,,,,,,,,,,,,,,,,,,,,,,,"29.75","61","66","0.00",,"-0.07","3","84","29.73","CLR:00","29.39","10.00","63","210","18","9",,,,,,,,,,,,,,,,,,,,,,,,,,,,,,,,,,,,,"MET09906/19/21 21:56:02 METAR KART 200256Z 21008G16KT 10SM CLR 19/16 A2975 RMK AO2 SLP069 T01890161 53025","FM-15","7",,,,,,,,,,,,,,,,,,,,,,,,,,,,"2005-11-07"
"72622794790","2021-06-19T22:56:00","FM-15","7",,,,,,,,,,,,,,,,,,,,,,,,,,,,,,,,,,,,,,"29.75","60","65","0.00",,,,"84","29.74","FEW:02 31","29.39","10.00","62","210",,"6",,,,,,,,,,,,,,,,,,,,,,,,,,,,,,,,,,,,,"MET09306/19/21 22:56:02 METAR KART 200356Z 21005KT 10SM FEW031 18/16 A2975 RMK AO2 SLP071 T01830156","FM-15","7",,,,,,,,,,,,,,,,,,,,,,,,,,,,"2005-11-07"
"72622794790","2021-06-19T23:56:00","FM-15","7",,,,,,,,,,,,,,,,,,,,,,,,,,,,,,,,,,,,,,"29.75","60","65","0.00",,,,"84","29.74","SCT:04 36","29.39","10.00","62","190",,"6",,,,,,,,,,,,,,,,,,,,,,,,,,,,,,,,,,,,,"MET10306/19/21 23:56:02 METAR KART 200456Z 19005KT 10SM SCT036 18/16 A2975 RMK AO2 SLP071 T01830156 402670172","FM-15","7",,,,,,,,,,,,,,,,,,,,,,,,,,,,"2005-11-07"
"72622794790","2021-06-19T23:59:00","SOD  ","6",,,,,,,,,,,,,,,,"72",,,"29.33",,"9.3","7","7.7","0","80","63","230","26","0.01",,,"210","17","RA BR HZ",,,,,,,,,,,,,,,,,,,,,,,,,,,,,,,,,,,,,,,,,,,,,,,,,,,,,,,,"SOD71024 HR PRECIPITATION (IN): 0.01 WEATHER(CODE):18  24 HR MAX TEMP (F): 8024 HR MIN TEMP (F): 63AVERAGE STATION PRESSURE:29.330 MINIMUM SEA LEVEL PRESSURE:29.64 TIME OF OCCURRENCE:1743 PEAK WIND SPEED (MPH): 26 PEAK WIND DIR (DEG):230 PEAK WIND TIME (LST):      FASTEST 2MIN SPEED (MPH): 17FASTEST 2MIN DIR (DEG):210 FASTEST 2MIN TIME (LST):     AVERAGE WIND SPEED (MPH): 9.3 24 HR AVG TEMP (F): 72DEPART FROM NORMAL:  7  HEATING DEGREE DAYS:  0 COOLING DEGREE DAYS:  7 LATEST DAY MAX TEMP (0700-1900 LST):80  LATEST NIGHT MIN TEMP(1900-0800 LST):63 HOURLY INCREMENTAL PRECIPITATION VALUES (IN):.01 T    0.00 0.00 0.00 0.00 0.00 0.00 0.00 0.00 0.00 0.00 0.00 0.00 0.00 0.00 0.00 0.00 0.00 0.00 0.00 0.00 0.00 0.00","SOD  ","6",,,,,,,,,,,,,,,,,,,,,,,,,"0421","1950",,"2005-11-07"
"72622794790","2021-06-20T00:56:00","FM-15","7",,,,,,,,,,,,,,,,,,,,,,,,,,,,,,,,,,,,,,"29.75","60","66","0.00",,"-0.00","0","81","29.74","BKN:07 75 BKN:07 100","29.39","10.00","62","200",,"7",,,,,,,,,,,,,,,,,,,,,,,,,,,,,,,,,,,,,"MET11806/20/21 00:56:02 METAR KART 200556Z 20006KT 10SM BKN075 BKN100 19/16 A2975 RMK AO2 SLP070 T01890156 10228 20183 50001","FM-15","7",,,,,,,,,,,,,,,,,,,,,,,,,,,,"2005-11-07"
"72622794790","2021-06-20T01:56:00","FM-15","7",,,,,,,,,,,,,,,,,,,,,,,,,,,,,,,,,,,,,,"29.75","59","66","0.00",,,,"78","29.74","CLR:00","29.39","10.00","62","220",,"9",,,,,,,,,,,,,,,,,,,,,,,,,,,,,,,,,,,,,"MET09006/20/21 01:56:02 METAR KART 200656Z 22008KT 10SM CLR 19/15 A2975 RMK AO2 SLP070 T01890150","FM-15","7",,,,,,,,,,,,,,,,,,,,,,,,,,,,"2005-11-07"
"72622794790","2021-06-20T02:56:00","FM-15","7",,,,,,,,,,,,,,,,,,,,,,,,,,,,,,,,,,,,,,"29.75","60","65","0.00",,,,"84","29.74","FEW:02 20","29.39","10.00","62","200",,"8",,,,,,,,,,,,,,,,,,,,,,,,,,,,,,,,,,,,,"MET09306/20/21 02:56:02 METAR KART 200756Z 20007KT 10SM FEW020 18/16 A2975 RMK AO2 SLP070 T01830156","FM-15","7",,,,,,,,,,,,,,,,,,,,,,,,,,,,"2005-11-07"
"72622794790","2021-06-20T03:56:00","FM-15","7",,,,,,,,,,,,,,,,,,,,,,,,,,,,,,,,,,,,,,"29.75","59","63","0.00",,"+0.00","8","87","29.73","CLR:00","29.39","10.00","61","200",,"6",,,,,,,,,,,,,,,,,,,,,,,,,,,,,,,,,,,,,"MET09606/20/21 03:56:02 METAR KART 200856Z 20005KT 10SM CLR 17/15 A2975 RMK AO2 SLP069 T01720150 58001","FM-15","7",,,,,,,,,,,,,,,,,,,,,,,,,,,,"2005-11-07"
"72622794790","2021-06-20T04:56:00","FM-15","7",,,,,,,,,,,,,,,,,,,,,,,,,,,,,,,,,,,,,,"29.77","59","63","0.00",,,,"87","29.75","CLR:00","29.41","10.00","61","200",,"6",,,,,,,,,,,,,,,,,,,,,,,,,,,,,,,,,,,,,"MET09006/20/21 04:56:02 METAR KART 200956Z 20005KT 10SM CLR 17/15 A2977 RMK AO2 SLP075 T01720150","FM-15","7",,,,,,,,,,,,,,,,,,,,,,,,,,,,"2005-11-07"
"72622794790","2021-06-20T05:42:00","FM-16","7",,,,,,,,,,,,,,,,,,,,,,,,,,,,,,,,,,,,,,"29.77","60","64",,,,,"87",,"FEW:02 1","29.41","10.00","62","200",,"6",,,,,,,,,,,,,,,,,,,,,,,,,,,,,,,,,,,,,"MET08606/20/21 05:42:02 SPECI KART 201042Z 20005KT 10SM FEW001 18/16 A2977 RMK AO2 T01780156","FM-16","7",,,,,,,,,,,,,,,,,,,,,,,,,,,,"2005-11-07"
"72622794790","2021-06-20T05:56:00","FM-15","7",,,,,,,,,,,,,,,,,,,,,,,,,,,,,,,,,,,,,,"29.77","60","65","0.00",,,,"84","29.76","CLR:00","29.41","10.00","62","200",,"8",,,,,,,,,,,,,,,,,,,,,,,,,,,,,,,,,,,,,"MET09006/20/21 05:56:02 METAR KART 201056Z 20007KT 10SM CLR 18/16 A2977 RMK AO2 SLP078 T01830156","FM-15","7",,,,,,,,,,,,,,,,,,,,,,,,,,,,"2005-11-07"
"72622794790","2021-06-20T06:56:00","FM-15","7",,,,,,,,,,,,,,,,,,,,,,,,,,,,,,,,,,,,,,"29.78","59","67","0.00",,"-0.03","1","76","29.77","FEW:02 15","29.42","10.00","62","230",,"14",,,,,,,,,,,,,,,,,,,,,,,,,,,,,,,,,,,,,"MET11106/20/21 06:56:02 METAR KART 201156Z 23012KT 10SM FEW015 19/15 A2978 RMK AO2 SLP080 T01940150 10194 20167 51010","FM-15","7",,,,,,,,,,,,,,,,,,,,,,,,,,,,"2005-11-07"
"72622794790","2021-06-20T07:56:00","FM-15","7",,,,,,,,,,,,,,,,,,,,,,,,,,,,,,,,,,,,,,"29.79","59","68","0.00",,,,"73","29.78","FEW:02 17","29.44","10.00","63","210",,"13",,,,,,,,,,,,,,,,,,,,,,,,,,,,,,,,,,,,,"MET09306/20/21 07:56:02 METAR KART 201256Z 21011KT 10SM FEW017 20/15 A2979 RMK AO2 SLP083 T02000150","FM-15","7",,,,,,,,,,,,,,,,,,,,,,,,,,,,"2005-11-07"
"72622794790","2021-06-20T08:56:00","FM-15","7",,,,,,,,,,,,,,,,,,,,,,,,,,,,,,,,,,,,,,"29.79","60","71","0.00",,,,"68","29.77","CLR:00","29.44","10.00","64","220",,"9",,,,,,,,,,,,,,,,,,,,,,,,,,,,,,,,,,,,,"MET09006/20/21 08:56:02 METAR KART 201356Z 22008KT 10SM CLR 22/16 A2979 RMK AO2 SLP082 T02170156","FM-15","7",,,,,,,,,,,,,,,,,,,,,,,,,,,,"2005-11-07"
"72622794790","2021-06-20T09:56:00","FM-15","7",,,,,,,,,,,,,,,,,,,,,,,,,,,,,,,,,,,,,,"29.79","61","72","0.00",,"-0.00","0","68","29.77","CLR:00","29.44","10.00","65","260",,"8",,,,,,,,,,,,,,,,,,,,,,,,,,,,,,,,,,,,,"MET09606/20/21 09:56:02 METAR KART 201456Z 26007KT 10SM CLR 22/16 A2979 RMK AO2 SLP081 T02220161 50001","FM-15","7",,,,,,,,,,,,,,,,,,,,,,,,,,,,"2005-11-07"
"72622794790","2021-06-20T10:56:00","FM-15","7",,,,,,,,,,,,,,,,,,,,,,,,,,,,,,,,,,,,,,"29.79","61","73","0.00",,,,"66","29.77","CLR:00","29.44","10.00","66","280",,"10",,,,,,,,,,,,,,,,,,,,,,,,,,,,,,,,,,,,,"MET09006/20/21 10:56:02 METAR KART 201556Z 28009KT 10SM CLR 23/16 A2979 RMK AO2 SLP082 T02280161","FM-15","7",,,,,,,,,,,,,,,,,,,,,,,,,,,,"2005-11-07"
"72622794790","2021-06-20T11:56:00","FM-15","7",,,,,,,,,,,,,,,,,,,,,,,,,,,,,,,,,,,,,,"29.78","61","76","0.00",,,,"60","29.76","CLR:00","29.42","10.00","67","270",,"10",,,,,,,,,,,,,,,,,,,,,,,,,,,,,,,,,,,,,"MET09006/20/21 11:56:02 METAR KART 201656Z 27009KT 10SM CLR 24/16 A2978 RMK AO2 SLP078 T02440161","FM-15","7",,,,,,,,,,,,,,,,,,,,,,,,,,,,"2005-11-07"
"72622794790","2021-06-20T12:56:00","FM-15","7",,,,,,,,,,,,,,,,,,,,,,,,,,,,,,,,,,,,,,"29.75","60","78","0.00",,"+0.03","8","54","29.74","CLR:00","29.39","10.00","67","280",,"11",,,,,,,,,,,,,,,,,,,,,,,,,,,,,,,,,,,,,"MET10806/20/21 12:56:02 METAR KART 201756Z 28010KT 10SM CLR 26/16 A2975 RMK AO2 SLP070 T02560156 10256 20189 58011","FM-15","7",,,,,,,,,,,,,,,,,,,,,,,,,,,,"2005-11-07"
"72622794790","2021-06-20T13:56:00","FM-15","7",,,,,,,,,,,,,,,,,,,,,,,,,,,,,,,,,,,,,,"29.75","61","77","0.00",,,,"58","29.74","CLR:00","29.39","10.00","67","250",,"10",,,,,,,,,,,,,,,,,,,,,,,,,,,,,,,,,,,,,"MET09006/20/21 13:56:02 METAR KART 201856Z 25009KT 10SM CLR 25/16 A2975 RMK AO2 SLP070 T02500161","FM-15","7",,,,,,,,,,,,,,,,,,,,,,,,,,,,"2005-11-07"
"72622794790","2021-06-20T14:56:00","FM-15","7",,,,,,,,,,,,,,,,,,,,,,,,,,,,,,,,,,,,,,"29.76","59","77","0.00",,,,"54","29.74","CLR:00","29.41","10.00","66","250",,"10",,,,,,,,,,,,,,,,,,,,,,,,,,,,,,,,,,,,,"MET09006/20/21 14:56:02 METAR KART 201956Z 25009KT 10SM CLR 25/15 A2976 RMK AO2 SLP071 T02500150","FM-15","7",,,,,,,,,,,,,,,,,,,,,,,,,,,,"2005-11-07"
"72622794790","2021-06-20T15:56:00","FM-15","7",,,,,,,,,,,,,,,,,,,,,,,,,,,,,,,,,,,,,,"29.73","59","78","0.00",,"+0.02","8","52","29.72","CLR:00","29.38","10.00","66","270",,"9",,,,,,,,,,,,,,,,,,,,,,,,,,,,,,,,,,,,,"MET09606/20/21 15:56:02 METAR KART 202056Z 27008KT 10SM CLR 26/15 A2973 RMK AO2 SLP063 T02560150 58007","FM-15","7",,,,,,,,,,,,,,,,,,,,,,,,,,,,"2005-11-07"
"72622794790","2021-06-20T16:56:00","FM-15","7",,,,,,,,,,,,,,,,,,,,,,,,,,,,,,,,,,,,,,"29.71","58","77","0.00",,,,"52","29.70","CLR:00","29.36","10.00","65","260",,"6",,,,,,,,,,,,,,,,,,,,,,,,,,,,,,,,,,,,,"MET09006/20/21 16:56:02 METAR KART 202156Z 26005KT 10SM CLR 25/14 A2971 RMK AO2 SLP056 T02500144","FM-15","7",,,,,,,,,,,,,,,,,,,,,,,,,,,,"2005-11-07"
"72622794790","2021-06-20T17:56:00","FM-15","7",,,,,,,,,,,,,,,,,,,,,,,,,,,,,,,,,,,,,,"29.72","58","77","0.00",,,,"52","29.70","CLR:00","29.36","10.00","65","280",,"5",,,,,,,,,,,,,,,,,,,,,,,,,,,,,,,,,,,,,"MET09006/20/21 17:56:02 METAR KART 202256Z 28004KT 10SM CLR 25/14 A2972 RMK AO2 SLP058 T02500144","FM-15","7",,,,,,,,,,,,,,,,,,,,,,,,,,,,"2005-11-07"
"72622794790","2021-06-20T18:56:00","FM-15","7",,,,,,,,,,,,,,,,,,,,,,,,,,,,,,,,,,,,,,"29.71","60","75","0.00",,"+0.01","6","60","29.70","SCT:04 75","29.36","10.00","66","000",,"0",,,,,,,,,,,,,,,,,,,,,,,,,,,,,,,,,,,,,"MET11106/20/21 18:56:02 METAR KART 202356Z 00000KT 10SM SCT075 24/16 A2971 RMK AO2 SLP057 T02390156 10256 20239 56005","FM-15","7",,,,,,,,,,,,,,,,,,,,,,,,,,,,"2005-11-07"
"72622794790","2021-06-20T19:56:00","FM-15","7",,,,,,,,,,,,,,,,,,,,,,,,,,,,,,,,,,,,,,"29.71","60","73","0.00",,,,"64","29.70","OVC:08 65","29.36","10.00","65","000",,"0",,,,,,,,,,,,,,,,,,,,,,,,,,,,,,,,,,,,,"MET09306/20/21 19:56:01 METAR KART 210056Z 00000KT 10SM OVC065 23/16 A2971 RMK AO2 SLP056 T02280156","FM-15","7",,,,,,,,,,,,,,,,,,,,,,,,,,,,"2005-11-07"
"72622794790","2021-06-20T20:56:00","FM-15","7",,,,,,,,,,,,,,,,,,,,,,,,,,,,,,,,,,,,,,"29.70","59","68","0.00",,,,"73","29.69","SCT:04 55","29.34","10.00","63","090",,"3",,,,,,,,,,,,,,,,,,,,,,,,,,,,,,,,,,,,,"MET09306/20/21 20:56:01 METAR KART 210156Z 09003KT 10SM SCT055 20/15 A2970 RMK AO2 SLP053 T02000150","FM-15","7",,,,,,,,,,,,,,,,,,,,,,,,,,,,"2005-11-07"
"72622794790","2021-06-20T21:56:00","FM-15","7",,,,,,,,,,,,,,,,,,,,,,,,,,,,,,,,,,,,,,"29.70","59","65","0.00",,"+0.02","8","81","29.68","FEW:02 50 SCT:04 60","29.34","10.00","61","000",,"0",,,,,,,,,,,,,,,,,,,,,,,,,,,,,,,,,,,,,"MET10806/20/21 21:56:02 METAR KART 210256Z 00000KT 10SM FEW050 SCT060 18/15 A2970 RMK AO2 SLP051 T01830150 58006 $","FM-15","7",,,,,,,,,,,,,,,,,,,,,,,,,,,,"2005-11-07"
"72622794790","2021-06-20T22:56:00","FM-15","7",,,,,,,,,,,,,,,,,,,,,,,,,,,,,,,,,,,,,,"29.67","58","64","0.00",,,,"81","29.66","SCT:04 55","29.31","10.00","60","070",,"5",,,,,,,,,,,,,,,,,,,,,,,,,,,,,,,,,,,,,"MET09506/20/21 22:56:02 METAR KART 210356Z 07004KT 10SM SCT055 18/14 A2967 RMK AO2 SLP043 T01780144 $","FM-15","7",,,,,,,,,,,,,,,,,,,,,,,,,,,,"2005-11-07"
"72622794790","2021-06-20T23:56:00","FM-15","7",,,,,,,,,,,,,,,,,,,,,,,,,,,,,,,,,,,,,,"29.64","58","64","0.00",,,,"81","29.63","FEW:02 55","29.28","10.00","60","070",,"3",,,,,,,,,,,,,,,,,,,,,,,,,,,,,,,,,,,,,"MET10506/20/21 23:56:02 METAR KART 210456Z 07003KT 10SM FEW055 18/14 A2964 RMK AO2 SLP033 T01780144 402560167 $","FM-15","7",,,,,,,,,,,,,,,,,,,,,,,,,,,,"2005-11-07"
"72622794790","2021-06-20T23:59:00","SOD  ","6",,,,,,,,,,,,,,,,"70",,,"29.39",,"7.1","5","5.4","0","78","62","230","19","0.00",,,"230","15",,,,,,,,,,,,,,,,,,,,,,,,,,,,,,,,,,,,,,,,,,,,,,,,,,,,,,,,,"SOD69224 HR PRECIPITATION (IN): 0.00 24 HR MAX TEMP (F): 7824 HR MIN TEMP (F): 62AVERAGE STATION PRESSURE:29.390 MINIMUM SEA LEVEL PRESSURE:29.63 TIME OF OCCURRENCE:2359 PEAK WIND SPEED (MPH): 19 PEAK WIND DIR (DEG):230 PEAK WIND TIME (LST):      FASTEST 2MIN SPEED (MPH): 15FASTEST 2MIN DIR (DEG):230 FASTEST 2MIN TIME (LST):     AVERAGE WIND SPEED (MPH): 7.1 24 HR AVG TEMP (F): 70DEPART FROM NORMAL:  5  HEATING DEGREE DAYS:  0 COOLING DEGREE DAYS:  5 LATEST DAY MAX TEMP (0700-1900 LST):78  LATEST NIGHT MIN TEMP(1900-0800 LST):62 HOURLY INCREMENTAL PRECIPITATION VALUES (IN):.00 0.00 0.00 0.00 0.00 0.00 0.00 0.00 0.00 0.00 0.00 0.00 0.00 0.00 0.00 0.00 0.00 0.00 0.00 0.00 0.00 0.00 0.00 0.00","SOD  ","6",,,,,,,,,,,,,,,,,,,,,,,,,"0421","1950",,"2005-11-07"
"72622794790","2021-06-21T00:56:00","FM-15","7",,,,,,,,,,,,,,,,,,,,,,,,,,,,,,,,,,,,,,"29.64","59","63","0.00",,"+0.06","6","87","29.62","BKN:07 90","29.28","10.00","61","000",,"0",,,,,,,,,,,,,,,,,,,,,,,,,,,,,,,,,,,,,"MET11306/21/21 00:56:02 METAR KART 210556Z 00000KT 10SM BKN090 17/15 A2964 RMK AO2 SLP032 T01720150 10244 20172 56019 $","FM-15","7",,,,,,,,,,,,,,,,,,,,,,,,,,,,"2005-11-07"
"72622794790","2021-06-21T01:56:00","FM-15","7",,,,,,,,,,,,,,,,,,,,,,,,,,,,,,,,,,,,,,"29.62","60","65","0.00",,,,"84","29.61","FEW:02 50 FEW:02 90 BKN:07 110","29.27","10.00","62","310",,"3",,,,,,,,,,,,,,,,,,,,,,,,,,,,,,,,,,,,,"MET10906/21/21 01:56:02 METAR KART 210656Z 31003KT 10SM FEW050 FEW090 BKN110 18/16 A2962 RMK AO2 SLP026 T01830156 $","FM-15","7",,,,,,,,,,,,,,,,,,,,,,,,,,,,"2005-11-07"
"72622794790","2021-06-21T02:56:00","FM-15","7",,,,,,,,,,,,,,,,,,,,,,,,,,,,,,,,,,,,,,"29.59","65","71","0.00",,,,"81","29.57","CLR:00","29.24","10.00","67","VRB",,"5",,,,,,,,,,,,,,,,,,,,,,,,,,,,,,,,,,,,,"MET09206/21/21 02:56:02 METAR KART 210756Z VRB04KT 10SM CLR 22/18 A2959 RMK AO2 SLP015 T02170183 $","FM-15","7",,,,,,,,,,,,,,,,,,,,,,,,,,,,"2005-11-07"
"72622794790","2021-06-21T03:56:00","FM-15","7",,,,,,,,,,,,,,,,,,,,,,,,,,,,,,,,,,,,,,"29.58","66","73","0.00",,"+0.06","6","79","29.56","CLR:00","29.23","10.00","68","180",,"6",,,,,,,,,,,,,,,,,,,,,,,,,,,,,,,,,,,,,"MET09806/21/21 03:56:02 METAR KART 210856Z 18005KT 10SM CLR 23/19 A2958 RMK AO2 SLP011 T02280189 56020 $","FM-15","7",,,,,,,,,,,,,,,,,,,,,,,,,,,,"2005-11-07"
"72622794790","2021-06-21T04:56:00","FM-15","7",,,,,,,,,,,,,,,,,,,,,,,,,,,,,,,,,,,,,,"29.59","66","74","0.00",,,,"76","29.57","SCT:04 120","29.24","10.00","69","200",,"9",,,,,,,,,,,,,,,,,,,,,,,,,,,,,,,,,,,,,"MET10706/21/21 04:56:02 METAR KART 210956Z 20008KT 10SM SCT120 23/19 A2959 RMK AO2 LTG DSNT SW SLP014 T02330189 $","FM-15","7",,,,,,,,,,,,,,,,,,,,,,,,,,,,"2005-11-07"
"72622794790","2021-06-21T05:56:00","FM-15","7",,,,,,,,,,,,,,,,,,,,,,,,,,,,,,,,,,,,,,"29.58","66","71","T","-RA:02 |RA |RA",,,"84","29.56","SCT:04 75 BKN:07 100 OVC:08 120","29.23","10.00","68","VRB",,"7",,,,,,,,,,,,,,,,,,,,,,,,,,,,,,,,,,,,,"MET12506/21/21 05:56:02 METAR KART 211056Z VRB06KT 10SM -RA SCT075 BKN100 OVC120 22/19 A2958 RMK AO2 RAB22 SLP011 P0000 T02170189 $","FM-15","7",,,,,,,,,,,,,,,,,,,,,,,,,,,,"2005-11-07"
"72622794790","2021-06-21T06:40:00","FM-16","7",,,,,,,,,,,,,,,,,,,,,,,,,,,,,,,,,,,,,,"29.55","66","72","0.01","VCTS:7 ||",,,"82",,"BKN:07 40 OVC:08 49","29.20","10.00","68","170",,"8",,,,,,,,,,,,,,,,,,,,,,,,,,,,,,,,,,,,,"MET12606/21/21 06:40:02 SPECI KART 211140Z 17007KT 10SM VCTS BKN040 OVC049 22/19 A2955 RMK AO2 LTG DSNT S-NW RAE13 P0001 T02220189 $","FM-16","7",,,,,,,,,,,,,,,,,,,,,,,,,,,,"2005-11-07"
"72622794790","2021-06-21T06:48:00","FM-16","7",,,,,,,,,,,,,,,,,,,,,,,,,,,,,,,,,,,,,,"29.59","67","72","0.08","TS:7 RA:02 |RA TS TS |RA",,,"84",,"FEW:02 16 OVC:08 40","29.24","1.50","69","220","23","13",,,,,,,,,,,,,,,,,,,,,,,,,,,,,,,,,,,,,"MET14906/21/21 06:48:02 SPECI KART 211148Z 22011G20KT 1 1/2SM TSRA FEW016 OVC040 22/19 A2959 RMK AO2 LTG DSNT ALQDS RAE13B48 TSB48 PRESRR P0008 T02220194 $","FM-16","7",,,,,,,,,,,,,,,,,,,,,,,,,,,,"2005-11-07"
"72622794790","2021-06-21T06:54:00","FM-16","6",,,,,,,,,,,,,,,,,,,,,,,,,,,,,,,,,,,,,,"29.59","66","72",,"TS:7 +RA:02 BR:1 |RA TS |RA",,,"83",,"SCT:04 18 OVC:08 40","29.24","0.75","68","220","29","18",,,,,,,,,,,,,,,,,,,,,,,,,,,,,,,,,,,,,"MET13906/21/21 06:54:02 SPECI KART 211154Z 22016G25KT 3/4SM +TSRA BR SCT018 OVC040 22/19 A2959 RMK AO2 LTG DSNT ALQDS RAE13B48 TSB48 P0012 $ FIBI","FM-16","6",,,,,,,,,,,,,,,,,,,,,,,,,,,,"2005-11-07"
"72622794790","2021-06-21T06:56:00","FM-15","7",,,,,,,,,,,,,,,,,,,,,,,,,,,,,,,,,,,,,,"29.59","67","71","0.13","TS:7 +RA:02 BR:1 |RA TS |RA","-0.01","1","87","29.57","FEW:02 16 SCT:04 22 OVC:08 40","29.24","0.75","68","220","29","15",,,,,,,,,,,,,,,,,,,,,,,,,,,,,,,,,,,,,"MET18806/21/21 06:56:02 METAR KART 211156Z 22013G25KT 3/4SM +TSRA BR FEW016 SCT022 OVC040 22/19 A2959 RMK AO2 LTG DSNT ALQDS RAE13B48 TSB48 SLP014 P0013 60013 70013 T02170194 10239 20172 51003 $","FM-15","7",,,,,,,,,,,,,,,,,,,,,,,,,,,,"2005-11-07"
"72622794790","2021-06-21T07:00:00","FM-16","7",,,,,,,,,,,,,,,,,,,,,,,,,,,,,,,,,,,,,,"29.58","67","70","T","TS:7 -RA:02 BR:1 |RA TS |RA",,,"90",,"SCT:04 20 BKN:07 38 OVC:08 100","29.23","2.00","68","190","28","11",,,,,,,,,,,,,,,,,,,,,,,,,,,,,,,,,,,,,"MET13406/21/21 07:00:02 SPECI KART 211200Z 19010G24KT 2SM -TSRA BR SCT020 BKN038 OVC100 21/19 A2958 RMK AO2 LTG DSNT ALQDS P0000 T02110194 $","FM-16","7",,,,,,,,,,,,,,,,,,,,,,,,,,,,"2005-11-07"
"72622794790","2021-06-21T07:05:00","FM-16","7",,,,,,,,,,,,,,,,,,,,,,,,,,,,,,,,,,,,,,"29.58","67","70","0.01","VCTS:7 -RA:02 BR:1 |RA |RA",,,"90",,"FEW:02 20 BKN:07 38 OVC:08 110","29.23","4.00","68","200","24","15",,,,,,,,,,,,,,,,,,,,,,,,,,,,,,,,,,,,,"MET14706/21/21 07:05:02 SPECI KART 211205Z 20013G21KT 4SM VCTS -RA BR FEW020 BKN038 OVC110 21/19 A2958 RMK AO2 LTG DSNT NE AND SE TSE05 P0001 T02110194 $","FM-16","7",,,,,,,,,,,,,,,,,,,,,,,,,,,,"2005-11-07"
"72622794790","2021-06-21T07:14:00","FM-16","7",,,,,,,,,,,,,,,,,,,,,,,,,,,,,,,,,,,,,,"29.57","67","70","0.03","RA:02 BR:1 |RA |RA",,,"90",,"FEW:02 20 BKN:07 110","29.22","4.00","68","200","24","11",,,,,,,,,,,,,,,,,,,,,,,,,,,,,,,,,,,,,"MET13406/21/21 07:14:02 SPECI KART 211214Z 20010G21KT 4SM RA BR FEW020 BKN110 21/19 A2957 RMK AO2 LTG DSNT NE AND SE TSE05 P0003 T02110194 $","FM-16","7",,,,,,,,,,,,,,,,,,,,,,,,,,,,"2005-11-07"
"72622794790","2021-06-21T07:56:00","FM-15","7",,,,,,,,,,,,,,,,,,,,,,,,,,,,,,,,,,,,,,"29.55","67","71","0.05",,,,"87","29.54","FEW:02 95 SCT:04 110","29.20","10.00","68","180",,"6",,,,,,,,,,,,,,,,,,,,,,,,,,,,,,,,,,,,,"MET12006/21/21 07:56:02 METAR KART 211256Z 18005KT 10SM FEW095 SCT110 22/19 A2955 RMK AO2 RAE55 TSE05 SLP003 P0005 T02170194 $","FM-15","7",,,,,,,,,,,,,,,,,,,,,,,,,,,,"2005-11-07"
"72622794790","2021-06-21T08:56:00","FM-15","7",,,,,,,,,,,,,,,,,,,,,,,,,,,,,,,,,,,,,,"29.52","67","76","0.00",,,,"74","29.50","CLR:00","29.17","10.00","70","180","21","11",,,,,,,,,,,,,,,,,,,,,,,,,,,,,,,,,,,,,"MET09506/21/21 08:56:02 METAR KART 211356Z 18010G18KT 10SM CLR 24/19 A2952 RMK AO2 SLP991 T02440194 $","FM-15","7",,,,,,,,,,,,,,,,,,,,,,,,,,,,"2005-11-07"
"72622794790","2021-06-21T09:56:00","FM-15","7",,,,,,,,,,,,,,,,,,,,,,,,,,,,,,,,,,,,,,"29.48","69","81","0.00",,"+0.11","8","67","29.46","CLR:00","29.13","10.00","73","180","23","13",,,,,,,,,,,,,,,,,,,,,,,,,,,,,,,,,,,,,"MET10706/21/21 09:56:02 METAR KART 211456Z 18011G20KT 10SM CLR 27/21 A2948 RMK AO2 SLP976 60005 T02720206 58038 $","FM-15","7",,,,,,,,,,,,,,,,,,,,,,,,,,,,"2005-11-07"
"72622794790","2021-06-21T10:56:00","FM-15","7",,,,,,,,,,,,,,,,,,,,,,,,,,,,,,,,,,,,,,"29.46","70","84","0.00",,,,"63","29.44","FEW:02 120","29.11","10.00","74","200","28","11",,,,,,,,,,,,,,,,,,,,,,,,,,,,,,,,,,,,,"MET09806/21/21 10:56:02 METAR KART 211556Z 20010G24KT 10SM FEW120 29/21 A2946 RMK AO2 SLP970 T02890211 $","FM-15","7",,,,,,,,,,,,,,,,,,,,,,,,,,,,"2005-11-07"
"72622794790","2021-06-21T11:56:00","FM-15","7",,,,,,,,,,,,,,,,,,,,,,,,,,,,,,,,,,,,,,"29.46","70","86","0.00",,,,"59","29.44","SCT:04 50 BKN:07 70","29.11","10.00","75","200","28","16",,,,,,,,,,,,,,,,,,,,,,,,,,,,,,,,,,,,,"MET12306/21/21 11:56:02 METAR KART 211656Z 20014G24KT 10SM SCT050 BKN070 30/21 A2946 RMK AO2 PK WND 21026/1625 SLP969 T03000211 $","FM-15","7",,,,,,,,,,,,,,,,,,,,,,,,,,,,"2005-11-07"
"72622794790","2021-06-21T12:34:00","FM-16","7",,,,,,,,,,,,,,,,,,,,,,,,,,,,,,,,,,,,,,"29.46","71","79","0.04","TS:7 -RA:02 |RA TS TS |RA",,,"77",,"SCT:04 42 BKN:07 50 BKN:07 75","29.11","2.50","74","260","29","17",,,,,,,,,,,,,,,,,,,,,,,,,,,,,,,,,,,,,"MET13206/21/21 12:34:02 SPECI KART 211734Z 26015G25KT 2 1/2SM -TSRA SCT042 BKN050 BKN075 26/22 A2946 RMK AO2 RAB27 TSB34 P0004 T02610217 $","FM-16","7",,,,,,,,,,,,,,,,,,,,,,,,,,,,"2005-11-07"
"72622794790","2021-06-21T12:42:00","FM-16","7",,,,,,,,,,,,,,,,,,,,,,,,,,,,,,,,,,,,,,"29.46","70","77","0.04","TS:7 |TS TS |",,,"79",,"BKN:07 44 BKN:07 50","29.11","10.00","72","270","28","9",,,,,,,,,,,,,,,,,,,,,,,,,,,,,,,,,,,,,"MET12206/21/21 12:42:02 SPECI KART 211742Z 27008G24KT 10SM TS BKN044 BKN050 25/21 A2946 RMK AO2 RAB27E42 TSB34 P0004 T02500211 $","FM-16","7",,,,,,,,,,,,,,,,,,,,,,,,,,,,"2005-11-07"
"72622794790","2021-06-21T12:54:00","FM-16","6",,,,,,,,,,,,,,,,,,,,,,,,,,,,,,,,,,,,,,"29.47","72","82",,"VCTS:7 ||",,,"70",,"SCT:04 43 BKN:07 50 BKN:07 100","29.12","10.00","75","230","30","21",,,,,,,,,,,,,,,,,,,,,,,,,,,,,,,,,,,,,"MET16506/21/21 12:54:02 SPECI KART 211754Z 23018G26KT 10SM VCTS SCT043 BKN050 BKN100 28/22 A2947 RMK AO2 PK WND 22026/1753 LTG DSNT NE AND S RAB27E42 TSB34E52 P0004 $ FIBI","FM-16","6",,,,,,,,,,,,,,,,,,,,,,,,,,,,"2005-11-07"
"72622794790","2021-06-21T12:56:00","FM-15","7",,,,,,,,,,,,,,,,,,,,,,,,,,,,,,,,,,,,,,"29.47","70","82","0.04","VCTS:7 ||","+0.01","5","67","29.46","SCT:04 43 SCT:04 50 BKN:07 100","29.12","10.00","74","230","30","18",,,,,,,,,,,,,,,,,,,,,,,,,,,,,,,,,,,,,"MET20106/21/21 12:56:02 METAR KART 211756Z 23016G26KT 10SM VCTS SCT043 SCT050 BKN100 28/21 A2947 RMK AO2 PK WND 22026/1753 LTG DSNT NE AND S RAB27E42 TSB34E52 SLP975 P0004 60009 T02780211 10300 20206 55002 $","FM-15","7",,,,,,,,,,,,,,,,,,,,,,,,,,,,"2005-11-07"
"72622794790","2021-06-21T13:05:00","FM-16","7",,,,,,,,,,,,,,,,,,,,,,,,,,,,,,,,,,,,,,"29.47","70","82",,,,,"67",,"FEW:02 48 SCT:04 60 BKN:07 100","29.12","10.00","74","250","31","17",,,,,,,,,,,,,,,,,,,,,,,,,,,,,,,,,,,,,"MET14206/21/21 13:05:02 SPECI KART 211805Z 25015G27KT 10SM FEW048 SCT060 BKN100 28/21 A2947 RMK AO2 PK WND 26027/1803 LTG DSNT NE AND SE T02780211 $","FM-16","7",,,,,,,,,,,,,,,,,,,,,,,,,,,,"2005-11-07"
"72622794790","2021-06-21T13:56:00","FM-15","7",,,,,,,,,,,,,,,,,,,,,,,,,,,,,,,,,,,,,,"29.47","65","78","0.00",,,,"64","29.45","SCT:04 60 BKN:07 70 BKN:07 100","29.12","10.00","70","240","21","9",,,,,,,,,,,,,,,,,,,,,,,,,,,,,,,,,,,,,"MET13006/21/21 13:56:02 METAR KART 211856Z 24008G18KT 10SM SCT060 BKN070 BKN100 26/18 A2947 RMK AO2 PK WND 26027/1803 SLP974 T02560183 $","FM-15","7",,,,,,,,,,,,,,,,,,,,,,,,,,,,"2005-11-07"
"72622794790","2021-06-21T14:56:00","FM-15","7",,,,,,,,,,,,,,,,,,,,,,,,,,,,,,,,,,,,,,"29.47","65","74","0.02",,,,"74","29.46","FEW:02 48 BKN:07 75","29.12","10.00","68","260",,"11",,,,,,,,,,,,,,,,,,,,,,,,,,,,,,,,,,,,,"MET11706/21/21 14:56:02 METAR KART 211956Z 26010KT 10SM FEW048 BKN075 23/18 A2947 RMK AO2 RAB24E36 SLP975 P0002 T02330183 $","FM-15","7",,,,,,,,,,,,,,,,,,,,,,,,,,,,"2005-11-07"
"72622794790","2021-06-21T15:56:00","FM-15","7",,,,,,,,,,,,,,,,,,,,,,,,,,,,,,,,,,,,,,"29.47","65","74","0.00",,"+0.00","8","74","29.45","BKN:07 70 BKN:07 90","29.12","10.00","68","240",,"9",,,,,,,,,,,,,,,,,,,,,,,,,,,,,,,,,,,,,"MET11406/21/21 15:56:02 METAR KART 212056Z 24008KT 10SM BKN070 BKN090 23/18 A2947 RMK AO2 SLP972 60002 T02330183 58001 $","FM-15","7",,,,,,,,,,,,,,,,,,,,,,,,,,,,"2005-11-07"
"72622794790","2021-06-21T16:56:00","FM-15","7",,,,,,,,,,,,,,,,,,,,,,,,,,,,,,,,,,,,,,"29.46","65","72","T",,,,"79","29.44","FEW:02 39 BKN:07 55 OVC:08 70","29.11","10.00","68","210",,"10",,,,,,,,,,,,,,,,,,,,,,,,,,,,,,,,,,,,,"MET12406/21/21 16:56:02 METAR KART 212156Z 21009KT 10SM FEW039 BKN055 OVC070 22/18 A2946 RMK AO2 RAB03E43 SLP970 P0000 T02220183 $","FM-15","7",,,,,,,,,,,,,,,,,,,,,,,,,,,,"2005-11-07"
"72622794790","2021-06-21T17:56:00","FM-15","7",,,,,,,,,,,,,,,,,,,,,,,,,,,,,,,,,,,,,,"29.45","68","73","T",,,,"84","29.43","BKN:07 70 BKN:07 85","29.10","10.00","70","200",,"11",,,,,,,,,,,,,,,,,,,,,,,,,,,,,,,,,,,,,"MET11906/21/21 17:56:02 METAR KART 212256Z 20010KT 10SM BKN070 BKN085 23/20 A2945 RMK AO2 RAB2157E11 SLP967 P0000 T02280200 $","FM-15","7",,,,,,,,,,,,,,,,,,,,,,,,,,,,"2005-11-07"
"72622794790","2021-06-21T18:56:00","FM-15","7",,,,,,,,,,,,,,,,,,,,,,,,,,,,,,,,,,,,,,"29.49","67","74","0.00",,"-0.02","3","79","29.47","CLR:00","29.14","10.00","69","210","20","11",,,,,,,,,,,,,,,,,,,,,,,,,,,,,,,,,,,,,"MET11906/21/21 18:56:02 METAR KART 212356Z 21010G17KT 10SM CLR 23/19 A2949 RMK AO2 SLP980 60002 T02330194 10278 20217 53007 $","FM-15","7",,,,,,,,,,,,,,,,,,,,,,,,,,,,"2005-11-07"
"72622794790","2021-06-21T19:56:00","FM-15","7",,,,,,,,,,,,,,,,,,,,,,,,,,,,,,,,,,,,,,"29.51","66","73","0.00",,,,"79","29.49","FEW:02 30 BKN:07 38 BKN:07 50","29.16","10.00","68","220",,"11",,,,,,,,,,,,,,,,,,,,,,,,,,,,,,,,,,,,,"MET10906/21/21 19:56:01 METAR KART 220056Z 22010KT 10SM FEW030 BKN038 BKN050 23/19 A2951 RMK AO2 SLP987 T02280189 $","FM-15","7",,,,,,,,,,,,,,,,,,,,,,,,,,,,"2005-11-07"
"72622794790","2021-06-21T20:56:00","FM-15","7",,,,,,,,,,,,,,,,,,,,,,,,,,,,,,,,,,,,,,"29.54","62","69","0.00",,,,"78","29.53","FEW:02 49 BKN:07 65 OVC:08 75","29.19","10.00","65","220",,"9",,,,,,,,,,,,,,,,,,,,,,,,,,,,,,,,,,,,,"MET10906/21/21 20:56:01 METAR KART 220156Z 22008KT 10SM FEW049 BKN065 OVC075 21/17 A2954 RMK AO2 SLP999 T02060167 $","FM-15","7",,,,,,,,,,,,,,,,,,,,,,,,,,,,"2005-11-07"
"72622794790","2021-06-21T21:56:00","FM-15","7",,,,,,,,,,,,,,,,,,,,,,,,,,,,,,,,,,,,,,"29.57","60","67","0.00",,"-0.08","3","79","29.55","BKN:07 60 OVC:08 90","29.22","10.00","63","240",,"13",,,,,,,,,,,,,,,,,,,,,,,,,,,,,,,,,,,,,"MET10806/21/21 21:56:02 METAR KART 220256Z 24011KT 10SM BKN060 OVC090 19/16 A2957 RMK AO2 SLP007 T01940156 53028 $","FM-15","7",,,,,,,,,,,,,,,,,,,,,,,,,,,,"2005-11-07"
"72622794790","2021-06-21T22:56:00","FM-15","7",,,,,,,,,,,,,,,,,,,,,,,,,,,,,,,,,,,,,,"29.59","57","66","0.00",,,,"73","29.58","CLR:00","29.24","10.00","61","260",,"13",,,,,,,,,,,,,,,,,,,,,,,,,,,,,,,,,,,,,"MET09206/21/21 22:56:02 METAR KART 220356Z 26011KT 10SM CLR 19/14 A2959 RMK AO2 SLP016 T01890139 $","FM-15","7",,,,,,,,,,,,,,,,,,,,,,,,,,,,"2005-11-07"
"72622794790","2021-06-21T23:56:00","FM-15","7",,,,,,,,,,,,,,,,,,,,,,,,,,,,,,,,,,,,,,"29.63","55","64","0.00",,,,"73","29.61","CLR:00","29.28","10.00","59","260",,"10",,,,,,,,,,,,,,,,,,,,,,,,,,,,,,,,,,,,,"MET10206/21/21 23:56:02 METAR KART 220456Z 26009KT 10SM CLR 18/13 A2963 RMK AO2 SLP027 T01780128 403000172 $","FM-15","7",,,,,,,,,,,,,,,,,,,,,,,,,,,,"2005-11-07"
"72622794790","2021-06-21T23:59:00","SOD  ","6",,,,,,,,,,,,,,,,"75",,,"29.18",,"10.0","10","10.1","0","86","63","260","31","0.24",,,"230","22","TS RA BR",,,,,,,,,,,,,,,,,,,,,,,,,,,,,,,,,,,,,,,,,,,,,,,,,,,,,,,,"SOD71124 HR PRECIPITATION (IN): 0.24 WEATHER(CODE):138  24 HR MAX TEMP (F): 8624 HR MIN TEMP (F): 63AVERAGE STATION PRESSURE:29.185 MINIMUM SEA LEVEL PRESSURE:29.43 TIME OF OCCURRENCE:1757 PEAK WIND SPEED (MPH): 31 PEAK WIND DIR (DEG):260 PEAK WIND TIME (LST):      FASTEST 2MIN SPEED (MPH): 22FASTEST 2MIN DIR (DEG):230 FASTEST 2MIN TIME (LST):     AVERAGE WIND SPEED (MPH):10.0 24 HR AVG TEMP (F): 75DEPART FROM NORMAL: 10  HEATING DEGREE DAYS:  0 COOLING DEGREE DAYS: 10 LATEST DAY MAX TEMP (0700-1900 LST):86  LATEST NIGHT MIN TEMP(1900-0800 LST):63 HOURLY INCREMENTAL PRECIPITATION VALUES (IN):.00 0.00 0.00 0.00 0.00 T    0.13 0.05 0.00 0.00 0.00 0.00 0.04 0.00 0.02 0.00 T    T    0.00 0.00 0.00 0.00 0.00 0.00","SOD  ","6",,,,,,,,,,,,,,,,,,,,,,,,,"0421","1950",,"2005-11-07"
"72622794790","2021-06-22T00:56:00","FM-15","7",,,,,,,,,,,,,,,,,,,,,,,,,,,,,,,,,,,,,,"29.64","55","63","0.00",,"-0.07","1","75","29.63","CLR:00","29.28","10.00","58","270",,"13",,,,,,,,,,,,,,,,,,,,,,,,,,,,,,,,,,,,,"MET11006/22/21 00:56:02 METAR KART 220556Z 27011KT 10SM CLR 17/13 A2964 RMK AO2 SLP033 T01720128 10233 20172 51025 $","FM-15","7",,,,,,,,,,,,,,,,,,,,,,,,,,,,"2005-11-07"
"72622794790","2021-06-22T01:56:00","FM-15","7",,,,,,,,,,,,,,,,,,,,,,,,,,,,,,,,,,,,,,"29.66","56","63","0.00",,,,"78","29.64","BKN:07 36","29.31","10.00","59","260",,"7",,,,,,,,,,,,,,,,,,,,,,,,,,,,,,,,,,,,,"MET09506/22/21 01:56:02 METAR KART 220656Z 26006KT 10SM BKN036 17/13 A2966 RMK AO2 SLP037 T01720133 $","FM-15","7",,,,,,,,,,,,,,,,,,,,,,,,,,,,"2005-11-07"
"72622794790","2021-06-22T02:40:00","FM-16","7",,,,,,,,,,,,,,,,,,,,,,,,,,,,,,,,,,,,,,"29.67","55","62",,,,,"78",,"BKN:07 20 OVC:08 36","29.31","10.00","58","260",,"11",,,,,,,,,,,,,,,,,,,,,,,,,,,,,,,,,,,,,"MET09506/22/21 02:40:02 SPECI KART 220740Z 26010KT 10SM BKN020 OVC036 17/13 A2967 RMK AO2 T01670128 $","FM-16","7",,,,,,,,,,,,,,,,,,,,,,,,,,,,"2005-11-07"
"72622794790","2021-06-22T02:56:00","FM-15","7",,,,,,,,,,,,,,,,,,,,,,,,,,,,,,,,,,,,,,"29.67","55","61","0.00",,,,"81","29.65","BKN:07 20 BKN:07 34 OVC:08 49","29.31","10.00","58","260",,"8",,,,,,,,,,,,,,,,,,,,,,,,,,,,,,,,,,,,,"MET10906/22/21 02:56:02 METAR KART 220756Z 26007KT 10SM BKN020 BKN034 OVC049 16/13 A2967 RMK AO2 SLP042 T01610128 $","FM-15","7",,,,,,,,,,,,,,,,,,,,,,,,,,,,"2005-11-07"
"72622794790","2021-06-22T03:56:00","FM-15","7",,,,,,,,,,,,,,,,,,,,,,,,,,,,,,,,,,,,,,"29.69","54","60","0.00",,"-0.05","3","80","29.68","OVC:08 19","29.34","10.00","57","260",,"10",,,,,,,,,,,,,,,,,,,,,,,,,,,,,,,,,,,,,"MET10106/22/21 03:56:02 METAR KART 220856Z 26009KT 10SM OVC019 16/12 A2969 RMK AO2 SLP052 T01560122 53017 $","FM-15","7",,,,,,,,,,,,,,,,,,,,,,,,,,,,"2005-11-07"
"72622794790","2021-06-22T04:56:00","FM-15","7",,,,,,,,,,,,,,,,,,,,,,,,,,,,,,,,,,,,,,"29.70","53","60","0.00",,,,"78","29.69","OVC:08 19","29.34","10.00","56","260",,"7",,,,,,,,,,,,,,,,,,,,,,,,,,,,,,,,,,,,,"MET09506/22/21 04:56:02 METAR KART 220956Z 26006KT 10SM OVC019 16/12 A2970 RMK AO2 SLP055 T01560117 $","FM-15","7",,,,,,,,,,,,,,,,,,,,,,,,,,,,"2005-11-07"
"72622794790","2021-06-22T05:56:00","FM-15","7",,,,,,,,,,,,,,,,,,,,,,,,,,,,,,,,,,,,,,"29.74","51","59","0.00",,,,"75","29.72","BKN:07 16 OVC:08 21","29.39","10.00","55","350",,"9",,,,,,,,,,,,,,,,,,,,,,,,,,,,,,,,,,,,,"MET10206/22/21 05:56:02 METAR KART 221056Z 35008KT 10SM BKN016 OVC021 15/11 A2974 RMK AO2 SLP066 T01500106 $","FM-15","7",,,,,,,,,,,,,,,,,,,,,,,,,,,,"2005-11-07"
"72622794790","2021-06-22T06:56:00","FM-15","7",,,,,,,,,,,,,,,,,,,,,,,,,,,,,,,,,,,,,,"29.77","47","57","0.00",,"-0.08","3","69","29.76","OVC:08 26","29.41","10.00","52","040",,"11",,,,,,,,,,,,,,,,,,,,,,,,,,,,,,,,,,,,,"MET11906/22/21 06:56:02 METAR KART 221156Z 04010KT 10SM OVC026 14/08 A2977 RMK AO2 SLP079 70011 T01390083 10172 20139 53026 $","FM-15","7",,,,,,,,,,,,,,,,,,,,,,,,,,,,"2005-11-07"
"72622794790","2021-06-22T07:56:00","FM-15","7",,,,,,,,,,,,,,,,,,,,,,,,,,,,,,,,,,,,,,"29.79","46","55","0.00",,,,"72","29.78","OVC:08 24","29.44","10.00","50","030",,"11",,,,,,,,,,,,,,,,,,,,,,,,,,,,,,,,,,,,,"MET09506/22/21 07:56:02 METAR KART 221256Z 03010KT 10SM OVC024 13/08 A2979 RMK AO2 SLP084 T01280078 $","FM-15","7",,,,,,,,,,,,,,,,,,,,,,,,,,,,"2005-11-07"
"72622794790","2021-06-22T08:56:00","FM-15","7",,,,,,,,,,,,,,,,,,,,,,,,,,,,,,,,,,,,,,"29.83","43","55","0.00",,,,"64","29.83","OVC:08 27","29.47","10.00","49","030",,"9",,,,,,,,,,,,,,,,,,,,,,,,,,,,,,,,,,,,,"MET09506/22/21 08:56:02 METAR KART 221356Z 03008KT 10SM OVC027 13/06 A2983 RMK AO2 SLP100 T01280061 $","FM-15","7",,,,,,,,,,,,,,,,,,,,,,,,,,,,"2005-11-07"
"72622794790","2021-06-22T09:33:00","FM-16","7",,,,,,,,,,,,,,,,,,,,,,,,,,,,,,,,,,,,,,"29.84","44","55",,,,,"67",,"OVC:08 31","29.48","10.00","49","020",,"10",,,,,,,,,,,,,,,,,,,,,,,,,,,,,,,,,,,,,"MET08806/22/21 09:33:02 SPECI KART 221433Z 02009KT 10SM OVC031 13/07 A2984 RMK AO2 T01280067 $","FM-16","7",,,,,,,,,,,,,,,,,,,,,,,,,,,,"2005-11-07"
"72622794790","2021-06-22T09:56:00","FM-15","7",,,,,,,,,,,,,,,,,,,,,,,,,,,,,,,,,,,,,,"29.84","44","55","0.00",,"-0.06","1","67","29.83","OVC:08 32","29.48","10.00","49","030",,"11",,,,,,,,,,,,,,,,,,,,,,,,,,,,,,,,,,,,,"MET10106/22/21 09:56:02 METAR KART 221456Z 03010KT 10SM OVC032 13/07 A2984 RMK AO2 SLP101 T01280067 51022 $","FM-15","7",,,,,,,,,,,,,,,,,,,,,,,,,,,,"2005-11-07"
"72622794790","2021-06-22T10:56:00","FM-15","7",,,,,,,,,,,,,,,,,,,,,,,,,,,,,,,,,,,,,,"29.86","44","56","0.00",,,,"65","29.85","OVC:08 36","29.50","10.00","50","010",,"9",,,,,,,,,,,,,,,,,,,,,,,,,,,,,,,,,,,,,"MET09506/22/21 10:56:02 METAR KART 221556Z 01008KT 10SM OVC036 13/07 A2986 RMK AO2 SLP108 T01330067 $","FM-15","7",,,,,,,,,,,,,,,,,,,,,,,,,,,,"2005-11-07"
"72622794790","2021-06-22T11:56:00","FM-15","7",,,,,,,,,,,,,,,,,,,,,,,,,,,,,,,,,,,,,,"29.86","45","58","0.00",,,,"62","29.85","SCT:04 41 BKN:07 49 BKN:07 60","29.50","10.00","51","040",,"5",,,,,,,,,,,,,,,,,,,,,,,,,,,,,,,,,,,,,"MET10906/22/21 11:56:02 METAR KART 221656Z 04004KT 10SM SCT041 BKN049 BKN060 14/07 A2986 RMK AO2 SLP107 T01440072 $","FM-15","7",,,,,,,,,,,,,,,,,,,,,,,,,,,,"2005-11-07"
"72622794790","2021-06-22T12:56:00","FM-15","7",,,,,,,,,,,,,,,,,,,,,,,,,,,,,,,,,,,,,,"29.85","45","58","0.00",,"-0.01","0","62","29.84","OVC:08 34","29.49","10.00","51","000",,"0",,,,,,,,,,,,,,,,,,,,,,,,,,,,,,,,,,,,,"MET11306/22/21 12:56:02 METAR KART 221756Z 00000KT 10SM OVC034 14/07 A2985 RMK AO2 SLP104 T01440072 10150 20128 50002 $","FM-15","7",,,,,,,,,,,,,,,,,,,,,,,,,,,,"2005-11-07"
"72622794790","2021-06-22T13:56:00","FM-15","7",,,,,,,,,,,,,,,,,,,,,,,,,,,,,,,,,,,,,,"29.84","45","60","0.00",,,,"58","29.83","SCT:04 34 OVC:08 55","29.48","10.00","52","350",,"5",,,,,,,,,,,,,,,,,,,,,,,,,,,,,,,,,,,,,"MET10206/22/21 13:56:02 METAR KART 221856Z 35004KT 10SM SCT034 OVC055 16/07 A2984 RMK AO2 SLP103 T01560072 $","FM-15","7",,,,,,,,,,,,,,,,,,,,,,,,,,,,"2005-11-07"
"72622794790","2021-06-22T14:56:00","FM-15","7",,,,,,,,,,,,,,,,,,,,,,,,,,,,,,,,,,,,,,"29.85","46","59","0.00",,,,"62","29.84","OVC:08 40","29.49","10.00","52","280",,"8",,,,,,,,,,,,,,,,,,,,,,,,,,,,,,,,,,,,,"MET09506/22/21 14:56:02 METAR KART 221956Z 28007KT 10SM OVC040 15/08 A2985 RMK AO2 SLP105 T01500078 $","FM-15","7",,,,,,,,,,,,,,,,,,,,,,,,,,,,"2005-11-07"
"72622794790","2021-06-22T15:56:00","FM-15","7",,,,,,,,,,,,,,,,,,,,,,,,,,,,,,,,,,,,,,"29.85","48","61","0.00",,"-0.01","3","63","29.84","FEW:02 29 BKN:07 36 BKN:07 60","29.49","10.00","54","230",,"7",,,,,,,,,,,,,,,,,,,,,,,,,,,,,,,,,,,,,"MET11506/22/21 15:56:02 METAR KART 222056Z 23006KT 10SM FEW029 BKN036 BKN060 16/09 A2985 RMK AO2 SLP106 T01610089 53002 $","FM-15","7",,,,,,,,,,,,,,,,,,,,,,,,,,,,"2005-11-07"
"72622794790","2021-06-22T16:56:00","FM-15","7",,,,,,,,,,,,,,,,,,,,,,,,,,,,,,,,,,,,,,"29.86","48","62","0.00",,,,"60","29.85","FEW:02 30 BKN:07 38","29.50","10.00","54","240",,"8",,,,,,,,,,,,,,,,,,,,,,,,,,,,,,,,,,,,,"MET10206/22/21 16:56:02 METAR KART 222156Z 24007KT 10SM FEW030 BKN038 17/09 A2986 RMK AO2 SLP107 T01670089 $","FM-15","7",,,,,,,,,,,,,,,,,,,,,,,,,,,,"2005-11-07"
"72622794790","2021-06-22T17:56:00","FM-15","7",,,,,,,,,,,,,,,,,,,,,,,,,,,,,,,,,,,,,,"29.88","49","61","0.00",,,,"65","29.87","CLR:00","29.52","10.00","55","250",,"9",,,,,,,,,,,,,,,,,,,,,,,,,,,,,,,,,,,,,"MET09206/22/21 17:56:02 METAR KART 222256Z 25008KT 10SM CLR 16/09 A2988 RMK AO2 SLP116 T01610094 $","FM-15","7",,,,,,,,,,,,,,,,,,,,,,,,,,,,"2005-11-07"
"72622794790","2021-06-22T18:56:00","FM-15","7",,,,,,,,,,,,,,,,,,,,,,,,,,,,,,,,,,,,,,"29.90","48","57","0.00",,"-0.05","3","72","29.89","SCT:04 33 SCT:04 60","29.54","10.00","52","230",,"8",,,,,,,,,,,,,,,,,,,,,,,,,,,,,,,,,,,,,"MET12006/22/21 18:56:02 METAR KART 222356Z 23007KT 10SM SCT033 SCT060 14/09 A2990 RMK AO2 SLP123 T01390089 10167 20139 53016 $","FM-15","7",,,,,,,,,,,,,,,,,,,,,,,,,,,,"2005-11-07"
"72622794790","2021-06-22T19:56:00","FM-15","7",,,,,,,,,,,,,,,,,,,,,,,,,,,,,,,,,,,,,,"29.91","48","56","0.00",,,,"75","29.91","FEW:02 34 SCT:04 80","29.55","10.00","52","170",,"5",,,,,,,,,,,,,,,,,,,,,,,,,,,,,,,,,,,,,"MET10206/22/21 19:56:01 METAR KART 230056Z 17004KT 10SM FEW034 SCT080 13/09 A2991 RMK AO2 SLP128 T01330089 $","FM-15","7",,,,,,,,,,,,,,,,,,,,,,,,,,,,"2005-11-07"
"72622794790","2021-06-22T20:56:00","FM-15","7",,,,,,,,,,,,,,,,,,,,,,,,,,,,,,,,,,,,,,"29.93","47","52","0.00",,,,"83","29.92","CLR:00","29.57","10.00","49","150",,"6",,,,,,,,,,,,,,,,,,,,,,,,,,,,,,,,,,,,,"MET09206/22/21 20:56:01 METAR KART 230156Z 15005KT 10SM CLR 11/08 A2993 RMK AO2 SLP133 T01110083 $","FM-15","7",,,,,,,,,,,,,,,,,,,,,,,,,,,,"2005-11-07"
"72622794790","2021-06-22T21:56:00","FM-15","7",,,,,,,,,,,,,,,,,,,,,,,,,,,,,,,,,,,,,,"29.94","47","50","0.00",,"-0.04","3","89","29.94","CLR:00","29.58","10.00","48","150",,"5",,,,,,,,,,,,,,,,,,,,,,,,,,,,,,,,,,,,,"MET09806/22/21 21:56:01 METAR KART 230256Z 15004KT 10SM CLR 10/08 A2994 RMK AO2 SLP138 T01000083 53013 $","FM-15","7",,,,,,,,,,,,,,,,,,,,,,,,,,,,"2005-11-07"
"72622794790","2021-06-22T22:56:00","FM-15","7",,,,,,,,,,,,,,,,,,,,,,,,,,,,,,,,,,,,,,"29.94","46","50","0.00",,,,"86","29.94","CLR:00","29.58","10.00","48","160",,"3",,,,,,,,,,,,,,,,,,,,,,,,,,,,,,,,,,,,,"MET09206/22/21 22:56:01 METAR KART 230356Z 16003KT 10SM CLR 10/08 A2994 RMK AO2 SLP139 T01000078 $","FM-15","7",,,,,,,,,,,,,,,,,,,,,,,,,,,,"2005-11-07"
"72622794790","2021-06-22T23:56:00","FM-15","7",,,,,,,,,,,,,,,,,,,,,,,,,,,,,,,,,,,,,,"29.97","44","47","0.00",,,,"90","29.96","CLR:00","29.61","10.00","46","040",,"7",,,,,,,,,,,,,,,,,,,,,,,,,,,,,,,,,,,,,"MET10206/22/21 23:56:01 METAR KART 230456Z 04006KT 10SM CLR 08/07 A2997 RMK AO2 SLP146 T00830067 401780078 $","FM-15","7",,,,,,,,,,,,,,,,,,,,,,,,,,,,"2005-11-07"
"72622794790","2021-06-22T23:59:00","SOD  ","6",,,,,,,,,,,,,,,,"55",,,"29.46",,"7.6","0","-10.1","10","64","46","030","19","0.00",,,"040","16",,,,,,,,,,,,,,,,,,,,,,,,,,,,,,,,,,,,,,,,,,,,,,,,,,,,,,,,,"SOD69624 HR PRECIPITATION (IN): 0.00 24 HR MAX TEMP (F): 6424 HR MIN TEMP (F): 46AVERAGE STATION PRESSURE(D):29.463 MINIMUM SEA LEVEL PRESSURE:29.61 TIME OF OCCURRENCE:0005 PEAK WIND SPEED (MPH): 19 PEAK WIND DIR (DEG): 30 PEAK WIND TIME (LST):      FASTEST 2MIN SPEED (MPH): 16FASTEST 2MIN DIR (DEG): 40 FASTEST 2MIN TIME (LST):     AVERAGE WIND SPEED (MPH): 7.6 24 HR AVG TEMP (F): 55DEPART FROM NORMAL:-11  HEATING DEGREE DAYS: 10 COOLING DEGREE DAYS:  0 LATEST DAY MAX TEMP (0700-1900 LST): 62 LATEST NIGHT MIN TEMP(1900-0800 LST):55 HOURLY INCREMENTAL PRECIPITATION VALUES (IN):0.00 0.00 0.00 0.00 0.00 0.00 0.00 0.00 0.00 0.00 0.00 0.00 0.00 0.00 0.00 0.00 0.00 0.00 0.00 0.00 0.00 0.00 0.00 0.00","SOD  ","6",,,,,,,,,,,,,,,,,,,,,,,,,"0421","1951",,"2005-11-07"
"72622794790","2021-06-23T00:56:00","FM-15","7",,,,,,,,,,,,,,,,,,,,,,,,,,,,,,,,,,,,,,"29.97","44","46","0.00",,"-0.03","3","93","29.97","CLR:00","29.61","10.00","45","120",,"3",,,,,,,,,,,,,,,,,,,,,,,,,,,,,,,,,,,,,"MET11006/23/21 00:56:02 METAR KART 230556Z 12003KT 10SM CLR 08/07 A2997 RMK AO2 SLP149 T00780067 10144 20072 53010 $","FM-15","7",,,,,,,,,,,,,,,,,,,,,,,,,,,,"2005-11-07"
"72622794790","2021-06-23T01:56:00","FM-15","7",,,,,,,,,,,,,,,,,,,,,,,,,,,,,,,,,,,,,,"29.99","43","44","0.00",,,,"96","29.99","CLR:00","29.63","10.00","44","090",,"3",,,,,,,,,,,,,,,,,,,,,,,,,,,,,,,,,,,,,"MET09206/23/21 01:56:02 METAR KART 230656Z 09003KT 10SM CLR 07/06 A2999 RMK AO2 SLP156 T00670061 $","FM-15","7",,,,,,,,,,,,,,,,,,,,,,,,,,,,"2005-11-07"
"72622794790","2021-06-23T02:37:00","FM-16","7",,,,,,,,,,,,,,,,,,,,,,,,,,,,,,,,,,,,,,"30.00","41","43",,"BR:1 ||",,,"93",,"CLR:00","29.64","1.75","42","000",,"0",,,,,,,,,,,,,,,,,,,,,,,,,,,,,,,,,,,,,"MET09106/23/21 02:37:02 SPECI KART 230737Z 00000KT 1 3/4SM BR CLR 06/05 A3000 RMK AO2 T00610050 $","FM-16","7",,,,,,,,,,,,,,,,,,,,,,,,,,,,"2005-11-07"
"72622794790","2021-06-23T02:46:00","FM-16","7",,,,,,,,,,,,,,,,,,,,,,,,,,,,,,,,,,,,,,"30.00","41","43",,"BR:1 ||",,,"93",,"CLR:00","29.64","3.00","42","000",,"0",,,,,,,,,,,,,,,,,,,,,,,,,,,,,,,,,,,,,"MET08706/23/21 02:46:02 SPECI KART 230746Z 00000KT 3SM BR CLR 06/05 A3000 RMK AO2 T00610050 $","FM-16","7",,,,,,,,,,,,,,,,,,,,,,,,,,,,"2005-11-07"
"72622794790","2021-06-23T02:56:00","FM-15","7",,,,,,,,,,,,,,,,,,,,,,,,,,,,,,,,,,,,,,"30.00","41","43","0.00",,,,"93","30.00","CLR:00","29.64","10.00","42","000",,"0",,,,,,,,,,,,,,,,,,,,,,,,,,,,,,,,,,,,,"MET09206/23/21 02:56:02 METAR KART 230756Z 00000KT 10SM CLR 06/05 A3000 RMK AO2 SLP159 T00610050 $","FM-15","7",,,,,,,,,,,,,,,,,,,,,,,,,,,,"2005-11-07"
"72622794790","2021-06-23T03:14:00","FM-16","7",,,,,,,,,,,,,,,,,,,,,,,,,,,,,,,,,,,,,,"30.00","40","41",,"BR:1 ||",,,"96",,"CLR:00","29.64","2.00","41","000",,"0",,,,,,,,,,,,,,,,,,,,,,,,,,,,,,,,,,,,,"MET08706/23/21 03:14:02 SPECI KART 230814Z 00000KT 2SM BR CLR 05/04 A3000 RMK AO2 T00500044 $","FM-16","7",,,,,,,,,,,,,,,,,,,,,,,,,,,,"2005-11-07"
"72622794790","2021-06-23T03:29:00","FM-16","7",,,,,,,,,,,,,,,,,,,,,,,,,,,,,,,,,,,,,,"30.01","39","40",,"BR:1 ||",,,"97",,"CLR:00","29.65","1.50","40","000",,"0",,,,,,,,,,,,,,,,,,,,,,,,,,,,,,,,,,,,,"MET09106/23/21 03:29:02 SPECI KART 230829Z 00000KT 1 1/2SM BR CLR 04/04 A3001 RMK AO2 T00440039 $","FM-16","7",,,,,,,,,,,,,,,,,,,,,,,,,,,,"2005-11-07"
"72622794790","2021-06-23T03:32:00","FM-16","7",,,,,,,,,,,,,,,,,,,,,,,,,,,,,,,,,,,,,,"30.01","39","41",,"BR:1 ||",,,"93",,"CLR:00","29.65","3.00","40","000",,"0",,,,,,,,,,,,,,,,,,,,,,,,,,,,,,,,,,,,,"MET08706/23/21 03:32:02 SPECI KART 230832Z 00000KT 3SM BR CLR 05/04 A3001 RMK AO2 T00500039 $","FM-16","7",,,,,,,,,,,,,,,,,,,,,,,,,,,,"2005-11-07"
"72622794790","2021-06-23T03:47:00","FM-16","7",,,,,,,,,,,,,,,,,,,,,,,,,,,,,,,,,,,,,,"30.02","40","42",,"BR:1 ||",,,"92",,"CLR:00","29.66","1.50V","41","000",,"0",,,,,,,,,,,,,,,,,,,,,,,,,,,,,,,,,,,,,"MET10106/23/21 03:47:02 SPECI KART 230847Z 00000KT 1 1/2SM BR CLR 06/04 A3002 RMK AO2 VIS 1/2V5 T00560044 $","FM-16","7",,,,,,,,,,,,,,,,,,,,,,,,,,,,"2005-11-07"
"72622794790","2021-06-23T03:54:00","FM-16","6",,,,,,,,,,,,,,,,,,,,,,,,,,,,,,,,,,,,,,"30.02","39","43",,"BR:1 ||",,,"87",,"CLR:00","29.66","0.75","41","000",,"0",,,,,,,,,,,,,,,,,,,,,,,,,,,,,,,,,,,,,"MET08406/23/21 03:54:02 SPECI KART 230854Z 00000KT 3/4SM BR CLR 06/04 A3002 RMK AO2 $ FIBI","FM-16","6",,,,,,,,,,,,,,,,,,,,,,,,,,,,"2005-11-07"
"72622794790","2021-06-23T03:56:00","FM-15","7",,,,,,,,,,,,,,,,,,,,,,,,,,,,,,,,,,,,,,"30.02","40","41","0.00","BR:1 ||","-0.05","3","96","30.02","CLR:00","29.66","1.00","41","000",,"0",,,,,,,,,,,,,,,,,,,,,,,,,,,,,,,,,,,,,"MET10006/23/21 03:56:02 METAR KART 230856Z 00000KT 1SM BR CLR 05/04 A3002 RMK AO2 SLP167 T00500044 53018 $","FM-15","7",,,,,,,,,,,,,,,,,,,,,,,,,,,,"2005-11-07"
"72622794790","2021-06-23T04:01:00","FM-16","7",,,,,,,,,,,,,,,,,,,,,,,,,,,,,,,,,,,,,,"30.03","39","40",,"BR:1 ||",,,"97",,"CLR:00","29.67","3.00","40","000",,"0",,,,,,,,,,,,,,,,,,,,,,,,,,,,,,,,,,,,,"MET08706/23/21 04:01:02 SPECI KART 230901Z 00000KT 3SM BR CLR 04/04 A3003 RMK AO2 T00440039 $","FM-16","7",,,,,,,,,,,,,,,,,,,,,,,,,,,,"2005-11-07"
"72622794790","2021-06-23T04:07:00","FM-16","7",,,,,,,,,,,,,,,,,,,,,,,,,,,,,,,,,,,,,,"30.03","39","41",,"BR:1 ||",,,"93",,"CLR:00","29.67","1.00","40","000",,"0",,,,,,,,,,,,,,,,,,,,,,,,,,,,,,,,,,,,,"MET08706/23/21 04:07:02 SPECI KART 230907Z 00000KT 1SM BR CLR 05/04 A3003 RMK AO2 T00500039 $","FM-16","7",,,,,,,,,,,,,,,,,,,,,,,,,,,,"2005-11-07"
"72622794790","2021-06-23T04:10:00","FM-16","7",,,,,,,,,,,,,,,,,,,,,,,,,,,,,,,,,,,,,,"30.03","39","40",,"FG:2 |FG |",,,"97",,"CLR:00","29.67","0.25","40","000",,"0",,,,,,,,,,,,,,,,,,,,,,,,,,,,,,,,,,,,,"MET08906/23/21 04:10:02 SPECI KART 230910Z 00000KT 1/4SM FG CLR 04/04 A3003 RMK AO2 T00440039 $","FM-16","7",,,,,,,,,,,,,,,,,,,,,,,,,,,,"2005-11-07"
"72622794790","2021-06-23T04:21:00","FM-16","7",,,,,,,,,,,,,,,,,,,,,,,,,,,,,,,,,,,,,,"30.04","39","41",,"BR:1 ||",,,"93",,"CLR:00","29.68","1.00","40","000",,"0",,,,,,,,,,,,,,,,,,,,,,,,,,,,,,,,,,,,,"MET08706/23/21 04:21:02 SPECI KART 230921Z 00000KT 1SM BR CLR 05/04 A3004 RMK AO2 T00500039 $","FM-16","7",,,,,,,,,,,,,,,,,,,,,,,,,,,,"2005-11-07"
"72622794790","2021-06-23T04:31:00","FM-16","7",,,,,,,,,,,,,,,,,,,,,,,,,,,,,,,,,,,,,,"30.04","41","44",,,,,"89",,"CLR:00","29.68","10.00","43","160",,"6",,,,,,,,,,,,,,,,,,,,,,,,,,,,,,,,,,,,,"MET08506/23/21 04:31:02 SPECI KART 230931Z 16005KT 10SM CLR 07/05 A3004 RMK AO2 T00670050 $","FM-16","7",,,,,,,,,,,,,,,,,,,,,,,,,,,,"2005-11-07"
"72622794790","2021-06-23T04:56:00","FM-15","7",,,,,,,,,,,,,,,,,,,,,,,,,,,,,,,,,,,,,,"30.06","45","47","0.00",,,,"93","30.06","CLR:00","29.70","10.00","46","170",,"5",,,,,,,,,,,,,,,,,,,,,,,,,,,,,,,,,,,,,"MET09206/23/21 04:56:02 METAR KART 230956Z 17004KT 10SM CLR 08/07 A3006 RMK AO2 SLP178 T00830072 $","FM-15","7",,,,,,,,,,,,,,,,,,,,,,,,,,,,"2005-11-07"
"72622794790","2021-06-23T05:56:00","FM-15","7",,,,,,,,,,,,,,,,,,,,,,,,,,,,,,,,,,,,,,"30.09","48","51","0.00",,,,"89","30.08","CLR:00","29.73","10.00","49","000",,"0",,,,,,,,,,,,,,,,,,,,,,,,,,,,,,,,,,,,,"MET09206/23/21 05:56:02 METAR KART 231056Z 00000KT 10SM CLR 11/09 A3009 RMK AO2 SLP187 T01060089 $","FM-15","7",,,,,,,,,,,,,,,,,,,,,,,,,,,,"2005-11-07"
"72622794790","2021-06-23T06:56:00","FM-15","7",,,,,,,,,,,,,,,,,,,,,,,,,,,,,,,,,,,,,,"30.12","49","56","0.00",,"-0.09","1","77","30.11","CLR:00","29.76","10.00","52","VRB",,"5",,,,,,,,,,,,,,,,,,,,,,,,,,,,,,,,,,,,,"MET11006/23/21 06:56:02 METAR KART 231156Z VRB04KT 10SM CLR 13/09 A3012 RMK AO2 SLP196 T01330094 10133 20044 51031 $","FM-15","7",,,,,,,,,,,,,,,,,,,,,,,,,,,,"2005-11-07"
"72622794790","2021-06-23T07:56:00","FM-15","7",,,,,,,,,,,,,,,,,,,,,,,,,,,,,,,,,,,,,,"30.13","48","60","0.00",,,,"65","30.13","CLR:00","29.77","10.00","54","270",,"7",,,,,,,,,,,,,,,,,,,,,,,,,,,,,,,,,,,,,"MET09206/23/21 07:56:02 METAR KART 231256Z 27006KT 10SM CLR 16/09 A3013 RMK AO2 SLP203 T01560089 $","FM-15","7",,,,,,,,,,,,,,,,,,,,,,,,,,,,"2005-11-07"
"72622794790","2021-06-23T08:54:00","FM-16","7",,,,,,,,,,,,,,,,,,,,,,,,,,,,,,,,,,,,,,"30.15","48","63",,,,,"59",,"FEW:02 1","29.79","10.00","55","240",,"9",,,,,,,,,,,,,,,,,,,,,,,,,,,,,,,,,,,,,"MET07806/23/21 08:54:02 SPECI KART 231354Z 24008KT 10SM FEW001 17/09 A3015 RMK AO2 $","FM-16","7",,,,,,,,,,,,,,,,,,,,,,,,,,,,"2005-11-07"
"72622794790","2021-06-23T08:56:00","FM-15","7",,,,,,,,,,,,,,,,,,,,,,,,,,,,,,,,,,,,,,"30.15","47","62","0.00",,,,"58","30.15","FEW:02 1","29.79","10.00","54","240",,"9",,,,,,,,,,,,,,,,,,,,,,,,,,,,,,,,,,,,,"MET09506/23/21 08:56:02 METAR KART 231356Z 24008KT 10SM FEW001 17/08 A3015 RMK AO2 SLP209 T01670083 $","FM-15","7",,,,,,,,,,,,,,,,,,,,,,,,,,,,"2005-11-07"
"72622794790","2021-06-23T09:56:00","FM-15","7",,,,,,,,,,,,,,,,,,,,,,,,,,,,,,,,,,,,,,"30.17","46","63","0.00",,"-0.03","1","54","30.16","FEW:02 1","29.81","10.00","54","250",,"11",,,,,,,,,,,,,,,,,,,,,,,,,,,,,,,,,,,,,"MET10106/23/21 09:56:02 METAR KART 231456Z 25010KT 10SM FEW001 17/08 A3017 RMK AO2 SLP214 T01720078 51011 $","FM-15","7",,,,,,,,,,,,,,,,,,,,,,,,,,,,"2005-11-07"
"72622794790","2021-06-23T10:56:00","FM-15","7",,,,,,,,,,,,,,,,,,,,,,,,,,,,,,,,,,,,,,"30.18","45","64","0.00",,,,"50","30.17","CLR:00","29.82","10.00","54","240",,"10",,,,,,,,,,,,,,,,,,,,,,,,,,,,,,,,,,,,,"MET09206/23/21 10:56:02 METAR KART 231556Z 24009KT 10SM CLR 18/07 A3018 RMK AO2 SLP218 T01780072 $","FM-15","7",,,,,,,,,,,,,,,,,,,,,,,,,,,,"2005-11-07"
"72622794790","2021-06-23T11:56:00","FM-15","7",,,,,,,,,,,,,,,,,,,,,,,,,,,,,,,,,,,,,,"30.19","41","66","0.00",,,,"40","30.18","CLR:00","29.83","10.00","53","240",,"11",,,,,,,,,,,,,,,,,,,,,,,,,,,,,,,,,,,,,"MET09206/23/21 11:56:02 METAR KART 231656Z 24010KT 10SM CLR 19/05 A3019 RMK AO2 SLP221 T01890050 $","FM-15","7",,,,,,,,,,,,,,,,,,,,,,,,,,,,"2005-11-07"
"72622794790","2021-06-23T12:56:00","FM-15","7",,,,,,,,,,,,,,,,,,,,,,,,,,,,,,,,,,,,,,"30.19","45","66","0.00",,"-0.02","1","47","30.19","CLR:00","29.83","10.00","55","250","23","10",,,,,,,,,,,,,,,,,,,,,,,,,,,,,,,,,,,,,"MET11306/23/21 12:56:02 METAR KART 231756Z 25009G20KT 10SM CLR 19/07 A3019 RMK AO2 SLP222 T01890072 10194 20139 51007 $","FM-15","7",,,,,,,,,,,,,,,,,,,,,,,,,,,,"2005-11-07"
"72622794790","2021-06-23T13:56:00","FM-15","7",,,,,,,,,,,,,,,,,,,,,,,,,,,,,,,,,,,,,,"30.19","43","66","0.00",,,,"43","30.18","CLR:00","29.83","10.00","54","240",,"13",,,,,,,,,,,,,,,,,,,,,,,,,,,,,,,,,,,,,"MET09206/23/21 13:56:02 METAR KART 231856Z 24011KT 10SM CLR 19/06 A3019 RMK AO2 SLP221 T01890061 $","FM-15","7",,,,,,,,,,,,,,,,,,,,,,,,,,,,"2005-11-07"
"72622794790","2021-06-23T14:56:00","FM-15","7",,,,,,,,,,,,,,,,,,,,,,,,,,,,,,,,,,,,,,"30.18","45","68","0.00",,,,"44","30.18","CLR:00","29.82","10.00","56","250",,"8",,,,,,,,,,,,,,,,,,,,,,,,,,,,,,,,,,,,,"MET09206/23/21 14:56:02 METAR KART 231956Z 25007KT 10SM CLR 20/07 A3018 RMK AO2 SLP220 T02000072 $","FM-15","7",,,,,,,,,,,,,,,,,,,,,,,,,,,,"2005-11-07"
"72622794790","2021-06-23T15:56:00","FM-15","7",,,,,,,,,,,,,,,,,,,,,,,,,,,,,,,,,,,,,,"30.19","41","68","0.00",,"-0.00","3","38","30.19","CLR:00","29.83","10.00","54","230",,"10",,,,,,,,,,,,,,,,,,,,,,,,,,,,,,,,,,,,,"MET09806/23/21 15:56:02 METAR KART 232056Z 23009KT 10SM CLR 20/05 A3019 RMK AO2 SLP222 T02000050 53000 $","FM-15","7",,,,,,,,,,,,,,,,,,,,,,,,,,,,"2005-11-07"
"72622794790","2021-06-23T16:56:00","FM-15","7",,,,,,,,,,,,,,,,,,,,,,,,,,,,,,,,,,,,,,"30.19","43","67","0.00",,,,"42","30.19","CLR:00","29.83","10.00","54","230",,"8",,,,,,,,,,,,,,,,,,,,,,,,,,,,,,,,,,,,,"MET09206/23/21 16:56:02 METAR KART 232156Z 23007KT 10SM CLR 19/06 A3019 RMK AO2 SLP222 T01940061 $","FM-15","7",,,,,,,,,,,,,,,,,,,,,,,,,,,,"2005-11-07"
"72622794790","2021-06-23T17:56:00","FM-15","7",,,,,,,,,,,,,,,,,,,,,,,,,,,,,,,,,,,,,,"30.20","41","67","0.00",,,,"39","30.19","CLR:00","29.84","10.00","54","220",,"10",,,,,,,,,,,,,,,,,,,,,,,,,,,,,,,,,,,,,"MET09206/23/21 17:56:02 METAR KART 232256Z 22009KT 10SM CLR 19/05 A3020 RMK AO2 SLP224 T01940050 $","FM-15","7",,,,,,,,,,,,,,,,,,,,,,,,,,,,"2005-11-07"
"72622794790","2021-06-23T18:56:00","FM-15","7",,,,,,,,,,,,,,,,,,,,,,,,,,,,,,,,,,,,,,"30.20","42","65","0.00",,"-0.01","2","43","30.19","CLR:00","29.84","10.00","53","220",,"3",,,,,,,,,,,,,,,,,,,,,,,,,,,,,,,,,,,,,"MET11006/23/21 18:56:02 METAR KART 232356Z 22003KT 10SM CLR 18/06 A3020 RMK AO2 SLP224 T01830056 10206 20183 52003 $","FM-15","7",,,,,,,,,,,,,,,,,,,,,,,,,,,,"2005-11-07"
"72622794790","2021-06-23T19:56:00","FM-15","7",,,,,,,,,,,,,,,,,,,,,,,,,,,,,,,,,,,,,,"30.21","43","58","0.00",,,,"58","30.21","CLR:00","29.85","10.00","50","000",,"0",,,,,,,,,,,,,,,,,,,,,,,,,,,,,,,,,,,,,"MET09206/23/21 19:56:01 METAR KART 240056Z 00000KT 10SM CLR 14/06 A3021 RMK AO2 SLP229 T01440061 $","FM-15","7",,,,,,,,,,,,,,,,,,,,,,,,,,,,"2005-11-07"
"72622794790","2021-06-23T20:56:00","FM-15","7",,,,,,,,,,,,,,,,,,,,,,,,,,,,,,,,,,,,,,"30.23","43","56","0.00",,,,"62","30.22","CLR:00","29.87","10.00","50","140",,"3",,,,,,,,,,,,,,,,,,,,,,,,,,,,,,,,,,,,,"MET09206/23/21 20:56:01 METAR KART 240156Z 14003KT 10SM CLR 13/06 A3023 RMK AO2 SLP235 T01330061 $","FM-15","7",,,,,,,,,,,,,,,,,,,,,,,,,,,,"2005-11-07"
"72622794790","2021-06-23T21:56:00","FM-15","7",,,,,,,,,,,,,,,,,,,,,,,,,,,,,,,,,,,,,,"30.23","42","55","0.00",,"-0.03","1","62","30.23","CLR:00","29.87","10.00","49","150",,"5",,,,,,,,,,,,,,,,,,,,,,,,,,,,,,,,,,,,,"MET09806/23/21 21:56:01 METAR KART 240256Z 15004KT 10SM CLR 13/06 A3023 RMK AO2 SLP236 T01280056 51011 $","FM-15","7",,,,,,,,,,,,,,,,,,,,,,,,,,,,"2005-11-07"
"72622794790","2021-06-23T22:56:00","FM-15","7",,,,,,,,,,,,,,,,,,,,,,,,,,,,,,,,,,,,,,"30.24","43","56","0.00",,,,"62","30.23","CLR:00","29.88","10.00","50","140",,"3",,,,,,,,,,,,,,,,,,,,,,,,,,,,,,,,,,,,,"MET09206/23/21 22:56:01 METAR KART 240356Z 14003KT 10SM CLR 13/06 A3024 RMK AO2 SLP238 T01330061 $","FM-15","7",,,,,,,,,,,,,,,,,,,,,,,,,,,,"2005-11-07"
"72622794790","2021-06-23T23:56:00","FM-15","7",,,,,,,,,,,,,,,,,,,,,,,,,,,,,,,,,,,,,,"30.24","43","57","0.00",,,,"60","30.23","CLR:00","29.88","10.00","50","160",,"5",,,,,,,,,,,,,,,,,,,,,,,,,,,,,,,,,,,,,"MET10206/23/21 23:56:01 METAR KART 240456Z 16004KT 10SM CLR 14/06 A3024 RMK AO2 SLP236 T01390061 402060044 $","FM-15","7",,,,,,,,,,,,,,,,,,,,,,,,,,,,"2005-11-07"
"72622794790","2021-06-23T23:59:00","SOD  ","6",,,,,,,,,,,,,,,,"55",,,"29.75",,"6.0","0","-10.4","10","69","40","270","23","0.00",,,"220","14","FG BR",,,,,,,,,,,,,,,,,,,,,,,,,,,,,,,,,,,,,,,,,,,,,,,,,,,,,,,,"SOD71024 HR PRECIPITATION (IN): 0.00 WEATHER(CODE):12  24 HR MAX TEMP (F): 6924 HR MIN TEMP (F): 40AVERAGE STATION PRESSURE:29.755 MINIMUM SEA LEVEL PRESSURE:29.96 TIME OF OCCURRENCE:0028 PEAK WIND SPEED (MPH): 23 PEAK WIND DIR (DEG):270 PEAK WIND TIME (LST):      FASTEST 2MIN SPEED (MPH): 14FASTEST 2MIN DIR (DEG):220 FASTEST 2MIN TIME (LST):     AVERAGE WIND SPEED (MPH): 6.0 24 HR AVG TEMP (F): 55DEPART FROM NORMAL:-11  HEATING DEGREE DAYS: 10 COOLING DEGREE DAYS:  0 LATEST DAY MAX TEMP (0700-1900 LST):69  LATEST NIGHT MIN TEMP(1900-0800 LST):40 HOURLY INCREMENTAL PRECIPITATION VALUES (IN):.00 0.00 0.00 0.00 0.00 0.00 0.00 0.00 0.00 0.00 0.00 0.00 0.00 0.00 0.00 0.00 0.00 0.00 0.00 0.00 0.00 0.00 0.00 0.00","SOD  ","6",,,,,,,,,,,,,,,,,,,,,,,,,"0422","1951",,"2005-11-07"
"72622794790","2021-06-24T00:56:00","FM-15","7",,,,,,,,,,,,,,,,,,,,,,,,,,,,,,,,,,,,,,"30.23","43","59","0.00",,"-0.00","0","56","30.22","CLR:00","29.87","10.00","51","170",,"7",,,,,,,,,,,,,,,,,,,,,,,,,,,,,,,,,,,,,"MET11006/24/21 00:56:02 METAR KART 240556Z 17006KT 10SM CLR 15/06 A3023 RMK AO2 SLP235 T01500061 10183 20128 50001 $","FM-15","7",,,,,,,,,,,,,,,,,,,,,,,,,,,,"2005-11-07"
"72622794790","2021-06-24T01:56:00","FM-15","7",,,,,,,,,,,,,,,,,,,,,,,,,,,,,,,,,,,,,,"30.23","43","60","0.00",,,,"53","30.23","CLR:00","29.87","10.00","51","160",,"6",,,,,,,,,,,,,,,,,,,,,,,,,,,,,,,,,,,,,"MET09206/24/21 01:56:02 METAR KART 240656Z 16005KT 10SM CLR 16/06 A3023 RMK AO2 SLP236 T01560061 $","FM-15","7",,,,,,,,,,,,,,,,,,,,,,,,,,,,"2005-11-07"
"72622794790","2021-06-24T02:56:00","FM-15","7",,,,,,,,,,,,,,,,,,,,,,,,,,,,,,,,,,,,,,"30.24","43","60","0.00",,,,"53","30.23","CLR:00","29.88","10.00","51","180",,"5",,,,,,,,,,,,,,,,,,,,,,,,,,,,,,,,,,,,,"MET09206/24/21 02:56:02 METAR KART 240756Z 18004KT 10SM CLR 16/06 A3024 RMK AO2 SLP238 T01560061 $","FM-15","7",,,,,,,,,,,,,,,,,,,,,,,,,,,,"2005-11-07"
"72622794790","2021-06-24T03:56:00","FM-15","7",,,,,,,,,,,,,,,,,,,,,,,,,,,,,,,,,,,,,,"30.24","44","59","0.00",,"-0.01","1","58","30.23","CLR:00","29.88","10.00","51","170",,"6",,,,,,,,,,,,,,,,,,,,,,,,,,,,,,,,,,,,,"MET09806/24/21 03:56:02 METAR KART 240856Z 17005KT 10SM CLR 15/07 A3024 RMK AO2 SLP238 T01500067 51002 $","FM-15","7",,,,,,,,,,,,,,,,,,,,,,,,,,,,"2005-11-07"
"72622794790","2021-06-24T04:56:00","FM-15","7",,,,,,,,,,,,,,,,,,,,,,,,,,,,,,,,,,,,,,"30.25","44","58","0.00",,,,"60","30.24","CLR:00","29.89","10.00","51","000",,"0",,,,,,,,,,,,,,,,,,,,,,,,,,,,,,,,,,,,,"MET09206/24/21 04:56:02 METAR KART 240956Z 00000KT 10SM CLR 14/07 A3025 RMK AO2 SLP241 T01440067 $","FM-15","7",,,,,,,,,,,,,,,,,,,,,,,,,,,,"2005-11-07"
"72622794790","2021-06-24T05:56:00","FM-15","7",,,,,,,,,,,,,,,,,,,,,,,,,,,,,,,,,,,,,,"30.26","47","62","0.00",,,,"58","30.25","CLR:00","29.90","10.00","54","000",,"0",,,,,,,,,,,,,,,,,,,,,,,,,,,,,,,,,,,,,"MET09006/24/21 05:56:02 METAR KART 241056Z 00000KT 10SM CLR 17/08 A3026 RMK AO2 SLP244 T01670083","FM-15","7",,,,,,,,,,,,,,,,,,,,,,,,,,,,"2005-11-07"
"72622794790","2021-06-24T06:56:00","FM-15","7",,,,,,,,,,,,,,,,,,,,,,,,,,,,,,,,,,,,,,"30.26","48","66","0.00",,"-0.02","0","52","30.25","CLR:00","29.90","10.00","56","170","17","10",,,,,,,,,,,,,,,,,,,,,,,,,,,,,,,,,,,,,"MET11106/24/21 06:56:02 METAR KART 241156Z 17009G15KT 10SM CLR 19/09 A3026 RMK AO2 SLP243 T01890089 10189 20128 50006","FM-15","7",,,,,,,,,,,,,,,,,,,,,,,,,,,,"2005-11-07"
"72622794790","2021-06-24T07:56:00","FM-15","7",,,,,,,,,,,,,,,,,,,,,,,,,,,,,,,,,,,,,,"30.26","49","69","0.00",,,,"49","30.25","CLR:00","29.90","10.00","58","VRB",,"9",,,,,,,,,,,,,,,,,,,,,,,,,,,,,,,,,,,,,"MET09006/24/21 07:56:02 METAR KART 241256Z 19008KT 10SM CLR 21/09 A3026 RMK AO2 SLP243 T02060094","FM-15","7",,,,,,,,,,,,,,,,,,,,,,,,,,,,"2005-11-07"
"72622794790","2021-06-24T08:56:00","FM-15","7",,,,,,,,,,,,,,,,,,,,,,,,,,,,,,,,,,,,,,"30.26","50","74","0.00",,,,"43","30.25","CLR:00","29.90","10.00","60","200","22","9",,,,,,,,,,,,,,,,,,,,,,,,,,,,,,,,,,,,,"MET09306/24/21 08:56:02 METAR KART 241356Z 20008G19KT 10SM CLR 23/10 A3026 RMK AO2 SLP244 T02330100","FM-15","7",,,,,,,,,,,,,,,,,,,,,,,,,,,,"2005-11-07"
"72622794790","2021-06-24T09:25:00","FM-16","7",,,,,,,,,,,,,,,,,,,,,,,,,,,,,,,,,,,,,,"30.26","50","75",,,,,"41",,"FEW:02 2","29.90","10.00","61","210","20","8",,,,,,,,,,,,,,,,,,,,,,,,,,,,,,,,,,,,,"MET08906/24/21 09:25:02 SPECI KART 241425Z 21007G17KT 10SM FEW002 24/10 A3026 RMK AO2 T02390100","FM-16","7",,,,,,,,,,,,,,,,,,,,,,,,,,,,"2005-11-07"
"72622794790","2021-06-24T09:56:00","FM-15","7",,,,,,,,,,,,,,,,,,,,,,,,,,,,,,,,,,,,,,"30.27","50","76","0.00",,"-0.01","3","40","30.26","CLR:00","29.91","10.00","61","190","18","9",,,,,,,,,,,,,,,,,,,,,,,,,,,,,,,,,,,,,"MET09906/24/21 09:56:02 METAR KART 241456Z 19008G16KT 10SM CLR 24/10 A3027 RMK AO2 SLP247 T02440100 53005","FM-15","7",,,,,,,,,,,,,,,,,,,,,,,,,,,,"2005-11-07"
"72622794790","2021-06-24T10:56:00","FM-15","7",,,,,,,,,,,,,,,,,,,,,,,,,,,,,,,,,,,,,,"30.26","51","78","0.00",,,,"39","30.25","CLR:00","29.90","10.00","62","200","20","11",,,,,,,,,,,,,,,,,,,,,,,,,,,,,,,,,,,,,"MET09306/24/21 10:56:02 METAR KART 241556Z 20010G17KT 10SM CLR 26/11 A3026 RMK AO2 SLP244 T02560106","FM-15","7",,,,,,,,,,,,,,,,,,,,,,,,,,,,"2005-11-07"
"72622794790","2021-06-24T11:56:00","FM-15","7",,,,,,,,,,,,,,,,,,,,,,,,,,,,,,,,,,,,,,"30.24","50","80","0.00",,,,"35","30.23","CLR:00","29.88","10.00","63","190","16","9",,,,,,,,,,,,,,,,,,,,,,,,,,,,,,,,,,,,,"MET09306/24/21 11:56:02 METAR KART 241656Z 19008G14KT 10SM CLR 27/10 A3024 RMK AO2 SLP236 T02670100","FM-15","7",,,,,,,,,,,,,,,,,,,,,,,,,,,,"2005-11-07"
"72622794790","2021-06-24T12:56:00","FM-15","7",,,,,,,,,,,,,,,,,,,,,,,,,,,,,,,,,,,,,,"30.22","51","81","0.00",,"+0.05","8","35","30.21","CLR:00","29.86","10.00","63","210","23","15",,,,,,,,,,,,,,,,,,,,,,,,,,,,,,,,,,,,,"MET11106/24/21 12:56:02 METAR KART 241756Z 21013G20KT 10SM CLR 27/11 A3022 RMK AO2 SLP229 T02720106 10272 20189 58017","FM-15","7",,,,,,,,,,,,,,,,,,,,,,,,,,,,"2005-11-07"
"72622794790","2021-06-24T13:56:00","FM-15","7",,,,,,,,,,,,,,,,,,,,,,,,,,,,,,,,,,,,,,"30.21","48","82","0.00",,,,"31","30.20","CLR:00","29.85","10.00","62","190","26","14",,,,,,,,,,,,,,,,,,,,,,,,,,,,,,,,,,,,,"MET09306/24/21 13:56:02 METAR KART 241856Z 19012G23KT 10SM CLR 28/09 A3021 RMK AO2 SLP226 T02780089","FM-15","7",,,,,,,,,,,,,,,,,,,,,,,,,,,,"2005-11-07"
"72622794790","2021-06-24T14:56:00","FM-15","7",,,,,,,,,,,,,,,,,,,,,,,,,,,,,,,,,,,,,,"30.20","48","81","0.00",,,,"32","30.19","CLR:00","29.84","10.00","62","170","22","13",,,,,,,,,,,,,,,,,,,,,,,,,,,,,,,,,,,,,"MET09306/24/21 14:56:02 METAR KART 241956Z 17011G19KT 10SM CLR 27/09 A3020 RMK AO2 SLP223 T02720089","FM-15","7",,,,,,,,,,,,,,,,,,,,,,,,,,,,"2005-11-07"
"72622794790","2021-06-24T15:56:00","FM-15","7",,,,,,,,,,,,,,,,,,,,,,,,,,,,,,,,,,,,,,"30.18","48","81","0.00",,"+0.04","8","32","30.16","CLR:00","29.82","10.00","62","170","20","10",,,,,,,,,,,,,,,,,,,,,,,,,,,,,,,,,,,,,"MET09906/24/21 15:56:02 METAR KART 242056Z 17009G17KT 10SM CLR 27/09 A3018 RMK AO2 SLP215 T02720089 58014","FM-15","7",,,,,,,,,,,,,,,,,,,,,,,,,,,,"2005-11-07"
"72622794790","2021-06-24T16:56:00","FM-15","7",,,,,,,,,,,,,,,,,,,,,,,,,,,,,,,,,,,,,,"30.17","46","80","0.00",,,,"30","30.16","CLR:00","29.81","10.00","61","180","22","9",,,,,,,,,,,,,,,,,,,,,,,,,,,,,,,,,,,,,"MET09306/24/21 16:56:02 METAR KART 242156Z 18008G19KT 10SM CLR 27/08 A3017 RMK AO2 SLP212 T02670078","FM-15","7",,,,,,,,,,,,,,,,,,,,,,,,,,,,"2005-11-07"
"72622794790","2021-06-24T17:56:00","FM-15","7",,,,,,,,,,,,,,,,,,,,,,,,,,,,,,,,,,,,,,"30.17","47","79","0.00",,,,"32","30.15","FEW:02 120","29.81","10.00","61","180","20","11",,,,,,,,,,,,,,,,,,,,,,,,,,,,,,,,,,,,,"MET09606/24/21 17:56:02 METAR KART 242256Z 18010G17KT 10SM FEW120 26/08 A3017 RMK AO2 SLP211 T02610083","FM-15","7",,,,,,,,,,,,,,,,,,,,,,,,,,,,"2005-11-07"
"72622794790","2021-06-24T18:56:00","FM-15","7",,,,,,,,,,,,,,,,,,,,,,,,,,,,,,,,,,,,,,"30.18","48","76","0.00",,"+0.00","5","37","30.16","CLR:00","29.82","10.00","60","VRB",,"5",,,,,,,,,,,,,,,,,,,,,,,,,,,,,,,,,,,,,"MET10806/24/21 18:56:02 METAR KART 242356Z VRB04KT 10SM CLR 24/09 A3018 RMK AO2 SLP214 T02440089 10278 20244 55001","FM-15","7",,,,,,,,,,,,,,,,,,,,,,,,,,,,"2005-11-07"
"72622794790","2021-06-24T19:56:00","FM-15","7",,,,,,,,,,,,,,,,,,,,,,,,,,,,,,,,,,,,,,"30.19","50","71","0.00",,,,"47","30.17","CLR:00","29.83","10.00","59","140",,"5",,,,,,,,,,,,,,,,,,,,,,,,,,,,,,,,,,,,,"MET09006/24/21 19:56:01 METAR KART 250056Z 14004KT 10SM CLR 22/10 A3019 RMK AO2 SLP218 T02170100","FM-15","7",,,,,,,,,,,,,,,,,,,,,,,,,,,,"2005-11-07"
"72622794790","2021-06-24T20:56:00","FM-15","7",,,,,,,,,,,,,,,,,,,,,,,,,,,,,,,,,,,,,,"30.20","50","70","0.00",,,,"49","30.19","CLR:00","29.84","10.00","59","170",,"6",,,,,,,,,,,,,,,,,,,,,,,,,,,,,,,,,,,,,"MET09006/24/21 20:56:01 METAR KART 250156Z 17005KT 10SM CLR 21/10 A3020 RMK AO2 SLP222 T02110100","FM-15","7",,,,,,,,,,,,,,,,,,,,,,,,,,,,"2005-11-07"
"72622794790","2021-06-24T21:56:00","FM-15","7",,,,,,,,,,,,,,,,,,,,,,,,,,,,,,,,,,,,,,"30.20","49","71","0.00",,"-0.02","0","46","30.18","CLR:00","29.84","10.00","59","170",,"7",,,,,,,,,,,,,,,,,,,,,,,,,,,,,,,,,,,,,"MET09606/24/21 21:56:01 METAR KART 250256Z 17006KT 10SM CLR 22/09 A3020 RMK AO2 SLP220 T02170094 50006","FM-15","7",,,,,,,,,,,,,,,,,,,,,,,,,,,,"2005-11-07"
"72622794790","2021-06-24T22:56:00","FM-15","7",,,,,,,,,,,,,,,,,,,,,,,,,,,,,,,,,,,,,,"30.19","48","71","0.00",,,,"44","30.17","CLR:00","29.83","10.00","58","180",,"8",,,,,,,,,,,,,,,,,,,,,,,,,,,,,,,,,,,,,"MET09006/24/21 22:56:01 METAR KART 250356Z 18007KT 10SM CLR 22/09 A3019 RMK AO2 SLP218 T02170089","FM-15","7",,,,,,,,,,,,,,,,,,,,,,,,,,,,"2005-11-07"
"72622794790","2021-06-24T23:56:00","FM-15","7",,,,,,,,,,,,,,,,,,,,,,,,,,,,,,,,,,,,,,"30.19","48","70","0.00",,,,"46","30.17","CLR:00","29.83","10.00","58","170",,"8",,,,,,,,,,,,,,,,,,,,,,,,,,,,,,,,,,,,,"MET10006/24/21 23:56:01 METAR KART 250456Z 17007KT 10SM CLR 21/09 A3019 RMK AO2 SLP216 T02110089 402780128","FM-15","7",,,,,,,,,,,,,,,,,,,,,,,,,,,,"2005-11-07"
"72622794790","2021-06-24T23:59:00","SOD  ","6",,,,,,,,,,,,,,,,"69",,,"29.85",,"8.0","4","3.4","0","82","55","220","28","0.00",,,"200","17",,,,,,,,,,,,,,,,,,,,,,,,,,,,,,,,,,,,,,,,,,,,,,,,,,,,,,,,,"SOD69224 HR PRECIPITATION (IN): 0.00 24 HR MAX TEMP (F): 8224 HR MIN TEMP (F): 55AVERAGE STATION PRESSURE:29.855 MINIMUM SEA LEVEL PRESSURE:30.15 TIME OF OCCURRENCE:1807 PEAK WIND SPEED (MPH): 28 PEAK WIND DIR (DEG):220 PEAK WIND TIME (LST):      FASTEST 2MIN SPEED (MPH): 17FASTEST 2MIN DIR (DEG):200 FASTEST 2MIN TIME (LST):     AVERAGE WIND SPEED (MPH): 8.0 24 HR AVG TEMP (F): 69DEPART FROM NORMAL:  3  HEATING DEGREE DAYS:  0 COOLING DEGREE DAYS:  4 LATEST DAY MAX TEMP (0700-1900 LST):82  LATEST NIGHT MIN TEMP(1900-0800 LST):55 HOURLY INCREMENTAL PRECIPITATION VALUES (IN):.00 0.00 0.00 0.00 0.00 0.00 0.00 0.00 0.00 0.00 0.00 0.00 0.00 0.00 0.00 0.00 0.00 0.00 0.00 0.00 0.00 0.00 0.00 0.00","SOD  ","6",,,,,,,,,,,,,,,,,,,,,,,,,"0422","1951",,"2005-11-07"
"72622794790","2021-06-25T00:56:00","FM-15","7",,,,,,,,,,,,,,,,,,,,,,,,,,,,,,,,,,,,,,"30.18","48","69","0.00",,"+0.02","8","47","30.16","CLR:00","29.82","10.00","57","160","20","13",,,,,,,,,,,,,,,,,,,,,,,,,,,,,,,,,,,,,"MET11106/25/21 00:56:02 METAR KART 250556Z 16011G17KT 10SM CLR 21/09 A3018 RMK AO2 SLP213 T02060089 10244 20206 58006","FM-15","7",,,,,,,,,,,,,,,,,,,,,,,,,,,,"2005-11-07"
"72622794790","2021-06-25T01:56:00","FM-15","7",,,,,,,,,,,,,,,,,,,,,,,,,,,,,,,,,,,,,,"30.17","48","69","0.00",,,,"47","30.15","CLR:00","29.81","10.00","57","VRB","20","9",,,,,,,,,,,,,,,,,,,,,,,,,,,,,,,,,,,,,"MET09306/25/21 01:56:02 METAR KART 250656Z 17008G17KT 10SM CLR 21/09 A3017 RMK AO2 SLP211 T02060089","FM-15","7",,,,,,,,,,,,,,,,,,,,,,,,,,,,"2005-11-07"
"72622794790","2021-06-25T02:56:00","FM-15","7",,,,,,,,,,,,,,,,,,,,,,,,,,,,,,,,,,,,,,"30.16","49","67","0.00",,,,"53","30.14","CLR:00","29.80","10.00","57","170","18","9",,,,,,,,,,,,,,,,,,,,,,,,,,,,,,,,,,,,,"MET09306/25/21 02:56:02 METAR KART 250756Z 17008G16KT 10SM CLR 19/09 A3016 RMK AO2 SLP208 T01940094","FM-15","7",,,,,,,,,,,,,,,,,,,,,,,,,,,,"2005-11-07"
"72622794790","2021-06-25T03:56:00","FM-15","7",,,,,,,,,,,,,,,,,,,,,,,,,,,,,,,,,,,,,,"30.17","48","67","0.00",,"+0.00","5","51","30.16","CLR:00","29.81","10.00","57","170",,"7",,,,,,,,,,,,,,,,,,,,,,,,,,,,,,,,,,,,,"MET09606/25/21 03:56:02 METAR KART 250856Z 17006KT 10SM CLR 19/09 A3017 RMK AO2 SLP212 T01940089 55001","FM-15","7",,,,,,,,,,,,,,,,,,,,,,,,,,,,"2005-11-07"
"72622794790","2021-06-25T04:56:00","FM-15","7",,,,,,,,,,,,,,,,,,,,,,,,,,,,,,,,,,,,,,"30.19","48","67","0.00",,,,"51","30.17","FEW:02 65","29.83","10.00","57","VRB",,"7",,,,,,,,,,,,,,,,,,,,,,,,,,,,,,,,,,,,,"MET09306/25/21 04:56:02 METAR KART 250956Z VRB06KT 10SM FEW065 19/09 A3019 RMK AO2 SLP218 T01940089","FM-15","7",,,,,,,,,,,,,,,,,,,,,,,,,,,,"2005-11-07"
"72622794790","2021-06-25T05:56:00","FM-15","7",,,,,,,,,,,,,,,,,,,,,,,,,,,,,,,,,,,,,,"30.20","49","67","0.00",,,,"53","30.18","BKN:07 65","29.84","10.00","57","190",,"8",,,,,,,,,,,,,,,,,,,,,,,,,,,,,,,,,,,,,"MET09306/25/21 05:56:02 METAR KART 251056Z 19007KT 10SM BKN065 19/09 A3020 RMK AO2 SLP221 T01940094","FM-15","7",,,,,,,,,,,,,,,,,,,,,,,,,,,,"2005-11-07"
"72622794790","2021-06-25T06:56:00","FM-15","7",,,,,,,,,,,,,,,,,,,,,,,,,,,,,,,,,,,,,,"30.19","50","67","0.00",,"-0.01","0","55","30.17","SCT:04 65","29.83","10.00","58","180","17","8",,,,,,,,,,,,,,,,,,,,,,,,,,,,,,,,,,,,,"MET11406/25/21 06:56:02 METAR KART 251156Z 18007G15KT 10SM SCT065 19/10 A3019 RMK AO2 SLP217 T01940100 10206 20189 50004","FM-15","7",,,,,,,,,,,,,,,,,,,,,,,,,,,,"2005-11-07"
"72622794790","2021-06-25T07:56:00","FM-15","7",,,,,,,,,,,,,,,,,,,,,,,,,,,,,,,,,,,,,,"30.19","52","69","0.00",,,,"55","30.18","CLR:00","29.83","10.00","59","190","21","10",,,,,,,,,,,,,,,,,,,,,,,,,,,,,,,,,,,,,"MET09306/25/21 07:56:02 METAR KART 251256Z 19009G18KT 10SM CLR 21/11 A3019 RMK AO2 SLP220 T02060111","FM-15","7",,,,,,,,,,,,,,,,,,,,,,,,,,,,"2005-11-07"
"72622794790","2021-06-25T08:56:00","FM-15","7",,,,,,,,,,,,,,,,,,,,,,,,,,,,,,,,,,,,,,"30.18","53","73","0.00",,,,"50","30.16","FEW:02 70","29.82","10.00","61","180","20","10",,,,,,,,,,,,,,,,,,,,,,,,,,,,,,,,,,,,,"MET09606/25/21 08:56:02 METAR KART 251356Z 18009G17KT 10SM FEW070 23/12 A3018 RMK AO2 SLP215 T02280117","FM-15","7",,,,,,,,,,,,,,,,,,,,,,,,,,,,"2005-11-07"
"72622794790","2021-06-25T09:56:00","FM-15","7",,,,,,,,,,,,,,,,,,,,,,,,,,,,,,,,,,,,,,"30.17","55","76","0.00",,"+0.01","8","48","30.15","FEW:02 65","29.81","10.00","63","VRB",,"8",,,,,,,,,,,,,,,,,,,,,,,,,,,,,,,,,,,,,"MET09906/25/21 09:56:02 METAR KART 251456Z 16007KT 10SM FEW065 24/13 A3017 RMK AO2 SLP211 T02440128 58005","FM-15","7",,,,,,,,,,,,,,,,,,,,,,,,,,,,"2005-11-07"
"72622794790","2021-06-25T10:56:00","FM-15","7",,,,,,,,,,,,,,,,,,,,,,,,,,,,,,,,,,,,,,"30.16",,,"0.00",,,,,"30.16","CLR:00","29.80","10.00",,"200",,"9",,,,,,,,,,,,,,,,,,,,,,,,,,,,,,,,,,,,,"MET09206/25/21 10:56:02 METAR KART 251556Z 20008KT 10SM CLR 00/00 A3016 RMK AO2 SLP214 T00000000 $","FM-15","7",,,,,,,,,,,,,,,,,,,,,,,,,,,,"2005-11-07"
"72622794790","2021-06-25T11:56:00","FM-15","7",,,,,,,,,,,,,,,,,,,,,,,,,,,,,,,,,,,,,,"30.15","58","79s","0.00",,,,"49","30.14","CLR:00","29.79",,"66","170",,"8",,,,,,,,,,,,,,,,,,,,,,,,,,,,,,,,,,,,,"MET09306/25/21 11:56:02 METAR KART 251656Z 17007KT CLR 26/14 A3015 RMK AO2 SLP205 T02610144 PWINO $","FM-15","7",,,,,,,,,,,,,,,,,,,,,,,,,,,,"2005-11-07"
"72622794790","2021-06-25T12:56:00","FM-15","7",,,,,,,,,,,,,,,,,,,,,,,,,,,,,,,,,,,,,,"30.14","60","82","0.00",,"+0.03","8","47","30.12","CLR:00","29.78","10.00","68","VRB",,"9",,,,,,,,,,,,,,,,,,,,,,,,,,,,,,,,,,,,,"MET11006/25/21 12:56:02 METAR KART 251756Z 21008KT 10SM CLR 28/16 A3014 RMK AO2 SLP201 T02780156 10278 20000 58010 $","FM-15","7",,,,,,,,,,,,,,,,,,,,,,,,,,,,"2005-11-07"
"72622794790","2021-06-25T13:56:00","FM-15","7",,,,,,,,,,,,,,,,,,,,,,,,,,,,,,,,,,,,,,"30.12","61","82","0.00",,,,"49","30.11","CLR:00","29.76","10.00","69","190",,"8",,,,,,,,,,,,,,,,,,,,,,,,,,,,,,,,,,,,,"MET09006/25/21 13:56:02 METAR KART 251856Z 19007KT 10SM CLR 28/16 A3012 RMK AO2 SLP195 T02780161","FM-15","7",,,,,,,,,,,,,,,,,,,,,,,,,,,,"2005-11-07"
"72622794790","2021-06-25T14:56:00","FM-15","7",,,,,,,,,,,,,,,,,,,,,,,,,,,,,,,,,,,,,,"30.10","61","81","0.00",,,,"51","30.08","CLR:00","29.74","10.00","68","170",,"9",,,,,,,,,,,,,,,,,,,,,,,,,,,,,,,,,,,,,"MET09006/25/21 14:56:02 METAR KART 251956Z 17008KT 10SM CLR 27/16 A3010 RMK AO2 SLP186 T02720161","FM-15","7",,,,,,,,,,,,,,,,,,,,,,,,,,,,"2005-11-07"
"72622794790","2021-06-25T15:56:00","FM-15","7",,,,,,,,,,,,,,,,,,,,,,,,,,,,,,,,,,,,,,"30.09","61","81","0.00",,"+0.05","6","51","30.08","CLR:00","29.73","10.00","68","170","20","8",,,,,,,,,,,,,,,,,,,,,,,,,,,,,,,,,,,,,"MET09906/25/21 15:56:02 METAR KART 252056Z 17007G17KT 10SM CLR 27/16 A3009 RMK AO2 SLP185 T02720161 56016","FM-15","7",,,,,,,,,,,,,,,,,,,,,,,,,,,,"2005-11-07"
"72622794790","2021-06-25T16:56:00","FM-15","7",,,,,,,,,,,,,,,,,,,,,,,,,,,,,,,,,,,,,,"30.09","61","81","0.00",,,,"51","30.07","CLR:00","29.73","10.00","68","VRB",,"9",,,,,,,,,,,,,,,,,,,,,,,,,,,,,,,,,,,,,"MET09006/25/21 16:56:02 METAR KART 252156Z 17008KT 10SM CLR 27/16 A3009 RMK AO2 SLP183 T02720161","FM-15","7",,,,,,,,,,,,,,,,,,,,,,,,,,,,"2005-11-07"
"72622794790","2021-06-25T17:56:00","FM-15","7",,,,,,,,,,,,,,,,,,,,,,,,,,,,,,,,,,,,,,"30.08","60","80","0.00",,,,"51","30.07","CLR:00","29.72","10.00","67","180",,"8",,,,,,,,,,,,,,,,,,,,,,,,,,,,,,,,,,,,,"MET09006/25/21 17:56:02 METAR KART 252256Z 18007KT 10SM CLR 27/16 A3008 RMK AO2 SLP182 T02670156","FM-15","7",,,,,,,,,,,,,,,,,,,,,,,,,,,,"2005-11-07"
"72622794790","2021-06-25T18:56:00","FM-15","7",,,,,,,,,,,,,,,,,,,,,,,,,,,,,,,,,,,,,,"30.07","59","78","0.00",,"+0.02","8","52","30.06","CLR:00","29.71","10.00","66","170",,"9",,,,,,,,,,,,,,,,,,,,,,,,,,,,,,,,,,,,,"MET10806/25/21 18:56:02 METAR KART 252356Z 17008KT 10SM CLR 26/15 A3007 RMK AO2 SLP178 T02560150 10278 20256 58008","FM-15","7",,,,,,,,,,,,,,,,,,,,,,,,,,,,"2005-11-07"
"72622794790","2021-06-25T19:56:00","FM-15","7",,,,,,,,,,,,,,,,,,,,,,,,,,,,,,,,,,,,,,"30.06","57","77","0.00",,,,"50","30.05","CLR:00","29.70","10.00","65","170","17","7",,,,,,,,,,,,,,,,,,,,,,,,,,,,,,,,,,,,,"MET09306/25/21 19:56:01 METAR KART 260056Z 17006G15KT 10SM CLR 25/14 A3006 RMK AO2 SLP175 T02500139","FM-15","7",,,,,,,,,,,,,,,,,,,,,,,,,,,,"2005-11-07"
"72622794790","2021-06-25T20:56:00","FM-15","7",,,,,,,,,,,,,,,,,,,,,,,,,,,,,,,,,,,,,,"30.06","56","77","0.00",,,,"48","30.05","CLR:00","29.70","10.00","64","170",,"10",,,,,,,,,,,,,,,,,,,,,,,,,,,,,,,,,,,,,"MET09006/25/21 20:56:01 METAR KART 260156Z 17009KT 10SM CLR 25/13 A3006 RMK AO2 SLP175 T02500133","FM-15","7",,,,,,,,,,,,,,,,,,,,,,,,,,,,"2005-11-07"
"72622794790","2021-06-25T21:56:00","FM-15","7",,,,,,,,,,,,,,,,,,,,,,,,,,,,,,,,,,,,,,"30.06","56","76","0.00",,"+0.01","6","50","30.04","CLR:00","29.70","10.00","64","180",,"9",,,,,,,,,,,,,,,,,,,,,,,,,,,,,,,,,,,,,"MET09606/25/21 21:56:02 METAR KART 260256Z 18008KT 10SM CLR 24/13 A3006 RMK AO2 SLP173 T02440133 56005","FM-15","7",,,,,,,,,,,,,,,,,,,,,,,,,,,,"2005-11-07"
"72622794790","2021-06-25T22:56:00","FM-15","7",,,,,,,,,,,,,,,,,,,,,,,,,,,,,,,,,,,,,,"30.06","56","76","0.00",,,,"50","30.06","SCT:04 120","29.70","10.00","64","190","21","13",,,,,,,,,,,,,,,,,,,,,,,,,,,,,,,,,,,,,"MET09606/25/21 22:56:02 METAR KART 260356Z 19011G18KT 10SM SCT120 24/13 A3006 RMK AO2 SLP179 T02440133","FM-15","7",,,,,,,,,,,,,,,,,,,,,,,,,,,,"2005-11-07"
"72622794790","2021-06-25T23:56:00","FM-15","7",,,,,,,,,,,,,,,,,,,,,,,,,,,,,,,,,,,,,,"30.08","55","75","0.00",,,,"50","30.06","OVC:08 120","29.72","10.00","63","180","20","10",,,,,,,,,,,,,,,,,,,,,,,,,,,,,,,,,,,,,"MET10606/25/21 23:56:02 METAR KART 260456Z 18009G17KT 10SM OVC120 24/13 A3008 RMK AO2 SLP179 T02390128 402780000","FM-15","7",,,,,,,,,,,,,,,,,,,,,,,,,,,,"2005-11-07"
"72622794790","2021-06-25T23:59:00","SOD  ","6",,,,,,,,,,,,,,,,"74s",,,"29.78",,"9.1","9s","8.1s","0s","82","66s","180","24","0.00",,,"180","14",,,,,,,,,,,,,,,,,,,,,,,,,,,,,,,,,,,,,,,,,,,,,,,,,,,,,,,,,"SOD69224 HR PRECIPITATION (IN): 0.00 24 HR MAX TEMP (F): 8224 HR MIN TEMP (F): 66AVERAGE STATION PRESSURE:29.780 MINIMUM SEA LEVEL PRESSURE:30.03 TIME OF OCCURRENCE:2223 PEAK WIND SPEED (MPH): 24 PEAK WIND DIR (DEG):180 PEAK WIND TIME (LST):      FASTEST 2MIN SPEED (MPH): 14FASTEST 2MIN DIR (DEG):180 FASTEST 2MIN TIME (LST):     AVERAGE WIND SPEED (MPH): 9.1 24 HR AVG TEMP (F): 74DEPART FROM NORMAL:  8  HEATING DEGREE DAYS:  0 COOLING DEGREE DAYS:  9 LATEST DAY MAX TEMP (0700-1900 LST):82  LATEST NIGHT MIN TEMP(1900-0800 LST):66 HOURLY INCREMENTAL PRECIPITATION VALUES (IN):.00 0.00 0.00 0.00 0.00 0.00 0.00 0.00 0.00 0.00 0.00 0.00 0.00 0.00 0.00 0.00 0.00 0.00 0.00 0.00 0.00 0.00 0.00 0.00","SOD  ","6",,,,,,,,,,,,,,,,,,,,,,,,,"0422","1951",,"2005-11-07"
"72622794790","2021-06-26T00:56:00","FM-15","7",,,,,,,,,,,,,,,,,,,,,,,,,,,,,,,,,,,,,,"30.05","55","74","0.00",,"+0.00","8","52","30.03","OVC:08 110","29.69","10.00","63","170","20","10",,,,,,,,,,,,,,,,,,,,,,,,,,,,,,,,,,,,,"MET11406/26/21 00:56:02 METAR KART 260556Z 17009G17KT 10SM OVC110 23/13 A3005 RMK AO2 SLP170 T02330128 10256 20233 58001","FM-15","7",,,,,,,,,,,,,,,,,,,,,,,,,,,,"2005-11-07"
"72622794790","2021-06-26T01:56:00","FM-15","7",,,,,,,,,,,,,,,,,,,,,,,,,,,,,,,,,,,,,,"30.04","55","73","0.00",,,,"53","30.02","BKN:07 110","29.68","10.00","62","VRB","22","11",,,,,,,,,,,,,,,,,,,,,,,,,,,,,,,,,,,,,"MET09606/26/21 01:56:02 METAR KART 260656Z 17010G19KT 10SM BKN110 23/13 A3004 RMK AO2 SLP166 T02280128","FM-15","7",,,,,,,,,,,,,,,,,,,,,,,,,,,,"2005-11-07"
"72622794790","2021-06-26T02:56:00","FM-15","7",,,,,,,,,,,,,,,,,,,,,,,,,,,,,,,,,,,,,,"30.03","55","73","0.00",,,,"53","30.01","SCT:04 120","29.67","10.00","62","170","21","11",,,,,,,,,,,,,,,,,,,,,,,,,,,,,,,,,,,,,"MET09606/26/21 02:56:02 METAR KART 260756Z 17010G18KT 10SM SCT120 23/13 A3003 RMK AO2 SLP163 T02280128","FM-15","7",,,,,,,,,,,,,,,,,,,,,,,,,,,,"2005-11-07"
"72622794790","2021-06-26T03:56:00","FM-15","7",,,,,,,,,,,,,,,,,,,,,,,,,,,,,,,,,,,,,,"30.01","55","73","0.00",,"+0.04","8","53","29.99","BKN:07 120","29.65","10.00","62","170","20","10",,,,,,,,,,,,,,,,,,,,,,,,,,,,,,,,,,,,,"MET10206/26/21 03:56:02 METAR KART 260856Z 17009G17KT 10SM BKN120 23/13 A3001 RMK AO2 SLP157 T02280128 58014","FM-15","7",,,,,,,,,,,,,,,,,,,,,,,,,,,,"2005-11-07"
"72622794790","2021-06-26T04:56:00","FM-15","7",,,,,,,,,,,,,,,,,,,,,,,,,,,,,,,,,,,,,,"30.04","56","72","T","-RA:02 |RA |RA",,,"57","30.02","FEW:02 80 BKN:07 100","29.68","10.00","63","190","16","10",,,,,,,,,,,,,,,,,,,,,,,,,,,,,,,,,,,,,"MET11906/26/21 04:56:02 METAR KART 260956Z 19009G14KT 10SM -RA FEW080 BKN100 22/13 A3004 RMK AO2 RAB45 SLP167 P0000 T02220133","FM-15","7",,,,,,,,,,,,,,,,,,,,,,,,,,,,"2005-11-07"
"72622794790","2021-06-26T05:56:00","FM-15","7",,,,,,,,,,,,,,,,,,,,,,,,,,,,,,,,,,,,,,"30.01","58","69","T",,,,"68","30.00","OVC:08 50","29.65","10.00","62","160","23","13",,,,,,,,,,,,,,,,,,,,,,,,,,,,,,,,,,,,,"MET10806/26/21 05:56:02 METAR KART 261056Z 16011G20KT 10SM OVC050 21/14 A3001 RMK AO2 RAE30 SLP158 P0000 T02060144","FM-15","7",,,,,,,,,,,,,,,,,,,,,,,,,,,,"2005-11-07"
"72622794790","2021-06-26T06:30:00","FM-16","7",,,,,,,,,,,,,,,,,,,,,,,,,,,,,,,,,,,,,,"30.02","60","67","0.09","+RA:02 |RA |RA",,,"79",,"FEW:02 29 OVC:08 46","29.66","1.75","63","170","21","13",,,,,,,,,,,,,,,,,,,,,,,,,,,,,,,,,,,,,"MET11706/26/21 06:30:02 SPECI KART 261130Z 17011G18KT 1 3/4SM +RA FEW029 OVC046 19/16 A3002 RMK AO2 RAB12 P0009 T01940156 $","FM-16","7",,,,,,,,,,,,,,,,,,,,,,,,,,,,"2005-11-07"
"72622794790","2021-06-26T06:47:00","FM-16","7",,,,,,,,,,,,,,,,,,,,,,,,,,,,,,,,,,,,,,"30.01","61","66","0.18","-RA:02 |RA |RA",,,"84",,"FEW:02 29 OVC:08 42","29.65","3.00","63","160","20","11",,,,,,,,,,,,,,,,,,,,,,,,,,,,,,,,,,,,,"MET11306/26/21 06:47:02 SPECI KART 261147Z 16010G17KT 3SM -RA FEW029 OVC042 19/16 A3001 RMK AO2 RAB12 P0018 T01890161 $","FM-16","7",,,,,,,,,,,,,,,,,,,,,,,,,,,,"2005-11-07"
"72622794790","2021-06-26T06:56:00","FM-15","7",,,,,,,,,,,,,,,,,,,,,,,,,,,,,,,,,,,,,,"30.01","61","67","0.18",,"+0.00","8","81","30.00","FEW:02 29 OVC:08 42","29.65","10.00","63","190","20","8",,,,,,,,,,,,,,,,,,,,,,,,,,,,,,,,,,,,,"MET15006/26/21 06:56:02 METAR KART 261156Z 19007G17KT 10SM FEW029 OVC042 19/16 A3001 RMK AO2 RAB12E54 SLP158 P0018 60018 70018 T01940161 10233 20189 58000 $","FM-15","7",,,,,,,,,,,,,,,,,,,,,,,,,,,,"2005-11-07"
"72622794790","2021-06-26T07:56:00","FM-15","7",,,,,,,,,,,,,,,,,,,,,,,,,,,,,,,,,,,,,,"30.02","62","68","0.02","-RA:02 |RA |RA",,,"81","30.00","OVC:08 36","29.66","10.00","64","180","23","9",,,,,,,,,,,,,,,,,,,,,,,,,,,,,,,,,,,,,"MET11606/26/21 07:56:02 METAR KART 261256Z 18008G20KT 10SM -RA OVC036 20/17 A3002 RMK AO2 RAB1159 SLP160 P0002 T02000167 $","FM-15","7",,,,,,,,,,,,,,,,,,,,,,,,,,,,"2005-11-07"
"72622794790","2021-06-26T08:56:00","FM-15","7",,,,,,,,,,,,,,,,,,,,,,,,,,,,,,,,,,,,,,"30.00","63","70","0.02","-RA:02 |RA |RA",,,"79","29.98","BKN:07 37 BKN:07 75 OVC:08 100","29.64","10.00","66","180","21","13",,,,,,,,,,,,,,,,,,,,,,,,,,,,,,,,,,,,,"MET12206/26/21 08:56:02 METAR KART 261356Z 18011G18KT 10SM -RA BKN037 BKN075 OVC100 21/17 A3000 RMK AO2 SLP153 P0002 T02110172 $","FM-15","7",,,,,,,,,,,,,,,,,,,,,,,,,,,,"2005-11-07"
"72622794790","2021-06-26T09:56:00","FM-15","7",,,,,,,,,,,,,,,,,,,,,,,,,,,,,,,,,,,,,,"29.99","64","73","T","-RA:02 |RA |RA","+0.02","8","74","29.97","FEW:02 33 SCT:04 43 BKN:07 95","29.63","10.00","67","VRB","23","13",,,,,,,,,,,,,,,,,,,,,,,,,,,,,,,,,,,,,"MET13406/26/21 09:56:02 METAR KART 261456Z 20011G20KT 10SM -RA FEW033 SCT043 BKN095 23/18 A2999 RMK AO2 SLP150 P0000 60004 T02280178 58007 $","FM-15","7",,,,,,,,,,,,,,,,,,,,,,,,,,,,"2005-11-07"
"72622794790","2021-06-26T10:56:00","FM-15","7",,,,,,,,,,,,,,,,,,,,,,,,,,,,,,,,,,,,,,"30.01","65","76","T",,,,"69","29.99","BKN:07 39 BKN:07 47","29.65","10.00","69","VRB","28","13",,,,,,,,,,,,,,,,,,,,,,,,,,,,,,,,,,,,,"MET11706/26/21 10:56:02 METAR KART 261556Z 20011G24KT 10SM BKN039 BKN047 24/18 A3001 RMK AO2 RAE38 SLP155 P0000 T02440183 $","FM-15","7",,,,,,,,,,,,,,,,,,,,,,,,,,,,"2005-11-07"
"72622794790","2021-06-26T11:56:00","FM-15","7",,,,,,,,,,,,,,,,,,,,,,,,,,,,,,,,,,,,,,"30.00","65","78","0.00",,,,"64","29.98","SCT:04 36 BKN:07 100","29.64","10.00","70","200","23","15",,,,,,,,,,,,,,,,,,,,,,,,,,,,,,,,,,,,,"MET10506/26/21 11:56:02 METAR KART 261656Z 20013G20KT 10SM SCT036 BKN100 26/18 A3000 RMK AO2 SLP154 T02560183 $","FM-15","7",,,,,,,,,,,,,,,,,,,,,,,,,,,,"2005-11-07"
"72622794790","2021-06-26T12:56:00","FM-15","7",,,,,,,,,,,,,,,,,,,,,,,,,,,,,,,,,,,,,,"30.01","66","80","0.00",,"-0.02","1","62","29.99","BKN:07 37","29.65","10.00","71","200","23","14",,,,,,,,,,,,,,,,,,,,,,,,,,,,,,,,,,,,,"MET12206/26/21 12:56:02 METAR KART 261756Z 20012G20KT 10SM BKN037 27/19 A3001 RMK AO2 SLP156 60004 T02670189 10267 20194 51006 $","FM-15","7",,,,,,,,,,,,,,,,,,,,,,,,,,,,"2005-11-07"
"72622794790","2021-06-26T13:56:00","FM-15","7",,,,,,,,,,,,,,,,,,,,,,,,,,,,,,,,,,,,,,"30.00","66","80","0.00",,,,"62","29.98","OVC:08 39","29.64","10.00","71","VRB","20","11",,,,,,,,,,,,,,,,,,,,,,,,,,,,,,,,,,,,,"MET09806/26/21 13:56:02 METAR KART 261856Z 19010G17KT 10SM OVC039 27/19 A3000 RMK AO2 SLP153 T02670189 $","FM-15","7",,,,,,,,,,,,,,,,,,,,,,,,,,,,"2005-11-07"
"72622794790","2021-06-26T14:56:00","FM-15","7",,,,,,,,,,,,,,,,,,,,,,,,,,,,,,,,,,,,,,"29.99","67","80","0.00",,,,"64","29.97","OVC:08 41","29.63","10.00","71","200",,"9",,,,,,,,,,,,,,,,,,,,,,,,,,,,,,,,,,,,,"MET09506/26/21 14:56:02 METAR KART 261956Z 20008KT 10SM OVC041 27/19 A2999 RMK AO2 SLP150 T02670194 $","FM-15","7",,,,,,,,,,,,,,,,,,,,,,,,,,,,"2005-11-07"
"72622794790","2021-06-26T15:56:00","FM-15","7",,,,,,,,,,,,,,,,,,,,,,,,,,,,,,,,,,,,,,"29.98","69","81","0.00",,"+0.02","8","67","29.96","OVC:08 49","29.62","10.00","73","200",,"6",,,,,,,,,,,,,,,,,,,,,,,,,,,,,,,,,,,,,"MET10106/26/21 15:56:02 METAR KART 262056Z 20005KT 10SM OVC049 27/21 A2998 RMK AO2 SLP147 T02720206 58008 $","FM-15","7",,,,,,,,,,,,,,,,,,,,,,,,,,,,"2005-11-07"
"72622794790","2021-06-26T16:56:00","FM-15","7",,,,,,,,,,,,,,,,,,,,,,,,,,,,,,,,,,,,,,"29.96","71","84","0.00",,,,"65","29.94","SCT:04 65","29.60","10.00","75","220",,"6",,,,,,,,,,,,,,,,,,,,,,,,,,,,,,,,,,,,,"MET09506/26/21 16:56:02 METAR KART 262156Z 22005KT 10SM SCT065 29/22 A2996 RMK AO2 SLP138 T02890217 $","FM-15","7",,,,,,,,,,,,,,,,,,,,,,,,,,,,"2005-11-07"
"72622794790","2021-06-26T17:56:00","FM-15","7",,,,,,,,,,,,,,,,,,,,,,,,,,,,,,,,,,,,,,"29.96","70","79","T","-RA:02 |RA |RA",,,"74","29.94","SCT:04 49 BKN:07 65 BKN:07 85","29.60","10.00","73","000",,"0",,,,,,,,,,,,,,,,,,,,,,,,,,,,,,,,,,,,,"MET13106/26/21 17:56:02 METAR KART 262256Z 00000KT 10SM -RA SCT049 BKN065 BKN085 26/21 A2996 RMK AO2 RAB13E22B48 SLP140 P0000 T02610211 $","FM-15","7",,,,,,,,,,,,,,,,,,,,,,,,,,,,"2005-11-07"
"72622794790","2021-06-26T18:56:00","FM-15","7",,,,,,,,,,,,,,,,,,,,,,,,,,,,,,,,,,,,,,"29.96","70","76","0.01",,"+0.02","5","82","29.95","FEW:02 55 SCT:04 85 BKN:07 100","29.60","10.00","72","160",,"3",,,,,,,,,,,,,,,,,,,,,,,,,,,,,,,,,,,,,"MET15306/26/21 18:56:02 METAR KART 262356Z 16003KT 10SM FEW055 SCT085 BKN100 24/21 A2996 RMK AO2 RAE2257B22E34 SLP141 P0001 60001 T02440211 10294 20244 55006 $","FM-15","7",,,,,,,,,,,,,,,,,,,,,,,,,,,,"2005-11-07"
"72622794790","2021-06-26T19:56:00","FM-15","7",,,,,,,,,,,,,,,,,,,,,,,,,,,,,,,,,,,,,,"29.96","70","75","0.00",,,,"84","29.95","SCT:04 65 BKN:07 85","29.60","10.00","72","000",,"0",,,,,,,,,,,,,,,,,,,,,,,,,,,,,,,,,,,,,"MET10206/26/21 19:56:01 METAR KART 270056Z 00000KT 10SM SCT065 BKN085 24/21 A2996 RMK AO2 SLP141 T02390211 $","FM-15","7",,,,,,,,,,,,,,,,,,,,,,,,,,,,"2005-11-07"
"72622794790","2021-06-26T20:56:00","FM-15","7",,,,,,,,,,,,,,,,,,,,,,,,,,,,,,,,,,,,,,"29.97","68","75","0.00",,,,"79","29.96","BKN:07 70","29.61","10.00","70","000",,"0",,,,,,,,,,,,,,,,,,,,,,,,,,,,,,,,,,,,,"MET09506/26/21 20:56:01 METAR KART 270156Z 00000KT 10SM BKN070 24/20 A2997 RMK AO2 SLP145 T02390200 $","FM-15","7",,,,,,,,,,,,,,,,,,,,,,,,,,,,"2005-11-07"
"72622794790","2021-06-26T21:56:00","FM-15","7",,,,,,,,,,,,,,,,,,,,,,,,,,,,,,,,,,,,,,"29.96","64","81","0.00",,"-0.00","0","57","29.95","CLR:00","29.60","10.00","70","190","22","13",,,,,,,,,,,,,,,,,,,,,,,,,,,,,,,,,,,,,"MET10106/26/21 21:56:01 METAR KART 270256Z 19011G19KT 10SM CLR 27/18 A2996 RMK AO2 SLP141 T02720178 50001 $","FM-15","7",,,,,,,,,,,,,,,,,,,,,,,,,,,,"2005-11-07"
"72622794790","2021-06-26T22:56:00","FM-15","7",,,,,,,,,,,,,,,,,,,,,,,,,,,,,,,,,,,,,,"29.96","63","80","0.00",,,,"56","29.94","CLR:00","29.60","10.00","69","200","23","11",,,,,,,,,,,,,,,,,,,,,,,,,,,,,,,,,,,,,"MET09506/26/21 22:56:02 METAR KART 270356Z 20010G20KT 10SM CLR 27/17 A2996 RMK AO2 SLP139 T02670172 $","FM-15","7",,,,,,,,,,,,,,,,,,,,,,,,,,,,"2005-11-07"
"72622794790","2021-06-26T23:56:00","FM-15","7",,,,,,,,,,,,,,,,,,,,,,,,,,,,,,,,,,,,,,"29.96","64","79","0.00",,,,"60","29.94","CLR:00","29.60","10.00","69","190","21","13",,,,,,,,,,,,,,,,,,,,,,,,,,,,,,,,,,,,,"MET10506/26/21 23:56:02 METAR KART 270456Z 19011G18KT 10SM CLR 26/18 A2996 RMK AO2 SLP138 T02610178 402940189 $","FM-15","7",,,,,,,,,,,,,,,,,,,,,,,,,,,,"2005-11-07"
"72622794790","2021-06-26T23:59:00","SOD  ","6",,,,,,,,,,,,,,,,"76",,,"29.65",,"9.3","11","9.9","0","85","66","190s","27s","0.23",,,"200","17","RA",,,,,,,,,,,,,,,,,,,,,,,,,,,,,,,,,,,,,,,,,,,,,,,,,,,,,,,,"SOD69224 HR PRECIPITATION (IN): 0.23 24 HR MAX TEMP (F): 8524 HR MIN TEMP (F): 66AVERAGE STATION PRESSURE:29.645 MINIMUM SEA LEVEL PRESSURE:29.93 TIME OF OCCURRENCE:1709 PEAK WIND SPEED (MPH): 27 PEAK WIND DIR (DEG):190 PEAK WIND TIME (LST):      FASTEST 2MIN SPEED (MPH): 17FASTEST 2MIN DIR (DEG):200 FASTEST 2MIN TIME (LST):     AVERAGE WIND SPEED (MPH): 9.3 24 HR AVG TEMP (F): 76DEPART FROM NORMAL:  9  HEATING DEGREE DAYS:  0 COOLING DEGREE DAYS: 11 LATEST DAY MAX TEMP (0700-1900 LST):85  LATEST NIGHT MIN TEMP(1900-0800 LST):66 HOURLY INCREMENTAL PRECIPITATION VALUES (IN):.00 0.00 0.00 0.00 T    T    0.18 0.02 0.02 T    T    0.00 0.00 0.00 0.00 0.00 0.00 T    0.01 0.00 0.00 0.00 0.00 0.00","SOD  ","6",,,,,,,,,,,,,,,,,,,,,,,,,"0423","1951",,"2005-11-07"
"72622794790","2021-06-27T00:56:00","FM-15","7",,,,,,,,,,,,,,,,,,,,,,,,,,,,,,,,,,,,,,"29.96","64","79","0.00",,"+0.01","6","60","29.94","CLR:00","29.60","10.00","69","200","24","16",,,,,,,,,,,,,,,,,,,,,,,,,,,,,,,,,,,,,"MET11306/27/21 00:56:02 METAR KART 270556Z 20014G21KT 10SM CLR 26/18 A2996 RMK AO2 SLP138 T02610178 10272 20233 56002 $","FM-15","7",,,,,,,,,,,,,,,,,,,,,,,,,,,,"2005-11-07"
"72622794790","2021-06-27T01:56:00","FM-15","7",,,,,,,,,,,,,,,,,,,,,,,,,,,,,,,,,,,,,,"29.96","65","78","0.00",,,,"64","29.94","CLR:00","29.60","10.00","70","190","21","11",,,,,,,,,,,,,,,,,,,,,,,,,,,,,,,,,,,,,"MET09506/27/21 01:56:02 METAR KART 270656Z 19010G18KT 10SM CLR 26/18 A2996 RMK AO2 SLP138 T02560183 $","FM-15","7",,,,,,,,,,,,,,,,,,,,,,,,,,,,"2005-11-07"
"72622794790","2021-06-27T02:56:00","FM-15","7",,,,,,,,,,,,,,,,,,,,,,,,,,,,,,,,,,,,,,"29.95","65","78","0.00",,,,"64","29.93","CLR:00","29.59","10.00","70","190","20","10",,,,,,,,,,,,,,,,,,,,,,,,,,,,,,,,,,,,,"MET09506/27/21 02:56:02 METAR KART 270756Z 19009G17KT 10SM CLR 26/18 A2995 RMK AO2 SLP136 T02560183 $","FM-15","7",,,,,,,,,,,,,,,,,,,,,,,,,,,,"2005-11-07"
"72622794790","2021-06-27T03:56:00","FM-15","7",,,,,,,,,,,,,,,,,,,,,,,,,,,,,,,,,,,,,,"29.96","64","77","0.00",,"+0.00","5","64","29.94","CLR:00","29.60","10.00","69","200","22","11",,,,,,,,,,,,,,,,,,,,,,,,,,,,,,,,,,,,,"MET10106/27/21 03:56:02 METAR KART 270856Z 20010G19KT 10SM CLR 25/18 A2996 RMK AO2 SLP138 T02500178 55000 $","FM-15","7",,,,,,,,,,,,,,,,,,,,,,,,,,,,"2005-11-07"
"72622794790","2021-06-27T04:56:00","FM-15","7",,,,,,,,,,,,,,,,,,,,,,,,,,,,,,,,,,,,,,"29.97","64","77","0.00",,,,"64","29.95","CLR:00","29.61","10.00","69","200","18","9",,,,,,,,,,,,,,,,,,,,,,,,,,,,,,,,,,,,,"MET09506/27/21 04:56:02 METAR KART 270956Z 20008G16KT 10SM CLR 25/18 A2997 RMK AO2 SLP141 T02500178 $","FM-15","7",,,,,,,,,,,,,,,,,,,,,,,,,,,,"2005-11-07"
"72622794790","2021-06-27T05:56:00","FM-15","7",,,,,,,,,,,,,,,,,,,,,,,,,,,,,,,,,,,,,,"29.98","64","77","0.00",,,,"64","29.96","CLR:00","29.62","10.00","69","200","18","11",,,,,,,,,,,,,,,,,,,,,,,,,,,,,,,,,,,,,"MET09506/27/21 05:56:02 METAR KART 271056Z 20010G16KT 10SM CLR 25/18 A2998 RMK AO2 SLP144 T02500178 $","FM-15","7",,,,,,,,,,,,,,,,,,,,,,,,,,,,"2005-11-07"
"72622794790","2021-06-27T06:56:00","FM-15","7",,,,,,,,,,,,,,,,,,,,,,,,,,,,,,,,,,,,,,"29.98","65","77","0.00",,"-0.02","1","66","29.96","SCT:04 55","29.62","10.00","69","200","21","11",,,,,,,,,,,,,,,,,,,,,,,,,,,,,,,,,,,,,"MET12206/27/21 06:56:02 METAR KART 271156Z 20010G18KT 10SM SCT055 25/18 A2998 RMK AO2 SLP146 70005 T02500183 10261 20250 51007 $","FM-15","7",,,,,,,,,,,,,,,,,,,,,,,,,,,,"2005-11-07"
"72622794790","2021-06-27T07:56:00","FM-15","7",,,,,,,,,,,,,,,,,,,,,,,,,,,,,,,,,,,,,,"29.98","65","78","0.00",,,,"64","29.96","SCT:04 49","29.62","10.00","70","220",,"13",,,,,,,,,,,,,,,,,,,,,,,,,,,,,,,,,,,,,"MET09506/27/21 07:56:02 METAR KART 271256Z 22011KT 10SM SCT049 26/18 A2998 RMK AO2 SLP147 T02560183 $","FM-15","7",,,,,,,,,,,,,,,,,,,,,,,,,,,,"2005-11-07"
"72622794790","2021-06-27T08:56:00","FM-15","7",,,,,,,,,,,,,,,,,,,,,,,,,,,,,,,,,,,,,,"29.99","66","81","0.00",,,,"61","29.96","SCT:04 65","29.63","10.00","71","210","22","14",,,,,,,,,,,,,,,,,,,,,,,,,,,,,,,,,,,,,"MET09806/27/21 08:56:02 METAR KART 271356Z 21012G19KT 10SM SCT065 27/19 A2999 RMK AO2 SLP147 T02720189 $","FM-15","7",,,,,,,,,,,,,,,,,,,,,,,,,,,,"2005-11-07"
"72622794790","2021-06-27T09:56:00","FM-15","7",,,,,,,,,,,,,,,,,,,,,,,,,,,,,,,,,,,,,,"29.99","66","82","0.00",,"-0.01","3","58","29.97","OVC:08 60","29.63","10.00","71","210","24","15",,,,,,,,,,,,,,,,,,,,,,,,,,,,,,,,,,,,,"MET10406/27/21 09:56:02 METAR KART 271456Z 21013G21KT 10SM OVC060 28/19 A2999 RMK AO2 SLP150 T02780189 53005 $","FM-15","7",,,,,,,,,,,,,,,,,,,,,,,,,,,,"2005-11-07"
"72622794790","2021-06-27T10:56:00","FM-15","7",,,,,,,,,,,,,,,,,,,,,,,,,,,,,,,,,,,,,,"30.00","67","84","0.00",,,,"57","29.98","SCT:04 42 BKN:07 70","29.64","10.00","73","200","23","13",,,,,,,,,,,,,,,,,,,,,,,,,,,,,,,,,,,,,"MET10506/27/21 10:56:02 METAR KART 271556Z 20011G20KT 10SM SCT042 BKN070 29/19 A3000 RMK AO2 SLP152 T02890194 $","FM-15","7",,,,,,,,,,,,,,,,,,,,,,,,,,,,"2005-11-07"
"72622794790","2021-06-27T11:56:00","FM-15","7",,,,,,,,,,,,,,,,,,,,,,,,,,,,,,,,,,,,,,"30.00","66","87","0.00",,,,"50","29.98","SCT:04 75","29.64","10.00","73","230","34","18",,,,,,,,,,,,,,,,,,,,,,,,,,,,,,,,,,,,,"MET11606/27/21 11:56:02 METAR KART 271656Z 23016G30KT 10SM SCT075 31/19 A3000 RMK AO2 PK WND 23030/1650 SLP153 T03060189 $","FM-15","7",,,,,,,,,,,,,,,,,,,,,,,,,,,,"2005-11-07"
"72622794790","2021-06-27T12:56:00","FM-15","7",,,,,,,,,,,,,,,,,,,,,,,,,,,,,,,,,,,,,,"30.00","67","89","0.00",,"-0.00","0","48","29.97","CLR:00","29.64","10.00","74","230","30","18",,,,,,,,,,,,,,,,,,,,,,,,,,,,,,,,,,,,,"MET13106/27/21 12:56:02 METAR KART 271756Z 23016G26KT 10SM CLR 32/19 A3000 RMK AO2 PK WND 22032/1743 SLP150 T03170194 10317 20250 50001 $","FM-15","7",,,,,,,,,,,,,,,,,,,,,,,,,,,,"2005-11-07"
"72622794790","2021-06-27T13:56:00","FM-15","7",,,,,,,,,,,,,,,,,,,,,,,,,,,,,,,,,,,,,,"29.99","67","88","0.00",,,,"50","29.97","BKN:07 55","29.63","10.00","74","230","24","16",,,,,,,,,,,,,,,,,,,,,,,,,,,,,,,,,,,,,"MET11606/27/21 13:56:02 METAR KART 271856Z 23014G21KT 10SM BKN055 31/19 A2999 RMK AO2 PK WND 22030/1757 SLP149 T03110194 $","FM-15","7",,,,,,,,,,,,,,,,,,,,,,,,,,,,"2005-11-07"
"72622794790","2021-06-27T14:56:00","FM-15","7",,,,,,,,,,,,,,,,,,,,,,,,,,,,,,,,,,,,,,"29.99","68","88","0.00",,,,"52","29.96","CLR:00","29.63","10.00","74","250",,"10",,,,,,,,,,,,,,,,,,,,,,,,,,,,,,,,,,,,,"MET09206/27/21 14:56:02 METAR KART 271956Z 25009KT 10SM CLR 31/20 A2999 RMK AO2 SLP147 T03110200 $","FM-15","7",,,,,,,,,,,,,,,,,,,,,,,,,,,,"2005-11-07"
"72622794790","2021-06-27T15:56:00","FM-15","7",,,,,,,,,,,,,,,,,,,,,,,,,,,,,,,,,,,,,,"29.98","68","86","0.00",,"+0.02","8","55","29.96","FEW:02 90","29.62","10.00","74","220","22","14",,,,,,,,,,,,,,,,,,,,,,,,,,,,,,,,,,,,,"MET10406/27/21 15:56:02 METAR KART 272056Z 22012G19KT 10SM FEW090 30/20 A2998 RMK AO2 SLP145 T03000200 58006 $","FM-15","7",,,,,,,,,,,,,,,,,,,,,,,,,,,,"2005-11-07"
"72622794790","2021-06-27T16:56:00","FM-15","7",,,,,,,,,,,,,,,,,,,,,,,,,,,,,,,,,,,,,,"29.99","67","84","0.00",,,,"57","29.96","BKN:07 80","29.63","10.00","73","250",,"10",,,,,,,,,,,,,,,,,,,,,,,,,,,,,,,,,,,,,"MET09506/27/21 16:56:02 METAR KART 272156Z 25009KT 10SM BKN080 29/19 A2999 RMK AO2 SLP147 T02890194 $","FM-15","7",,,,,,,,,,,,,,,,,,,,,,,,,,,,"2005-11-07"
"72622794790","2021-06-27T17:56:00","FM-15","7",,,,,,,,,,,,,,,,,,,,,,,,,,,,,,,,,,,,,,"29.98","70","78","0.01",,,,"76","29.96","FEW:02 70 FEW:02 90 BKN:07 110","29.62","10.00","73","210",,"6",,,,,,,,,,,,,,,,,,,,,,,,,,,,,,,,,,,,,"MET12406/27/21 17:56:02 METAR KART 272256Z 21005KT 10SM FEW070 FEW090 BKN110 26/21 A2998 RMK AO2 RAB29E41 SLP147 P0001 T02560211 $","FM-15","7",,,,,,,,,,,,,,,,,,,,,,,,,,,,"2005-11-07"
"72622794790","2021-06-27T18:56:00","FM-15","7",,,,,,,,,,,,,,,,,,,,,,,,,,,,,,,,,,,,,,"29.99","66","79","0.00",,"-0.01","1","65","29.97","BKN:07 75 BKN:07 90 BKN:07 120","29.63","10.00","70","220",,"9",,,,,,,,,,,,,,,,,,,,,,,,,,,,,,,,,,,,,"MET13306/27/21 18:56:02 METAR KART 272356Z 22008KT 10SM BKN075 BKN090 BKN120 26/19 A2999 RMK AO2 SLP149 60001 T02610189 10317 20256 51004 $","FM-15","7",,,,,,,,,,,,,,,,,,,,,,,,,,,,"2005-11-07"
"72622794790","2021-06-27T19:56:00","FM-15","7",,,,,,,,,,,,,,,,,,,,,,,,,,,,,,,,,,,,,,"29.99","67","77","T",,,,"71","29.97","BKN:07 70 OVC:08 85","29.63","10.00","70","VRB",,"3",,,,,,,,,,,,,,,,,,,,,,,,,,,,,,,,,,,,,"MET11706/27/21 19:56:01 METAR KART 280056Z VRB03KT 10SM BKN070 OVC085 25/19 A2999 RMK AO2 RAB42E56 SLP150 P0000 T02500194 $","FM-15","7",,,,,,,,,,,,,,,,,,,,,,,,,,,,"2005-11-07"
"72622794790","2021-06-27T20:56:00","FM-15","7",,,,,,,,,,,,,,,,,,,,,,,,,,,,,,,,,,,,,,"30.01","67","76","0.00",,,,"74","29.98","BKN:07 75","29.65","10.00","70","180",,"5",,,,,,,,,,,,,,,,,,,,,,,,,,,,,,,,,,,,,"MET09506/27/21 20:56:01 METAR KART 280156Z 18004KT 10SM BKN075 24/19 A3001 RMK AO2 SLP154 T02440194 $","FM-15","7",,,,,,,,,,,,,,,,,,,,,,,,,,,,"2005-11-07"
"72622794790","2021-06-27T21:56:00","FM-15","7",,,,,,,,,,,,,,,,,,,,,,,,,,,,,,,,,,,,,,"30.01","67","77","0.00",,"-0.02","1","71","29.99","BKN:07 80 OVC:08 90","29.65","10.00","70","200",,"3",,,,,,,,,,,,,,,,,,,,,,,,,,,,,,,,,,,,,"MET11406/27/21 21:56:02 METAR KART 280256Z 20003KT 10SM BKN080 OVC090 25/19 A3001 RMK AO2 SLP155 60000 T02500194 51006 $","FM-15","7",,,,,,,,,,,,,,,,,,,,,,,,,,,,"2005-11-07"
"72622794790","2021-06-27T22:56:00","FM-15","7",,,,,,,,,,,,,,,,,,,,,,,,,,,,,,,,,,,,,,"30.02","67","76","0.00",,,,"74","30.00","BKN:07 70 OVC:08 95","29.66","10.00","70","200",,"3",,,,,,,,,,,,,,,,,,,,,,,,,,,,,,,,,,,,,"MET10206/27/21 22:56:02 METAR KART 280356Z 20003KT 10SM BKN070 OVC095 24/19 A3002 RMK AO2 SLP159 T02440194 $","FM-15","7",,,,,,,,,,,,,,,,,,,,,,,,,,,,"2005-11-07"
"72622794790","2021-06-27T23:56:00","FM-15","7",,,,,,,,,,,,,,,,,,,,,,,,,,,,,,,,,,,,,,"30.03","67","77","0.00",,,,"71","30.01","OVC:08 65","29.67","10.00","70","220",,"6",,,,,,,,,,,,,,,,,,,,,,,,,,,,,,,,,,,,,"MET10506/27/21 23:56:02 METAR KART 280456Z 22005KT 10SM OVC065 25/19 A3003 RMK AO2 SLP162 T02500194 403170244 $","FM-15","7",,,,,,,,,,,,,,,,,,,,,,,,,,,,"2005-11-07"
"72622794790","2021-06-27T23:59:00","SOD  ","6",,,,,,,,,,,,,,,,"83",,,"29.62",,"10.8","18","16.7","0","89","76","220","37","0.01",,,"230","23",,,,,,,,,,,,,,,,,,,,,,,,,,,,,,,,,,,,,,,,,,,,,,,,,,,,,,,,,"SOD69224 HR PRECIPITATION (IN): 0.01 24 HR MAX TEMP (F): 8924 HR MIN TEMP (F): 76AVERAGE STATION PRESSURE:29.620 MINIMUM SEA LEVEL PRESSURE:29.93 TIME OF OCCURRENCE:0338 PEAK WIND SPEED (MPH): 37 PEAK WIND DIR (DEG):220 PEAK WIND TIME (LST):      FASTEST 2MIN SPEED (MPH): 23FASTEST 2MIN DIR (DEG):230 FASTEST 2MIN TIME (LST):     AVERAGE WIND SPEED (MPH):10.8 24 HR AVG TEMP (F): 83DEPART FROM NORMAL: 16  HEATING DEGREE DAYS:  0 COOLING DEGREE DAYS: 18 LATEST DAY MAX TEMP (0700-1900 LST):89  LATEST NIGHT MIN TEMP(1900-0800 LST):74 HOURLY INCREMENTAL PRECIPITATION VALUES (IN):.00 0.00 0.00 0.00 0.00 0.00 0.00 0.00 0.00 0.00 0.00 0.00 0.00 0.00 0.00 0.00 0.00 0.01 0.00 T    0.00 0.00 0.00 0.00","SOD  ","6",,,,,,,,,,,,,,,,,,,,,,,,,"0423","1951",,"2005-11-07"
"72622794790","2021-06-28T00:56:00","FM-15","7",,,,,,,,,,,,,,,,,,,,,,,,,,,,,,,,,,,,,,"30.04","67","78","0.00",,"-0.03","1","69","30.01","BKN:07 60 BKN:07 75 OVC:08 90","29.68","10.00","71","230",,"7",,,,,,,,,,,,,,,,,,,,,,,,,,,,,,,,,,,,,"MET13306/28/21 00:56:02 METAR KART 280556Z 23006KT 10SM BKN060 BKN075 OVC090 26/19 A3004 RMK AO2 SLP164 60000 T02560194 10261 20244 51010 $","FM-15","7",,,,,,,,,,,,,,,,,,,,,,,,,,,,"2005-11-07"
"72622794790","2021-06-28T01:56:00","FM-15","7",,,,,,,,,,,,,,,,,,,,,,,,,,,,,,,,,,,,,,"30.04","67","79","0.00",,,,"67","30.02","OVC:08 60","29.68","10.00","71","230",,"10",,,,,,,,,,,,,,,,,,,,,,,,,,,,,,,,,,,,,"MET09506/28/21 01:56:02 METAR KART 280656Z 23009KT 10SM OVC060 26/19 A3004 RMK AO2 SLP165 T02610194 $","FM-15","7",,,,,,,,,,,,,,,,,,,,,,,,,,,,"2005-11-07"
"72622794790","2021-06-28T02:56:00","FM-15","7",,,,,,,,,,,,,,,,,,,,,,,,,,,,,,,,,,,,,,"30.05","67","78","0.00",,,,"69","30.03","OVC:08 55","29.69","10.00","71","230",,"7",,,,,,,,,,,,,,,,,,,,,,,,,,,,,,,,,,,,,"MET09506/28/21 02:56:02 METAR KART 280756Z 23006KT 10SM OVC055 26/19 A3005 RMK AO2 SLP170 T02560194 $","FM-15","7",,,,,,,,,,,,,,,,,,,,,,,,,,,,"2005-11-07"
"72622794790","2021-06-28T03:56:00","FM-15","7",,,,,,,,,,,,,,,,,,,,,,,,,,,,,,,,,,,,,,"30.07","67","77","0.00",,"-0.03","3","71","30.05","BKN:07 60 BKN:07 70","29.71","10.00","70","230",,"3",,,,,,,,,,,,,,,,,,,,,,,,,,,,,,,,,,,,,"MET10806/28/21 03:56:02 METAR KART 280856Z 23003KT 10SM BKN060 BKN070 25/19 A3007 RMK AO2 SLP175 T02500194 53010 $","FM-15","7",,,,,,,,,,,,,,,,,,,,,,,,,,,,"2005-11-07"
"72622794790","2021-06-28T04:42:00","FM-16","7",,,,,,,,,,,,,,,,,,,,,,,,,,,,,,,,,,,,,,"30.08","68","74","0.02","-RA:02 |RA |RA",,,"82",,"BKN:07 45 OVC:08 70","29.72","2.50","70","240",,"6",,,,,,,,,,,,,,,,,,,,,,,,,,,,,,,,,,,,,"MET11406/28/21 04:42:02 SPECI KART 280942Z 24005KT 2 1/2SM -RA BKN045 OVC070 23/20 A3008 RMK AO2 RAB27 P0002 T02330200 $","FM-16","7",,,,,,,,,,,,,,,,,,,,,,,,,,,,"2005-11-07"
"72622794790","2021-06-28T04:49:00","FM-16","7",,,,,,,,,,,,,,,,,,,,,,,,,,,,,,,,,,,,,,"30.08","68","73","0.02","-RA:02 |RA |RA",,,"84",,"BKN:07 45 OVC:08 70","29.72","10.00","70","230",,"5",,,,,,,,,,,,,,,,,,,,,,,,,,,,,,,,,,,,,"MET11106/28/21 04:49:02 SPECI KART 280949Z 23004KT 10SM -RA BKN045 OVC070 23/20 A3008 RMK AO2 RAB27 P0002 T02280200 $","FM-16","7",,,,,,,,,,,,,,,,,,,,,,,,,,,,"2005-11-07"
"72622794790","2021-06-28T04:56:00","FM-15","7",,,,,,,,,,,,,,,,,,,,,,,,,,,,,,,,,,,,,,"30.08","69","73","0.02",,,,"87","30.06","OVC:08 43","29.72","10.00","70","000",,"0",,,,,,,,,,,,,,,,,,,,,,,,,,,,,,,,,,,,,"MET11006/28/21 04:56:02 METAR KART 280956Z 00000KT 10SM OVC043 23/21 A3008 RMK AO2 RAB27E51 SLP180 P0002 T02280206 $","FM-15","7",,,,,,,,,,,,,,,,,,,,,,,,,,,,"2005-11-07"
"72622794790","2021-06-28T05:17:00","FM-16","7",,,,,,,,,,,,,,,,,,,,,,,,,,,,,,,,,,,,,,"30.09","69","73","0.05","-RA:02 BR:1 |RA |RA",,,"87",,"BKN:07 39 OVC:08 60","29.73","1.75","70","230",,"7",,,,,,,,,,,,,,,,,,,,,,,,,,,,,,,,,,,,,"MET11906/28/21 05:17:02 SPECI KART 281017Z 23006KT 1 3/4SM -RA BR BKN039 OVC060 23/21 A3009 RMK AO2 RAB0959 P0005 T02280206 $","FM-16","7",,,,,,,,,,,,,,,,,,,,,,,,,,,,"2005-11-07"
"72622794790","2021-06-28T05:29:00","FM-16","7",,,,,,,,,,,,,,,,,,,,,,,,,,,,,,,,,,,,,,"30.08","70","73","0.08","-RA:02 BR:1 |RA |RA",,,"90",,"FEW:02 39 BKN:07 60 OVC:08 80","29.72","3.00","71","240",,"3",,,,,,,,,,,,,,,,,,,,,,,,,,,,,,,,,,,,,"MET12206/28/21 05:29:02 SPECI KART 281029Z 24003KT 3SM -RA BR FEW039 BKN060 OVC080 23/21 A3008 RMK AO2 RAB0959 P0008 T02280211 $","FM-16","7",,,,,,,,,,,,,,,,,,,,,,,,,,,,"2005-11-07"
"72622794790","2021-06-28T05:56:00","FM-15","7",,,,,,,,,,,,,,,,,,,,,,,,,,,,,,,,,,,,,,"30.08","70","73","0.08",,,,"90","30.07","BKN:07 75","29.72","9.00","71","220",,"5",,,,,,,,,,,,,,,,,,,,,,,,,,,,,,,,,,,,,"MET11106/28/21 05:56:02 METAR KART 281056Z 22004KT 9SM BKN075 23/21 A3008 RMK AO2 RAB0959E43 SLP182 P0008 T02280211 $","FM-15","7",,,,,,,,,,,,,,,,,,,,,,,,,,,,"2005-11-07"
"72622794790","2021-06-28T06:56:00","FM-15","7",,,,,,,,,,,,,,,,,,,,,,,,,,,,,,,,,,,,,,"30.10","71","76","0.01",,"-0.03","1","85","30.08","FEW:02 33 BKN:07 44 BKN:07 100","29.74","10.00","73","210",,"3",,,,,,,,,,,,,,,,,,,,,,,,,,,,,,,,,,,,,"MET15406/28/21 06:56:02 METAR KART 281156Z 21003KT 10SM FEW033 BKN044 BKN100 24/22 A3010 RMK AO2 RAB14E23 SLP185 P0001 60011 70012 T02440217 10261 20228 51010 $","FM-15","7",,,,,,,,,,,,,,,,,,,,,,,,,,,,"2005-11-07"
"72622794790","2021-06-28T07:56:00","FM-15","7",,,,,,,,,,,,,,,,,,,,,,,,,,,,,,,,,,,,,,"30.10","71","80","0.00",,,,"74","30.08","SCT:04 50","29.74","10.00","74","210",,"9",,,,,,,,,,,,,,,,,,,,,,,,,,,,,,,,,,,,,"MET09506/28/21 07:56:02 METAR KART 281256Z 21008KT 10SM SCT050 27/22 A3010 RMK AO2 SLP187 T02670217 $","FM-15","7",,,,,,,,,,,,,,,,,,,,,,,,,,,,"2005-11-07"
"72622794790","2021-06-28T08:43:00","FM-16","7",,,,,,,,,,,,,,,,,,,,,,,,,,,,,,,,,,,,,,"30.10","70","82",,,,,"67",,"BKN:07 29","29.74","10.00","74","230","22","15",,,,,,,,,,,,,,,,,,,,,,,,,,,,,,,,,,,,,"MET09106/28/21 08:43:02 SPECI KART 281343Z 23013G19KT 10SM BKN029 28/21 A3010 RMK AO2 T02780211 $","FM-16","7",,,,,,,,,,,,,,,,,,,,,,,,,,,,"2005-11-07"
"72622794790","2021-06-28T08:56:00","FM-15","7",,,,,,,,,,,,,,,,,,,,,,,,,,,,,,,,,,,,,,"30.11","69","82","0.00",,,,"65","30.09","BKN:07 29","29.75","10.00","73","230","22","14",,,,,,,,,,,,,,,,,,,,,,,,,,,,,,,,,,,,,"MET09806/28/21 08:56:02 METAR KART 281356Z 23012G19KT 10SM BKN029 28/21 A3011 RMK AO2 SLP188 T02780206 $","FM-15","7",,,,,,,,,,,,,,,,,,,,,,,,,,,,"2005-11-07"
"72622794790","2021-06-28T09:56:00","FM-15","7",,,,,,,,,,,,,,,,,,,,,,,,,,,,,,,,,,,,,,"30.12","69","81","0.00",,"-0.02","3","67","30.10","OVC:08 26","29.76","10.00","73","240",,"13",,,,,,,,,,,,,,,,,,,,,,,,,,,,,,,,,,,,,"MET10106/28/21 09:56:02 METAR KART 281456Z 24011KT 10SM OVC026 27/21 A3012 RMK AO2 SLP193 T02720206 53007 $","FM-15","7",,,,,,,,,,,,,,,,,,,,,,,,,,,,"2005-11-07"
"72622794790","2021-06-28T10:39:00","FM-16","7",,,,,,,,,,,,,,,,,,,,,,,,,,,,,,,,,,,,,,"30.12","70","82",,,,,"67",,"SCT:04 25","29.76","10.00","74","250","23","14",,,,,,,,,,,,,,,,,,,,,,,,,,,,,,,,,,,,,"MET09106/28/21 10:39:02 SPECI KART 281539Z 25012G20KT 10SM SCT025 28/21 A3012 RMK AO2 T02780211 $","FM-16","7",,,,,,,,,,,,,,,,,,,,,,,,,,,,"2005-11-07"
"72622794790","2021-06-28T10:56:00","FM-15","7",,,,,,,,,,,,,,,,,,,,,,,,,,,,,,,,,,,,,,"30.12","70","82","0.00",,,,"67","30.10","FEW:02 55","29.76","10.00","74","240","23","14",,,,,,,,,,,,,,,,,,,,,,,,,,,,,,,,,,,,,"MET09806/28/21 10:56:02 METAR KART 281556Z 24012G20KT 10SM FEW055 28/21 A3012 RMK AO2 SLP194 T02780211 $","FM-15","7",,,,,,,,,,,,,,,,,,,,,,,,,,,,"2005-11-07"
"72622794790","2021-06-28T11:56:00","FM-15","7",,,,,,,,,,,,,,,,,,,,,,,,,,,,,,,,,,,,,,"30.13","71","82","0.00",,,,"69","30.11","OVC:08 60","29.77","10.00","74","260","21","16",,,,,,,,,,,,,,,,,,,,,,,,,,,,,,,,,,,,,"MET09806/28/21 11:56:02 METAR KART 281656Z 26014G18KT 10SM OVC060 28/22 A3013 RMK AO2 SLP196 T02780217 $","FM-15","7",,,,,,,,,,,,,,,,,,,,,,,,,,,,"2005-11-07"
"72622794790","2021-06-28T12:56:00","FM-15","7",,,,,,,,,,,,,,,,,,,,,,,,,,,,,,,,,,,,,,"30.12","71","83","0.00",,"+0.00","8","67","30.10","FEW:02 50","29.76","10.00","75","240",,"11",,,,,,,,,,,,,,,,,,,,,,,,,,,,,,,,,,,,,"MET11306/28/21 12:56:02 METAR KART 281756Z 24010KT 10SM FEW050 28/22 A3012 RMK AO2 SLP193 T02830217 10289 20239 58000 $","FM-15","7",,,,,,,,,,,,,,,,,,,,,,,,,,,,"2005-11-07"
"72622794790","2021-06-28T13:56:00","FM-15","7",,,,,,,,,,,,,,,,,,,,,,,,,,,,,,,,,,,,,,"30.11","72","85","0.00",,,,"65","30.09","CLR:00","29.75","10.00","76","240",,"13",,,,,,,,,,,,,,,,,,,,,,,,,,,,,,,,,,,,,"MET09206/28/21 13:56:02 METAR KART 281856Z 24011KT 10SM CLR 29/22 A3011 RMK AO2 SLP191 T02940222 $","FM-15","7",,,,,,,,,,,,,,,,,,,,,,,,,,,,"2005-11-07"
"72622794790","2021-06-28T14:56:00","FM-15","7",,,,,,,,,,,,,,,,,,,,,,,,,,,,,,,,,,,,,,"30.11","72","86","0.00",,,,"63","30.09","CLR:00","29.75","10.00","76","240","22","10",,,,,,,,,,,,,,,,,,,,,,,,,,,,,,,,,,,,,"MET09506/28/21 14:56:02 METAR KART 281956Z 24009G19KT 10SM CLR 30/22 A3011 RMK AO2 SLP188 T03000222 $","FM-15","7",,,,,,,,,,,,,,,,,,,,,,,,,,,,"2005-11-07"
"72622794790","2021-06-28T15:56:00","FM-15","7",,,,,,,,,,,,,,,,,,,,,,,,,,,,,,,,,,,,,,"30.10","71","84","0.00",,"+0.02","6","65","30.08","CLR:00","29.74","10.00","75","250",,"10",,,,,,,,,,,,,,,,,,,,,,,,,,,,,,,,,,,,,"MET09806/28/21 15:56:02 METAR KART 282056Z 25009KT 10SM CLR 29/22 A3010 RMK AO2 SLP187 T02890217 56006 $","FM-15","7",,,,,,,,,,,,,,,,,,,,,,,,,,,,"2005-11-07"
"72622794790","2021-06-28T16:56:00","FM-15","7",,,,,,,,,,,,,,,,,,,,,,,,,,,,,,,,,,,,,,"30.09","70","85","0.00",,,,"61","30.07","CLR:00","29.73","10.00","75","240",,"9",,,,,,,,,,,,,,,,,,,,,,,,,,,,,,,,,,,,,"MET09206/28/21 16:56:02 METAR KART 282156Z 24008KT 10SM CLR 29/21 A3009 RMK AO2 SLP184 T02940211 $","FM-15","7",,,,,,,,,,,,,,,,,,,,,,,,,,,,"2005-11-07"
"72622794790","2021-06-28T17:56:00","FM-15","7",,,,,,,,,,,,,,,,,,,,,,,,,,,,,,,,,,,,,,"30.10","69","84","0.00",,,,"61","30.08","CLR:00","29.74","10.00","74","260",,"9",,,,,,,,,,,,,,,,,,,,,,,,,,,,,,,,,,,,,"MET09206/28/21 17:56:02 METAR KART 282256Z 26008KT 10SM CLR 29/21 A3010 RMK AO2 SLP185 T02890206 $","FM-15","7",,,,,,,,,,,,,,,,,,,,,,,,,,,,"2005-11-07"
"72622794790","2021-06-28T18:56:00","FM-15","7",,,,,,,,,,,,,,,,,,,,,,,,,,,,,,,,,,,,,,"30.10","69","82","0.00",,"-0.00","3","65","30.08","CLR:00","29.74","10.00","73","220",,"10",,,,,,,,,,,,,,,,,,,,,,,,,,,,,,,,,,,,,"MET11006/28/21 18:56:02 METAR KART 282356Z 22009KT 10SM CLR 28/21 A3010 RMK AO2 SLP187 T02780206 10300 20278 53001 $","FM-15","7",,,,,,,,,,,,,,,,,,,,,,,,,,,,"2005-11-07"
"72622794790","2021-06-28T19:56:00","FM-15","7",,,,,,,,,,,,,,,,,,,,,,,,,,,,,,,,,,,,,,"30.11","69","78","0.00",,,,"74","30.09","CLR:00","29.75","10.00","72","220",,"8",,,,,,,,,,,,,,,,,,,,,,,,,,,,,,,,,,,,,"MET09206/28/21 19:56:01 METAR KART 290056Z 22007KT 10SM CLR 26/21 A3011 RMK AO2 SLP188 T02560206 $","FM-15","7",,,,,,,,,,,,,,,,,,,,,,,,,,,,"2005-11-07"
"72622794790","2021-06-28T20:56:00","FM-15","7",,,,,,,,,,,,,,,,,,,,,,,,,,,,,,,,,,,,,,"30.12","69","77","0.00",,,,"77","30.10","CLR:00","29.76","10.00","72","210",,"6",,,,,,,,,,,,,,,,,,,,,,,,,,,,,,,,,,,,,"MET09206/28/21 20:56:01 METAR KART 290156Z 21005KT 10SM CLR 25/21 A3012 RMK AO2 SLP193 T02500206 $","FM-15","7",,,,,,,,,,,,,,,,,,,,,,,,,,,,"2005-11-07"
"72622794790","2021-06-28T21:56:00","FM-15","7",,,,,,,,,,,,,,,,,,,,,,,,,,,,,,,,,,,,,,"30.13","69","76","0.00",,"-0.03","3","79","30.11","CLR:00","29.77","10.00","71","230",,"6",,,,,,,,,,,,,,,,,,,,,,,,,,,,,,,,,,,,,"MET09806/28/21 21:56:01 METAR KART 290256Z 23005KT 10SM CLR 24/21 A3013 RMK AO2 SLP196 T02440206 53009 $","FM-15","7",,,,,,,,,,,,,,,,,,,,,,,,,,,,"2005-11-07"
"72622794790","2021-06-28T22:56:00","FM-15","7",,,,,,,,,,,,,,,,,,,,,,,,,,,,,,,,,,,,,,"30.14","70","77","0.00",,,,"79","30.12","SCT:04 75","29.78","10.00","72","240",,"5",,,,,,,,,,,,,,,,,,,,,,,,,,,,,,,,,,,,,"MET09506/28/21 22:56:02 METAR KART 290356Z 24004KT 10SM SCT075 25/21 A3014 RMK AO2 SLP201 T02500211 $","FM-15","7",,,,,,,,,,,,,,,,,,,,,,,,,,,,"2005-11-07"
"72622794790","2021-06-28T23:56:00","FM-15","7",,,,,,,,,,,,,,,,,,,,,,,,,,,,,,,,,,,,,,"30.15","70","75","0.00",,,,"84","30.13","SCT:04 39 OVC:08 70","29.79","10.00","72","230",,"5",,,,,,,,,,,,,,,,,,,,,,,,,,,,,,,,,,,,,"MET11206/28/21 23:56:02 METAR KART 290456Z 23004KT 10SM SCT039 OVC070 24/21 A3015 RMK AO2 SLP202 T02390211 403000228 $","FM-15","7",,,,,,,,,,,,,,,,,,,,,,,,,,,,"2005-11-07"
"72622794790","2021-06-28T23:59:00","SOD  ","6",,,,,,,,,,,,,,,,"80",,,"29.72",,"8.5","15","13.5","0","86","73","260","23","0.11",,,"260","17","RA BR",,,,,,,,,,,,,,,,,,,,,,,,,,,,,,,,,,,,,,,,,,,,,,,,,,,,,,,,"SOD70924 HR PRECIPITATION (IN): 0.11 WEATHER(CODE):1  24 HR MAX TEMP (F): 8624 HR MIN TEMP (F): 73AVERAGE STATION PRESSURE:29.725 MINIMUM SEA LEVEL PRESSURE:30.01 TIME OF OCCURRENCE:0128 PEAK WIND SPEED (MPH): 23 PEAK WIND DIR (DEG):260 PEAK WIND TIME (LST):      FASTEST 2MIN SPEED (MPH): 17FASTEST 2MIN DIR (DEG):260 FASTEST 2MIN TIME (LST):     AVERAGE WIND SPEED (MPH): 8.5 24 HR AVG TEMP (F): 80DEPART FROM NORMAL: 13  HEATING DEGREE DAYS:  0 COOLING DEGREE DAYS: 15 LATEST DAY MAX TEMP (0700-1900 LST):86  LATEST NIGHT MIN TEMP(1900-0800 LST):73 HOURLY INCREMENTAL PRECIPITATION VALUES (IN):.00 0.00 0.00 0.00 0.02 0.08 0.01 0.00 0.00 0.00 0.00 0.00 0.00 0.00 0.00 0.00 0.00 0.00 0.00 0.00 0.00 0.00 0.00 0.00","SOD  ","6",,,,,,,,,,,,,,,,,,,,,,,,,"0423","1951",,"2005-11-07"
"72622794790","2021-06-29T00:56:00","FM-15","7",,,,,,,,,,,,,,,,,,,,,,,,,,,,,,,,,,,,,,"30.15","70","75","0.00",,"-0.01","1","84","30.13","OVC:08 75","29.79","10.00","72","230",,"3",,,,,,,,,,,,,,,,,,,,,,,,,,,,,,,,,,,,,"MET11306/29/21 00:56:02 METAR KART 290556Z 23003KT 10SM OVC075 24/21 A3015 RMK AO2 SLP202 T02390211 10278 20239 51005 $","FM-15","7",,,,,,,,,,,,,,,,,,,,,,,,,,,,"2005-11-07"
"72622794790","2021-06-29T01:56:00","FM-15","7",,,,,,,,,,,,,,,,,,,,,,,,,,,,,,,,,,,,,,"30.15","69","73","0.00",,,,"87","30.13","BKN:07 55","29.79","10.00","70","210",,"3",,,,,,,,,,,,,,,,,,,,,,,,,,,,,,,,,,,,,"MET09506/29/21 01:56:02 METAR KART 290656Z 21003KT 10SM BKN055 23/21 A3015 RMK AO2 SLP203 T02280206 $","FM-15","7",,,,,,,,,,,,,,,,,,,,,,,,,,,,"2005-11-07"
"72622794790","2021-06-29T02:56:00","FM-15","7",,,,,,,,,,,,,,,,,,,,,,,,,,,,,,,,,,,,,,"30.16","68","71","0.00",,,,"90","30.14","CLR:00","29.80","8.00","69","000",,"0",,,,,,,,,,,,,,,,,,,,,,,,,,,,,,,,,,,,,"MET09106/29/21 02:56:02 METAR KART 290756Z 00000KT 8SM CLR 22/20 A3016 RMK AO2 SLP206 T02170200 $","FM-15","7",,,,,,,,,,,,,,,,,,,,,,,,,,,,"2005-11-07"
"72622794790","2021-06-29T03:56:00","FM-15","7",,,,,,,,,,,,,,,,,,,,,,,,,,,,,,,,,,,,,,"30.17","67","69","0.00","BR:1 ||","-0.03","3","93","30.16","CLR:00","29.81","5.00","68","000",,"0",,,,,,,,,,,,,,,,,,,,,,,,,,,,,,,,,,,,,"MET10006/29/21 03:56:02 METAR KART 290856Z 00000KT 5SM BR CLR 21/19 A3017 RMK AO2 SLP212 T02060194 53009 $","FM-15","7",,,,,,,,,,,,,,,,,,,,,,,,,,,,"2005-11-07"
"72622794790","2021-06-29T04:16:00","FM-16","7",,,,,,,,,,,,,,,,,,,,,,,,,,,,,,,,,,,,,,"30.18","66","68",,"BR:1 ||",,,"93",,"CLR:00","29.82","1.75","67","000",,"0",,,,,,,,,,,,,,,,,,,,,,,,,,,,,,,,,,,,,"MET09106/29/21 04:16:02 SPECI KART 290916Z 00000KT 1 3/4SM BR CLR 20/19 A3018 RMK AO2 T02000189 $","FM-16","7",,,,,,,,,,,,,,,,,,,,,,,,,,,,"2005-11-07"
"72622794790","2021-06-29T04:34:00","FM-16","7",,,,,,,,,,,,,,,,,,,,,,,,,,,,,,,,,,,,,,"30.17","66","67",,"FG:2 |FG |",,,"97",,"CLR:00","29.81","0.50","66","000",,"0",,,,,,,,,,,,,,,,,,,,,,,,,,,,,,,,,,,,,"MET08906/29/21 04:34:02 SPECI KART 290934Z 00000KT 1/2SM FG CLR 19/19 A3017 RMK AO2 T01940189 $","FM-16","7",,,,,,,,,,,,,,,,,,,,,,,,,,,,"2005-11-07"
"72622794790","2021-06-29T04:41:00","FM-16","7",,,,,,,,,,,,,,,,,,,,,,,,,,,,,,,,,,,,,,"30.18","66","67",,"FG:2 |FG |",,,"97",,"VV:09 3","29.82","0.25","66","000",,"0",,,,,,,,,,,,,,,,,,,,,,,,,,,,,,,,,,,,,"MET09106/29/21 04:41:02 SPECI KART 290941Z 00000KT 1/4SM FG VV003 19/19 A3018 RMK AO2 T01940189 $","FM-16","7",,,,,,,,,,,,,,,,,,,,,,,,,,,,"2005-11-07"
"72622794790","2021-06-29T04:56:00","FM-15","7",,,,,,,,,,,,,,,,,,,,,,,,,,,,,,,,,,,,,,"30.18","66","67","0.00","FG:2 |FG |",,,"97","30.16","VV:09 3","29.82","0.00","66","000",,"0",,,,,,,,,,,,,,,,,,,,,,,,,,,,,,,,,,,,,"MET09906/29/21 04:56:02 METAR KART 290956Z 00000KT M1/4SM FG VV003 19/19 A3018 RMK AO2 SLP214 T01940189 $","FM-15","7",,,,,,,,,,,,,,,,,,,,,,,,,,,,"2005-11-07"
"72622794790","2021-06-29T05:10:00","FM-16","7",,,,,,,,,,,,,,,,,,,,,,,,,,,,,,,,,,,,,,"30.18","66","67",,"FG:2 |FG |",,,"97",,"CLR:00","29.82","0.25","66","000",,"0",,,,,,,,,,,,,,,,,,,,,,,,,,,,,,,,,,,,,"MET08906/29/21 05:10:02 SPECI KART 291010Z 00000KT 1/4SM FG CLR 19/19 A3018 RMK AO2 T01940189 $","FM-16","7",,,,,,,,,,,,,,,,,,,,,,,,,,,,"2005-11-07"
"72622794790","2021-06-29T05:16:00","FM-16","7",,,,,,,,,,,,,,,,,,,,,,,,,,,,,,,,,,,,,,"30.18","66","68",,"BR:1 ||",,,"93",,"CLR:00","29.82","1.00V","67","000",,"0",,,,,,,,,,,,,,,,,,,,,,,,,,,,,,,,,,,,,"MET09706/29/21 05:16:02 SPECI KART 291016Z 00000KT 1SM BR CLR 20/19 A3018 RMK AO2 VIS 1/2V3 T02000189 $","FM-16","7",,,,,,,,,,,,,,,,,,,,,,,,,,,,"2005-11-07"
"72622794790","2021-06-29T05:24:00","FM-16","7",,,,,,,,,,,,,,,,,,,,,,,,,,,,,,,,,,,,,,"30.19","67","69",,"BR:1 ||",,,"93",,"CLR:00","29.83","3.00","68","000",,"0",,,,,,,,,,,,,,,,,,,,,,,,,,,,,,,,,,,,,"MET08706/29/21 05:24:02 SPECI KART 291024Z 00000KT 3SM BR CLR 21/19 A3019 RMK AO2 T02060194 $","FM-16","7",,,,,,,,,,,,,,,,,,,,,,,,,,,,"2005-11-07"
"72622794790","2021-06-29T05:56:00","FM-15","7",,,,,,,,,,,,,,,,,,,,,,,,,,,,,,,,,,,,,,"30.19","68","73","0.00",,,,"84","30.17","CLR:00","29.83","9.00","70","250",,"3",,,,,,,,,,,,,,,,,,,,,,,,,,,,,,,,,,,,,"MET09106/29/21 05:56:02 METAR KART 291056Z 25003KT 9SM CLR 23/20 A3019 RMK AO2 SLP216 T02280200 $","FM-15","7",,,,,,,,,,,,,,,,,,,,,,,,,,,,"2005-11-07"
"72622794790","2021-06-29T06:49:00","FM-16","7",,,,,,,,,,,,,,,,,,,,,,,,,,,,,,,,,,,,,,"30.19","68","75",,,,,"79",,"FEW:02 2","29.83","10.00","70","240",,"3",,,,,,,,,,,,,,,,,,,,,,,,,,,,,,,,,,,,,"MET08806/29/21 06:49:02 SPECI KART 291149Z 24003KT 10SM FEW002 24/20 A3019 RMK AO2 T02390200 $","FM-16","7",,,,,,,,,,,,,,,,,,,,,,,,,,,,"2005-11-07"
"72622794790","2021-06-29T06:56:00","FM-15","7",,,,,,,,,,,,,,,,,,,,,,,,,,,,,,,,,,,,,,"30.18","69","76","0.00",,"-0.01","0","79","30.16","CLR:00","29.82","10.00","71","220",,"6",,,,,,,,,,,,,,,,,,,,,,,,,,,,,,,,,,,,,"MET11006/29/21 06:56:02 METAR KART 291156Z 22005KT 10SM CLR 24/21 A3018 RMK AO2 SLP214 T02440206 10244 20194 50003 $","FM-15","7",,,,,,,,,,,,,,,,,,,,,,,,,,,,"2005-11-07"
"72622794790","2021-06-29T07:56:00","FM-15","7",,,,,,,,,,,,,,,,,,,,,,,,,,,,,,,,,,,,,,"30.19","68","79","0.00",,,,"69","30.17","CLR:00","29.83","10.00","72","270",,"8",,,,,,,,,,,,,,,,,,,,,,,,,,,,,,,,,,,,,"MET09206/29/21 07:56:02 METAR KART 291256Z 27007KT 10SM CLR 26/20 A3019 RMK AO2 SLP216 T02610200 $","FM-15","7",,,,,,,,,,,,,,,,,,,,,,,,,,,,"2005-11-07"
"72622794790","2021-06-29T08:56:00","FM-15","7",,,,,,,,,,,,,,,,,,,,,,,,,,,,,,,,,,,,,,"30.17","66","80","0.00",,,,"62","30.15","SCT:04 46","29.81","10.00","71",,,,,,,,,,,,,,,,,,,,,,,,,,,,,,,,,,,,,,,,"MET09506/29/21 08:56:02 METAR KART 291356Z      KT 10SM SCT046 27/19 A3017 RMK AO2 SLP211 T02670189 $","FM-15","7",,,,,,,,,,,,,,,,,,,,,,,,,,,,"2005-11-07"
"72622794790","2021-06-29T09:56:00","FM-15","7",,,,,,,,,,,,,,,,,,,,,,,,,,,,,,,,,,,,,,"30.17","67","81","0.00",,"+0.01","8","62","30.15","OVC:08 41","29.81","10.00","72","270",,"6",,,,,,,,,,,,,,,,,,,,,,,,,,,,,,,,,,,,,"MET10106/29/21 09:56:02 METAR KART 291456Z 27005KT 10SM OVC041 27/19 A3017 RMK AO2 SLP210 T02720194 58004 $","FM-15","7",,,,,,,,,,,,,,,,,,,,,,,,,,,,"2005-11-07"
"72622794790","2021-06-29T10:56:00","FM-15","7",,,,,,,,,,,,,,,,,,,,,,,,,,,,,,,,,,,,,,"30.16","67","83","0.00",,,,"59","30.14","SCT:04 36","29.80","10.00","72","280",,"7",,,,,,,,,,,,,,,,,,,,,,,,,,,,,,,,,,,,,"MET09506/29/21 10:56:02 METAR KART 291556Z 28006KT 10SM SCT036 28/19 A3016 RMK AO2 SLP205 T02830194 $","FM-15","7",,,,,,,,,,,,,,,,,,,,,,,,,,,,"2005-11-07"
"72622794790","2021-06-29T11:56:00","FM-15","7",,,,,,,,,,,,,,,,,,,,,,,,,,,,,,,,,,,,,,"30.15","70","86","0.00",,,,"59","30.13","FEW:02 40","29.79","10.00","75","270",,"9",,,,,,,,,,,,,,,,,,,,,,,,,,,,,,,,,,,,,"MET09506/29/21 11:56:02 METAR KART 291656Z 27008KT 10SM FEW040 30/21 A3015 RMK AO2 SLP202 T03000211 $","FM-15","7",,,,,,,,,,,,,,,,,,,,,,,,,,,,"2005-11-07"
"72622794790","2021-06-29T12:56:00","FM-15","7",,,,,,,,,,,,,,,,,,,,,,,,,,,,,,,,,,,,,,"30.13","72","87","0.00",,"+0.04","8","61","30.11","CLR:00","29.77","10.00","77","260",,"11",,,,,,,,,,,,,,,,,,,,,,,,,,,,,,,,,,,,,"MET12806/29/21 12:56:02 METAR KART 291756Z 26010KT 10SM CLR 31/22 A3013 RMK AO2 LTG DSNT N AND NW SLP196 T03060222 10311 20244 58013 $","FM-15","7",,,,,,,,,,,,,,,,,,,,,,,,,,,,"2005-11-07"
"72622794790","2021-06-29T13:56:00","FM-15","7",,,,,,,,,,,,,,,,,,,,,,,,,,,,,,,,,,,,,,"30.11","70","87","0.00",,,,"57","30.09","CLR:00","29.75","10.00","75","260",,"11",,,,,,,,,,,,,,,,,,,,,,,,,,,,,,,,,,,,,"MET09006/29/21 13:56:02 METAR KART 291856Z 26010KT 10SM CLR 31/21 A3011 RMK AO2 SLP190 T03060211","FM-15","7",,,,,,,,,,,,,,,,,,,,,,,,,,,,"2005-11-07"
"72622794790","2021-06-29T14:56:00","FM-15","7",,,,,,,,,,,,,,,,,,,,,,,,,,,,,,,,,,,,,,"30.09","70","87","0.00",,,,"57","30.07","CLR:00","29.73","10.00","75","250",,"11",,,,,,,,,,,,,,,,,,,,,,,,,,,,,,,,,,,,,"MET09006/29/21 14:56:02 METAR KART 291956Z 25010KT 10SM CLR 31/21 A3009 RMK AO2 SLP183 T03060211","FM-15","7",,,,,,,,,,,,,,,,,,,,,,,,,,,,"2005-11-07"
"72622794790","2021-06-29T15:56:00","FM-15","7",,,,,,,,,,,,,,,,,,,,,,,,,,,,,,,,,,,,,,"30.09","70","89","0.00",,"+0.04","5","53","30.07","FEW:02 100","29.73","10.00","76","250",,"8",,,,,,,,,,,,,,,,,,,,,,,,,,,,,,,,,,,,,"MET09906/29/21 15:56:02 METAR KART 292056Z 25007KT 10SM FEW100 32/21 A3009 RMK AO2 SLP183 T03170211 55013","FM-15","7",,,,,,,,,,,,,,,,,,,,,,,,,,,,"2005-11-07"
"72622794790","2021-06-29T16:56:00","FM-15","7",,,,,,,,,,,,,,,,,,,,,,,,,,,,,,,,,,,,,,"30.07","70","85","0.00",,,,"61","30.06","BKN:07 90","29.71","10.00","75","230",,"6",,,,,,,,,,,,,,,,,,,,,,,,,,,,,,,,,,,,,"MET09306/29/21 16:56:02 METAR KART 292156Z 23005KT 10SM BKN090 29/21 A3007 RMK AO2 SLP178 T02940211","FM-15","7",,,,,,,,,,,,,,,,,,,,,,,,,,,,"2005-11-07"
"72622794790","2021-06-29T17:56:00","FM-15","7",,,,,,,,,,,,,,,,,,,,,,,,,,,,,,,,,,,,,,"30.07","71","83","0.00",,,,"67","30.05","CLR:00","29.71","10.00","75","210",,"5",,,,,,,,,,,,,,,,,,,,,,,,,,,,,,,,,,,,,"MET09006/29/21 17:56:02 METAR KART 292256Z 21004KT 10SM CLR 28/22 A3007 RMK AO2 SLP176 T02830217","FM-15","7",,,,,,,,,,,,,,,,,,,,,,,,,,,,"2005-11-07"
"72622794790","2021-06-29T18:56:00","FM-15","7",,,,,,,,,,,,,,,,,,,,,,,,,,,,,,,,,,,,,,"30.07","71","81","0.00",,"+0.02","6","72","30.05","FEW:02 60 SCT:04 95","29.71","10.00","74","240",,"3",,,,,,,,,,,,,,,,,,,,,,,,,,,,,,,,,,,,,"MET11806/29/21 18:56:02 METAR KART 292356Z 24003KT 10SM FEW060 SCT095 27/22 A3007 RMK AO2 SLP176 T02720217 10317 20272 56007","FM-15","7",,,,,,,,,,,,,,,,,,,,,,,,,,,,"2005-11-07"
"72622794790","2021-06-29T19:56:00","FM-15","7",,,,,,,,,,,,,,,,,,,,,,,,,,,,,,,,,,,,,,"30.06","70","78","0.00",,,,"76","30.03","CLR:00","29.70","10.00","73","000",,"0",,,,,,,,,,,,,,,,,,,,,,,,,,,,,,,,,,,,,"MET09006/29/21 19:56:01 METAR KART 300056Z 00000KT 10SM CLR 26/21 A3006 RMK AO2 SLP171 T02560211","FM-15","7",,,,,,,,,,,,,,,,,,,,,,,,,,,,"2005-11-07"
"72622794790","2021-06-29T20:56:00","FM-15","7",,,,,,,,,,,,,,,,,,,,,,,,,,,,,,,,,,,,,,"30.05","70","74","0.00",,,,"88","30.03","CLR:00","29.69","10.00","71","160",,"3",,,,,,,,,,,,,,,,,,,,,,,,,,,,,,,,,,,,,"MET09006/29/21 20:56:01 METAR KART 300156Z 16003KT 10SM CLR 23/21 A3005 RMK AO2 SLP170 T02330211","FM-15","7",,,,,,,,,,,,,,,,,,,,,,,,,,,,"2005-11-07"
"72622794790","2021-06-29T21:56:00","FM-15","7",,,,,,,,,,,,,,,,,,,,,,,,,,,,,,,,,,,,,,"30.06","70","75","0.00",,"+0.01","5","84","30.04","BKN:07 50","29.70","10.00","72","250",,"3",,,,,,,,,,,,,,,,,,,,,,,,,,,,,,,,,,,,,"MET09906/29/21 21:56:02 METAR KART 300256Z 25003KT 10SM BKN050 24/21 A3006 RMK AO2 SLP172 T02390211 55004","FM-15","7",,,,,,,,,,,,,,,,,,,,,,,,,,,,"2005-11-07"
"72622794790","2021-06-29T22:56:00","FM-15","7",,,,,,,,,,,,,,,,,,,,,,,,,,,,,,,,,,,,,,"30.05","72","77","0.00",,,,"85","30.03","CLR:00","29.69","10.00","74","220",,"9",,,,,,,,,,,,,,,,,,,,,,,,,,,,,,,,,,,,,"MET09006/29/21 22:56:02 METAR KART 300356Z 22008KT 10SM CLR 25/22 A3005 RMK AO2 SLP170 T02500222","FM-15","7",,,,,,,,,,,,,,,,,,,,,,,,,,,,"2005-11-07"
"72622794790","2021-06-29T23:56:00","FM-15","7",,,,,,,,,,,,,,,,,,,,,,,,,,,,,,,,,,,,,,"30.02","69","76","0.00",,,,"79","30.00","CLR:00","29.66","10.00","71","220",,"7",,,,,,,,,,,,,,,,,,,,,,,,,,,,,,,,,,,,,"MET10006/29/21 23:56:02 METAR KART 300456Z 22006KT 10SM CLR 24/21 A3002 RMK AO2 SLP159 T02440206 403170194","FM-15","7",,,,,,,,,,,,,,,,,,,,,,,,,,,,"2005-11-07"
"72622794790","2021-06-29T23:59:00","SOD  ","6",,,,,,,,,,,,,,,,"78",,,"29.78",,"5.5","13","11.3","0","89","67","230","20","0.00",,,"260","15","FG BR",,,,,,,,,,,,,,,,,,,,,,,,,,,,,,,,,,,,,,,,,,,,,,,,,,,,,,,,"SOD71424 HR PRECIPITATION (IN): 0.00 WEATHER(CODE):12  24 HR MAX TEMP (F): 8924 HR MIN TEMP (F): 67AVERAGE STATION PRESSURE(D):29.776 MINIMUM SEA LEVEL PRESSURE:30.00 TIME OF OCCURRENCE:2359 PEAK WIND SPEED (MPH): 20 PEAK WIND DIR (DEG):230 PEAK WIND TIME (LST):      FASTEST 2MIN SPEED (MPH): 15FASTEST 2MIN DIR (DEG):260 FASTEST 2MIN TIME (LST):     AVERAGE WIND SPEED (MPH): 5.5 24 HR AVG TEMP (F): 78DEPART FROM NORMAL: 11  HEATING DEGREE DAYS:  0 COOLING DEGREE DAYS: 13 LATEST DAY MAX TEMP (0700-1900 LST): 89 LATEST NIGHT MIN TEMP(1900-0800 LST):67 HOURLY INCREMENTAL PRECIPITATION VALUES (IN):0.00 0.00 0.00 0.00 0.00 0.00 0.00 0.00 0.00 0.00 0.00 0.00 0.00 0.00 0.00 0.00 0.00 0.00 0.00 0.00 0.00 0.00 0.00 0.00","SOD  ","6",,,,,,,,,,,,,,,,,,,,,,,,,"0424","1951",,"2005-11-07"
"72622794790","2021-06-30T00:56:00","FM-15","7",,,,,,,,,,,,,,,,,,,,,,,,,,,,,,,,,,,,,,"30.00","69","75","0.00",,"+0.06","8","82","29.98","CLR:00","29.64","10.00","71","210",,"8",,,,,,,,,,,,,,,,,,,,,,,,,,,,,,,,,,,,,"MET10806/30/21 00:56:02 METAR KART 300556Z 21007KT 10SM CLR 24/21 A3000 RMK AO2 SLP153 T02390206 10272 20233 58019","FM-15","7",,,,,,,,,,,,,,,,,,,,,,,,,,,,"2005-11-07"
"72622794790","2021-06-30T01:56:00","FM-15","7",,,,,,,,,,,,,,,,,,,,,,,,,,,,,,,,,,,,,,"30.03","69","74","0.00",,,,"85","30.01","CLR:00","29.67","10.00","71","230",,"8",,,,,,,,,,,,,,,,,,,,,,,,,,,,,,,,,,,,,"MET09006/30/21 01:56:02 METAR KART 300656Z 23007KT 10SM CLR 23/21 A3003 RMK AO2 SLP161 T02330206","FM-15","7",,,,,,,,,,,,,,,,,,,,,,,,,,,,"2005-11-07"
"72622794790","2021-06-30T02:56:00","FM-15","7",,,,,,,,,,,,,,,,,,,,,,,,,,,,,,,,,,,,,,"30.00","69","75","0.00",,,,"82","29.98","CLR:00","29.64","10.00","71","210",,"9",,,,,,,,,,,,,,,,,,,,,,,,,,,,,,,,,,,,,"MET09006/30/21 02:56:02 METAR KART 300756Z 21008KT 10SM CLR 24/21 A3000 RMK AO2 SLP153 T02390206","FM-15","7",,,,,,,,,,,,,,,,,,,,,,,,,,,,"2005-11-07"
"72622794790","2021-06-30T03:56:00","FM-15","7",,,,,,,,,,,,,,,,,,,,,,,,,,,,,,,,,,,,,,"29.99","69","75","T",,"+0.01","8","82","29.97","SCT:04 60 BKN:07 75","29.63","10.00","71","220",,"9",,,,,,,,,,,,,,,,,,,,,,,,,,,,,,,,,,,,,"MET12706/30/21 03:56:02 METAR KART 300856Z 22008KT 10SM SCT060 BKN075 24/21 A2999 RMK AO2 RAB43E55 SLP150 P0000 60000 T02390206 58002","FM-15","7",,,,,,,,,,,,,,,,,,,,,,,,,,,,"2005-11-07"
"72622794790","2021-06-30T04:53:00","FM-16","7",,,,,,,,,,,,,,,,,,,,,,,,,,,,,,,,,,,,,,"29.98","70","75",,"VCTS:7 ||",,,"83",,"SCT:04 60","29.62","10.00","72","210",,"10",,,,,,,,,,,,,,,,,,,,,,,,,,,,,,,,,,,,,"MET08106/30/21 04:53:02 SPECI KART 300953Z 21009KT 10SM VCTS SCT060 24/21 A2998 RMK AO2","FM-16","7",,,,,,,,,,,,,,,,,,,,,,,,,,,,"2005-11-07"
"72622794790","2021-06-30T04:56:00","FM-15","7",,,,,,,,,,,,,,,,,,,,,,,,,,,,,,,,,,,,,,"29.98","69","75","0.00","VCTS:7 ||",,,"82","29.96","SCT:04 60 BKN:07 120","29.62","10.00","71","210",,"9",,,,,,,,,,,,,,,,,,,,,,,,,,,,,,,,,,,,,"MET10506/30/21 04:56:02 METAR KART 300956Z 21008KT 10SM VCTS SCT060 BKN120 24/21 A2998 RMK AO2 SLP147 T02390206","FM-15","7",,,,,,,,,,,,,,,,,,,,,,,,,,,,"2005-11-07"
"72622794790","2021-06-30T05:08:00","FM-16","7",,,,,,,,,,,,,,,,,,,,,,,,,,,,,,,,,,,,,,"29.98","69","75",,,,,"82",,"FEW:02 80 FEW:02 110","29.62","10.00","71","220",,"10",,,,,,,,,,,,,,,,,,,,,,,,,,,,,,,,,,,,,"MET10406/30/21 05:08:02 SPECI KART 301008Z 22009KT 10SM FEW080 FEW110 24/21 A2998 RMK AO2 LTG DSNT E T02390206","FM-16","7",,,,,,,,,,,,,,,,,,,,,,,,,,,,"2005-11-07"
"72622794790","2021-06-30T05:56:00","FM-15","7",,,,,,,,,,,,,,,,,,,,,,,,,,,,,,,,,,,,,,"29.98","69","76","T",,,,"79","29.96","FEW:02 27 BKN:07 33 OVC:08 60","29.62","10.00","71","220",,"11",,,,,,,,,,,,,,,,,,,,,,,,,,,,,,,,,,,,,"MET10706/30/21 05:56:02 METAR KART 301056Z 22010KT 10SM FEW027 BKN033 OVC060 24/21 A2998 RMK AO2 SLP147 T02440206","FM-15","7",,,,,,,,,,,,,,,,,,,,,,,,,,,,"2005-11-07"
"72622794790","2021-06-30T06:56:00","FM-15","7",,,,,,,,,,,,,,,,,,,,,,,,,,,,,,,,,,,,,,"29.99","69","77","T",,"-0.00","3","77","29.96","BKN:07 36 BKN:07 44 BKN:07 50","29.63","10.00","72","230",,"11",,,,,,,,,,,,,,,,,,,,,,,,,,,,,,,,,,,,,"MET14806/30/21 06:56:02 METAR KART 301156Z 23010KT 10SM BKN036 BKN044 BKN050 25/21 A2999 RMK AO2 RAB1059E11 SLP147 P0000 60000 T02500206 10250 20233 53000","FM-15","7",,,,,,,,,,,,,,,,,,,,,,,,,,,,"2005-11-07"
"72622794790","2021-06-30T07:56:00","FM-15","7",,,,,,,,,,,,,,,,,,,,,,,,,,,,,,,,,,,,,,"29.98","69","77","T",,,,"77","29.96","BKN:07 19 BKN:07 43 BKN:07 70","29.62","10.00","72","230",,"11",,,,,,,,,,,,,,,,,,,,,,,,,,,,,,,,,,,,,"MET12206/30/21 07:56:02 METAR KART 301256Z 23010KT 10SM BKN019 BKN043 BKN070 25/21 A2998 RMK AO2 RAB01E12 SLP146 P0000 T02500206","FM-15","7",,,,,,,,,,,,,,,,,,,,,,,,,,,,"2005-11-07"
"72622794790","2021-06-30T08:56:00","FM-15","7",,,,,,,,,,,,,,,,,,,,,,,,,,,,,,,,,,,,,,"29.97","70","76","T","-RA:02 |RA |RA",,,"82","29.95","OVC:08 18","29.61","10.00","72","230","21","11",,,,,,,,,,,,,,,,,,,,,,,,,,,,,,,,,,,,,"MET11206/30/21 08:56:02 METAR KART 301356Z 23010G18KT 10SM -RA OVC018 24/21 A2997 RMK AO2 RAB48 SLP142 P0000 T02440211","FM-15","7",,,,,,,,,,,,,,,,,,,,,,,,,,,,"2005-11-07"
"72622794790","2021-06-30T09:56:00","FM-15","7",,,,,,,,,,,,,,,,,,,,,,,,,,,,,,,,,,,,,,"29.96","70","79","T",,"+0.03","8","74","29.94","BKN:07 16","29.60","10.00","73","250",,"13",,,,,,,,,,,,,,,,,,,,,,,,,,,,,,,,,,,,,"MET12806/30/21 09:56:02 METAR KART 301456Z 25011KT 10SM BKN016 26/21 A2996 RMK AO2 LTG DSNT E RAE46 SLP139 P0000 60000 T02610211 58009","FM-15","7",,,,,,,,,,,,,,,,,,,,,,,,,,,,"2005-11-07"
"72622794790","2021-06-30T10:04:00","FM-16","7",,,,,,,,,,,,,,,,,,,,,,,,,,,,,,,,,,,,,,"29.96","70","79",,,,,"74",,"SCT:04 16 SCT:04 75","29.60","10.00","73","240","23","16",,,,,,,,,,,,,,,,,,,,,,,,,,,,,,,,,,,,,"MET10706/30/21 10:04:02 SPECI KART 301504Z 24014G20KT 10SM SCT016 SCT075 26/21 A2996 RMK AO2 LTG DSNT E T02610211","FM-16","7",,,,,,,,,,,,,,,,,,,,,,,,,,,,"2005-11-07"
"72622794790","2021-06-30T10:56:00","FM-15","7",,,,,,,,,,,,,,,,,,,,,,,,,,,,,,,,,,,,,,"29.95","70","78","0.00",,,,"76","29.93","SCT:04 80","29.59","10.00","73","250","25","16",,,,,,,,,,,,,,,,,,,,,,,,,,,,,,,,,,,,,"MET09606/30/21 10:56:02 METAR KART 301556Z 25014G22KT 10SM SCT080 26/21 A2995 RMK AO2 SLP134 T02560211","FM-15","7",,,,,,,,,,,,,,,,,,,,,,,,,,,,"2005-11-07"
"72622794790","2021-06-30T11:56:00","FM-15","7",,,,,,,,,,,,,,,,,,,,,,,,,,,,,,,,,,,,,,"29.94","70","78","0.00",,,,"76","29.93","BKN:07 41 BKN:07 60","29.58","10.00","73","250","25","16",,,,,,,,,,,,,,,,,,,,,,,,,,,,,,,,,,,,,"MET10306/30/21 11:56:02 METAR KART 301656Z 25014G22KT 10SM BKN041 BKN060 26/21 A2994 RMK AO2 SLP134 T02560211","FM-15","7",,,,,,,,,,,,,,,,,,,,,,,,,,,,"2005-11-07"
"72622794790","2021-06-30T12:56:00","FM-15","7",,,,,,,,,,,,,,,,,,,,,,,,,,,,,,,,,,,,,,"29.92","71","80","T",,"+0.04","8","74","29.90","FEW:02 36 FEW:02 50 SCT:04 100","29.56","10.00","74","250","23","14",,,,,,,,,,,,,,,,,,,,,,,,,,,,,,,,,,,,,"MET14906/30/21 12:56:02 METAR KART 301756Z 25012G20KT 10SM FEW036 FEW050 SCT100 27/22 A2992 RMK AO2 RAB29E39 SLP126 P0000 60000 T02670217 10267 20239 58012","FM-15","7",,,,,,,,,,,,,,,,,,,,,,,,,,,,"2005-11-07"
"72622794790","2021-06-30T13:56:00","FM-15","7",,,,,,,,,,,,,,,,,,,,,,,,,,,,,,,,,,,,,,"29.90","70","82","0.00",,,,"67","29.88","CLR:00","29.54","10.00","74","250","25","16",,,,,,,,,,,,,,,,,,,,,,,,,,,,,,,,,,,,,"MET09306/30/21 13:56:02 METAR KART 301856Z 25014G22KT 10SM CLR 28/21 A2990 RMK AO2 SLP117 T02780211","FM-15","7",,,,,,,,,,,,,,,,,,,,,,,,,,,,"2005-11-07"
"72622794790","2021-06-30T14:56:00","FM-15","7",,,,,,,,,,,,,,,,,,,,,,,,,,,,,,,,,,,,,,"29.88","69","78","0.00",,,,"74","29.86","CLR:00","29.52","10.00","72","240","23","13",,,,,,,,,,,,,,,,,,,,,,,,,,,,,,,,,,,,,"MET09306/30/21 14:56:02 METAR KART 301956Z 24011G20KT 10SM CLR 26/21 A2988 RMK AO2 SLP113 T02560206","FM-15","7",,,,,,,,,,,,,,,,,,,,,,,,,,,,"2005-11-07"
"72622794790","2021-06-30T15:56:00","FM-15","7",,,,,,,,,,,,,,,,,,,,,,,,,,,,,,,,,,,,,,"29.88","69","77","0.00",,"+0.05","6","77","29.86","CLR:00","29.52","10.00","72","240","24","15",,,,,,,,,,,,,,,,,,,,,,,,,,,,,,,,,,,,,"MET11706/30/21 15:56:02 METAR KART 302056Z 24013G21KT 10SM CLR 25/21 A2988 RMK AO2 PK WND 22026/2037 SLP111 T02500206 56016","FM-15","7",,,,,,,,,,,,,,,,,,,,,,,,,,,,"2005-11-07"
"72622794790","2021-06-30T16:56:00","FM-15","7",,,,,,,,,,,,,,,,,,,,,,,,,,,,,,,,,,,,,,"29.87","69","77","0.00",,,,"77","29.85","CLR:00","29.51","10.00","72","240","23","16",,,,,,,,,,,,,,,,,,,,,,,,,,,,,,,,,,,,,"MET09306/30/21 16:56:02 METAR KART 302156Z 24014G20KT 10SM CLR 25/21 A2987 RMK AO2 SLP108 T02500206","FM-15","7",,,,,,,,,,,,,,,,,,,,,,,,,,,,"2005-11-07"
"72622794790","2021-06-30T17:56:00","FM-15","7",,,,,,,,,,,,,,,,,,,,,,,,,,,,,,,,,,,,,,"29.88","68","75","0.00",,,,"79","29.86","CLR:00","29.52","10.00","70","240",,"11",,,,,,,,,,,,,,,,,,,,,,,,,,,,,,,,,,,,,"MET09006/30/21 17:56:02 METAR KART 302256Z 24010KT 10SM CLR 24/20 A2988 RMK AO2 SLP112 T02390200","FM-15","7",,,,,,,,,,,,,,,,,,,,,,,,,,,,"2005-11-07"
"72622794790","2021-06-30T18:56:00","FM-15","7",,,,,,,,,,,,,,,,,,,,,,,,,,,,,,,,,,,,,,"29.89","67","74","0.00",,"-0.01","3","79","29.87","CLR:00","29.53","10.00","69","250",,"8",,,,,,,,,,,,,,,,,,,,,,,,,,,,,,,,,,,,,"MET10806/30/21 18:56:02 METAR KART 302356Z 25007KT 10SM CLR 23/19 A2989 RMK AO2 SLP115 T02330194 10278 20233 53004","FM-15","7",,,,,,,,,,,,,,,,,,,,,,,,,,,,"2005-11-07"
"72622794790","2021-06-30T19:56:00","FM-15","7",,,,,,,,,,,,,,,,,,,,,,,,,,,,,,,,,,,,,,"29.88","64","74","0.00",,,,"71","29.86","CLR:00","29.52","10.00","68","250",,"7",,,,,,,,,,,,,,,,,,,,,,,,,,,,,,,,,,,,,"MET09006/30/21 19:56:03 METAR KART 010056Z 25006KT 10SM CLR 23/18 A2988 RMK AO2 SLP113 T02330178","FM-15","7",,,,,,,,,,,,,,,,,,,,,,,,,,,,"2005-11-07"
"72622794790","2021-06-30T20:56:00","FM-15","7",,,,,,,,,,,,,,,,,,,,,,,,,,,,,,,,,,,,,,"29.90","64","71","0.00",,,,"79","29.88","BKN:07 50","29.54","10.00","67","230",,"8",,,,,,,,,,,,,,,,,,,,,,,,,,,,,,,,,,,,,"MET09306/30/21 20:56:03 METAR KART 010156Z 23007KT 10SM BKN050 22/18 A2990 RMK AO2 SLP118 T02170178","FM-15","7",,,,,,,,,,,,,,,,,,,,,,,,,,,,"2005-11-07"
"72622794790","2021-06-30T21:56:00","FM-15","7",,,,,,,,,,,,,,,,,,,,,,,,,,,,,,,,,,,,,,"29.89","64","70","0.00",,"-0.00","3","82","29.87","FEW:02 37 FEW:02 50","29.53","10.00","66","180",,"3",,,,,,,,,,,,,,,,,,,,,,,,,,,,,,,,,,,,,"MET10606/30/21 21:56:03 METAR KART 010256Z 18003KT 10SM FEW037 FEW050 21/18 A2989 RMK AO2 SLP116 T02110178 53000","FM-15","7",,,,,,,,,,,,,,,,,,,,,,,,,,,,"2005-11-07"
"72622794790","2021-06-30T22:56:00","FM-15","7",,,,,,,,,,,,,,,,,,,,,,,,,,,,,,,,,,,,,,"29.89","65","71","0.00",,,,"81","29.88","OVC:08 30","29.53","10.00","67","000",,"0",,,,,,,,,,,,,,,,,,,,,,,,,,,,,,,,,,,,,"MET09306/30/21 22:56:03 METAR KART 010356Z 00000KT 10SM OVC030 22/18 A2989 RMK AO2 SLP117 T02170183","FM-15","7",,,,,,,,,,,,,,,,,,,,,,,,,,,,"2005-11-07"
"72622794790","2021-06-30T23:56:00","FM-15","7",,,,,,,,,,,,,,,,,,,,,,,,,,,,,,,,,,,,,,"29.88","64","68","0.00",,,,"87","29.86","SCT:04 39 SCT:04 80","29.52","10.00","66","000",,"0",,,,,,,,,,,,,,,,,,,,,,,,,,,,,,,,,,,,,"MET11006/30/21 23:56:03 METAR KART 010456Z 00000KT 10SM SCT039 SCT080 20/18 A2988 RMK AO2 SLP113 T02000178 402780200","FM-15","7",,,,,,,,,,,,,,,,,,,,,,,,,,,,"2005-11-07"
"72622794790","2021-06-30T23:59:00","SOD  ","6",,,,,,,,,,,,,,,,"75",,,"29.59",,"10.3","10","8.1","0","82","68","220","29","T",,,"230","21","TS RA",,,,,,,,,,,,,,,,,,,,,,,,,,,,,,,,,,,,,,,,,,,,,,,,,,,,,,,,"SOD70924 HR PRECIPITATION (IN):    T WEATHER(CODE):3  24 HR MAX TEMP (F): 8224 HR MIN TEMP (F): 68AVERAGE STATION PRESSURE:29.585 MINIMUM SEA LEVEL PRESSURE:29.85 TIME OF OCCURRENCE:1737 PEAK WIND SPEED (MPH): 29 PEAK WIND DIR (DEG):220 PEAK WIND TIME (LST):      FASTEST 2MIN SPEED (MPH): 21FASTEST 2MIN DIR (DEG):230 FASTEST 2MIN TIME (LST):     AVERAGE WIND SPEED (MPH):10.3 24 HR AVG TEMP (F): 75DEPART FROM NORMAL:  8  HEATING DEGREE DAYS:  0 COOLING DEGREE DAYS: 10 LATEST DAY MAX TEMP (0700-1900 LST):82  LATEST NIGHT MIN TEMP(1900-0800 LST):74 HOURLY INCREMENTAL PRECIPITATION VALUES (IN):.00 0.00 0.00 T    0.00 T    T    T    T    T    0.00 0.00 T    0.00 0.00 0.00 0.00 0.00 0.00 0.00 0.00 0.00 0.00 0.00","SOD  ","6",,,,,,,,,,,,,,,,,,,,,,,,,"0424","1951",,"2005-11-07"
"72622794790","2021-06-30T23:59:00","SOM  ","6","7.4",,,,,,,,,,,"177","151",,,,,,,,,,,,,,,,,,,,,,"6922","52",,,,,,,,,,,,,,,,,,,"13","9","1s","0","0","0","4.2","89","-55","4.6","3.8","-0.48",,"0.55s","02-03",,,,,"30.27","24","1038","79.0","67.7","29.43","21","1757","56.4","29.93","29.58","2.37",,,"62","107","SOM797PCP MTOT:2.37 PCP GT 24HRS:0.55 DATE(S):2-3 DAYS W/PCP >=.01:13 DAYS W/PCP >=.10:9  DAYS W/ PCP >=.50:0 DAYS W/PCP >=1.00:0 MSDP AMTS W/DATE-TIME TAGS:MIN:5 0.14  15/1021 MIN:10 0.22  15/1023 MIN:15 0.24  15/1027 MIN:20 0.26  15/1031 MIN:30 0.29  13/2331 MIN:45 0.33  13/2334 MIN:60 0.38  14/0000 MIN:80 0.42  14/0009 MIN:100 0.44  14/0030 MIN:120 0.46  14/0043 MIN:150 0.46  14/0043 MIN:180 0.46  14/0043 AVG DLY MIN:56.4  AVG DLY MAX:79.0  AVG MLY TMP:67.7  MIN TMP:32 DATE(S):25 MAX TMP:89  DATE(S):29 27 DAYS MAX <=32:0 DAYS MAX >=90:0  DAYS MIN <=32:1  DAYS MIN  <=0:0  AVG STP:29.580 LWST SLP:29.43 DATE/TIME:211757 HGST SLP:30.27 DATE/TIME:241038 HDD MTH TOT:57 DEP NORM:-2553 SEASON(JUL 1-JUN 30):6948 DEP NORM:-25536 CDD MTH TOT:148 DEP NORM:-2553 SEASON(JAN 1-DEC 31):175 DEP NORM:-25536","SOM  ","6","2021-06-15 10:21","2021-06-15 10:23","2021-06-15 10:27","2021-06-15 10:31","2021-06-13 23:31","2021-06-13 23:34","2021-06-14 00:00","2021-06-14 00:09","2021-06-14 00:30","2021-06-14 00:43","2021-06-14 00:43","2021-06-14 00:43","0.14","0.22","0.24","0.26","0.29","0.33","0.38","0.42","0.44","0.46","0.46","0.46",,,,"2005-11-07"
